{"type":"FeatureCollection","name":"PC_PO","features":[{"type":"Feature","geometry":{"type":"Point","coordinates":[9.345833,45.101666]},"properties":{"scode":"PO59300","name":"Spessa Po","variables":["LIVIDRO"],"latest":{"LIVIDRO":-1.78},"latest_time":"2026-09-07T00:20","series":"series/PO59300.csv","zero_idro":52.09}},{"type":"Feature","geometry":{"type":"Point","coordinates":[7.691388,44.909444]},"properties":{"scode":"PO64900","name":"Carignano Po","variables":["LIVIDRO"],"latest":{"LIVIDRO":0.95},"latest_time":"2026-09-07T00:20","series":"series/PO64900.csv"}},{"type":"Feature","geometry":{"type":"Point","coordinates":[10.755555,45.045277]},"properties":{"scode":"PO165700","name":"Borgoforte","variables":["LIVIDRO"],"latest":{"LIVIDRO":-2.12},"latest_time":"2026-09-07T00:20","series":"series/PO165700.csv","zero_idro":14.5}},{"type":"Feature","geometry":{"type":"Point","coordinates":[10.560277,44.905833]},"properties":{"scode":"PO181500","name":"Boretto","variables":["LIVIDRO"],"latest":{"LIVIDRO":-2.67},"latest_time":"2026-09-07T00:30","series":"series/PO181500.csv","zero_idro":19.9}},{"type":"Feature","geometry":{"type":"Point","coordinates":[8.822222,45.036111]},"properties":{"scode":"PO186300","name":"Isola S.Antonio PO","variables":["LIVIDRO"],"latest":{"LIVIDRO":0.06},"latest_time":"2026-09-07T00:10","series":"series/PO186300.csv","zero_idro":68.18}},{"type":"Feature","geometry":{"type":"Point","coordinates":[9.225833,45.138333]},"properties":{"scode":"PO187400","name":"Ponte Becca Po","variables":["LIVIDRO"],"latest":{"LIVIDRO":-2.83},"latest_time":"2026-09-07T00:30","series":"series/PO187400.csv","zero_idro":55.11}},{"type":"Feature","geometry":{"type":"Point","coordinates":[10.419166,44.976111]},"properties":{"scode":"PO187500","name":"Casalmaggiore","variables":["LIVIDRO"],"latest":{"LIVIDRO":-3.84},"latest_time":"2026-09-07T00:20","series":"series/PO187500.csv","zero_idro":23.21}},{"type":"Feature","geometry":{"type":"Point","coordinates":[10.531666,45.114166]},"properties":{"scode":"PO194500","name":"Marcaria","variables":["LIVIDRO"],"latest":{"LIVIDRO":-0.38},"latest_time":"2026-09-07T00:35","series":"series/PO194500.csv"}},{"type":"Feature","geometry":{"type":"Point","coordinates":[9.708888,45.482222]},"properties":{"scode":"PO194700","name":"Mozzanica","variables":["LIVIDRO"],"latest":{"LIVIDRO":1.33},"latest_time":"2026-09-07T00:35","series":"series/PO194700.csv"}},{"type":"Feature","geometry":{"type":"Point","coordinates":[11.6075,44.8875]},"properties":{"scode":"PO201800","name":"Pontelagoscuro","variables":["LIVIDRO"],"latest":{"LIVIDRO":-5.88},"latest_time":"2026-09-07T00:30","series":"series/PO201800.csv","zero_idro":8.12}},{"type":"Feature","geometry":{"type":"Point","coordinates":[8.4475,45.142222]},"properties":{"scode":"PO207700","name":"Casale Monferrato Po","variables":["LIVIDRO"],"latest":{"LIVIDRO":-1.97},"latest_time":"2026-09-07T00:20","series":"series/PO207700.csv"}},{"type":"Feature","geometry":{"type":"Point","coordinates":[9.704166,45.058611]},"properties":{"scode":"PO210700","name":"Piacenza","variables":["LIVIDRO"],"latest":{"LIVIDRO":-0.35},"latest_time":"2026-09-07T00:30","series":"series/PO210700.csv","zero_idro":41.88}},{"type":"Feature","geometry":{"type":"Point","coordinates":[9.995555,45.129166]},"properties":{"scode":"PO210800","name":"Cremona - Ponte Po SS10","variables":["LIVIDRO"],"latest":{"LIVIDRO":-6.96},"latest_time":"2026-09-07T00:20","series":"series/PO210800.csv","zero_idro":34.34}},{"type":"Feature","geometry":{"type":"Point","coordinates":[12.121944,44.942777]},"properties":{"scode":"PO211400","name":"Ariano","variables":["LIVIDRO"],"latest":{"LIVIDRO":-1.36},"latest_time":"2026-09-07T00:30","series":"series/PO211400.csv"}},{"type":"Feature","geometry":{"type":"Point","coordinates":[8.631666,45.050833]},"properties":{"scode":"PO211500","name":"Valenza Po","variables":["LIVIDRO"],"latest":{"LIVIDRO":-0.63},"latest_time":"2026-09-07T00:00","series":"series/PO211500.csv","zero_idro":84.74}},{"type":"Feature","geometry":{"type":"Point","coordinates":[8.54,45.285]},"properties":{"scode":"PO221400","name":"Palestro a Vercelli SIAP","variables":["LIVIDRO"],"latest":{"LIVIDRO":1.9},"latest_time":"2026-09-07T00:30","series":"series/PO221400.csv"}},{"type":"Feature","geometry":{"type":"Point","coordinates":[8.63,45.050555]},"properties":{"scode":"PO221500","name":"Ponte Valenza SIAP","variables":["LIVIDRO"],"latest":{"LIVIDRO":-1.04},"latest_time":"2026-09-07T00:30","series":"series/PO221500.csv"}},{"type":"Feature","geometry":{"type":"Point","coordinates":[8.686111,44.946944]},"properties":{"scode":"PO221600","name":"Montecastello SIAP","variables":["LIVIDRO"],"latest":{"LIVIDRO":0.47},"latest_time":"2026-09-07T00:30","series":"series/PO221600.csv"}},{"type":"Feature","geometry":{"type":"Point","coordinates":[9.226111,45.138611]},"properties":{"scode":"PO221700","name":"Ponte Becca SIAP","variables":["LIVIDRO"],"latest":{"LIVIDRO":-2.84},"latest_time":"2026-09-07T00:30","series":"series/PO221700.csv"}},{"type":"Feature","geometry":{"type":"Point","coordinates":[9.995277,45.128888]},"properties":{"scode":"PO222000","name":"Cremona SIAP","variables":["LIVIDRO"],"latest":{"LIVIDRO":-6.99},"latest_time":"2026-09-07T00:30","series":"series/PO222000.csv"}},{"type":"Feature","geometry":{"type":"Point","coordinates":[10.093055,44.697222]},"properties":{"scode":"PO222200","name":"Fornovo SIAP","variables":["LIVIDRO"],"latest":{"LIVIDRO":0.46},"latest_time":"2026-09-07T00:30","series":"series/PO222200.csv"}},{"type":"Feature","geometry":{"type":"Point","coordinates":[10.755833,45.046111]},"properties":{"scode":"PO222400","name":"Borgoforte SIAP","variables":["LIVIDRO"],"latest":{"LIVIDRO":-2.17},"latest_time":"2026-09-07T00:30","series":"series/PO222400.csv"}},{"type":"Feature","geometry":{"type":"Point","coordinates":[10.655,44.437777]},"properties":{"scode":"PO222500","name":"Lugo SIAP","variables":["LIVIDRO"],"latest":{"LIVIDRO":-0.14},"latest_time":"2026-09-07T00:30","series":"series/PO222500.csv"}},{"type":"Feature","geometry":{"type":"Point","coordinates":[11.290833,45.0175]},"properties":{"scode":"PO222700","name":"Castelmassa SIAP","variables":["LIVIDRO"],"latest":{"LIVIDRO":6.0},"latest_time":"2026-09-07T00:30","series":"series/PO222700.csv"}},{"type":"Feature","geometry":{"type":"Point","coordinates":[11.604444,44.886111]},"properties":{"scode":"PO223000","name":"Pontelagoscuro SIAP","variables":["LIVIDRO"],"latest":{"LIVIDRO":-5.9},"latest_time":"2026-09-07T00:30","series":"series/PO223000.csv"}},{"type":"Feature","geometry":{"type":"Point","coordinates":[11.756388,44.958333]},"properties":{"scode":"PO223100","name":"Polesella SIAP","variables":["LIVIDRO"],"latest":{"LIVIDRO":-0.09},"latest_time":"2026-09-07T00:30","series":"series/PO223100.csv","zero_idro":1.12}},{"type":"Feature","geometry":{"type":"Point","coordinates":[12.163333,45.03]},"properties":{"scode":"PO223200","name":"Cavanella SIAP","variables":["LIVIDRO"],"latest":{"LIVIDRO":0.37},"latest_time":"2026-09-07T00:30","series":"series/PO223200.csv"}},{"type":"Feature","geometry":{"type":"Point","coordinates":[12.117777,44.948333]},"properties":{"scode":"PO223300","name":"Ariano SIAP","variables":["LIVIDRO"],"latest":{"LIVIDRO":0.45},"latest_time":"2026-09-07T00:30","series":"series/PO223300.csv"}},{"type":"Feature","geometry":{"type":"Point","coordinates":[12.492777,44.961388]},"properties":{"scode":"PO223400","name":"Pila SIAP","variables":["LIVIDRO"],"latest":{"LIVIDRO":0.75},"latest_time":"2026-09-07T00:30","series":"series/PO223400.csv"}},{"type":"Feature","geometry":{"type":"Point","coordinates":[10.341111,44.720555]},"properties":{"scode":"PO223500","name":"Parma Cassa briglia monte","variables":["LIVIDRO"],"latest":{"LIVIDRO":-0.34},"latest_time":"2026-09-07T00:30","series":"series/PO223500.csv"}},{"type":"Feature","geometry":{"type":"Point","coordinates":[10.049166,44.869722]},"properties":{"scode":"PO223600","name":"Fidenza SIAP","variables":["LIVIDRO"],"latest":{"LIVIDRO":-0.77},"latest_time":"2026-09-07T00:30","series":"series/PO223600.csv"}},{"type":"Feature","geometry":{"type":"Point","coordinates":[9.534722,45.576944]},"properties":{"scode":"PO327500","name":"Canonica d'Adda","variables":["LIVIDRO"],"latest":{"LIVIDRO":-9.13},"latest_time":"2026-09-07T00:20","series":"series/PO327500.csv"}},{"type":"Feature","geometry":{"type":"Point","coordinates":[10.221666,45.585]},"properties":{"scode":"PO327600","name":"Stocchetta","variables":["LIVIDRO"],"latest":{"LIVIDRO":0.29},"latest_time":"2026-09-07T00:35","series":"series/PO327600.csv"}},{"type":"Feature","geometry":{"type":"Point","coordinates":[10.242777,45.218333]},"properties":{"scode":"PO327700","name":"Ostiano","variables":["LIVIDRO"],"latest":{"LIVIDRO":-1.43},"latest_time":"2026-09-07T00:20","series":"series/PO327700.csv"}},{"type":"Feature","geometry":{"type":"Point","coordinates":[10.454444,44.844166]},"properties":{"scode":"PO327800","name":"Sorbolo","variables":["LIVIDRO"],"latest":{"LIVIDRO":2.28},"latest_time":"2026-09-07T00:35","series":"series/PO327800.csv"}},{"type":"Feature","geometry":{"type":"Point","coordinates":[10.64,44.853611]},"properties":{"scode":"PO327900","name":"S.Vittoria","variables":["LIVIDRO"],"latest":{"LIVIDRO":0.55},"latest_time":"2026-09-07T00:35","series":"series/PO327900.csv"}},{"type":"Feature","geometry":{"type":"Point","coordinates":[9.8225,45.663333]},"properties":{"scode":"PO328700","name":"Carobbio degli Angeli","variables":["LIVIDRO"],"latest":{"LIVIDRO":0.28},"latest_time":"2026-09-07T00:35","series":"series/PO328700.csv"}},{"type":"Feature","geometry":{"type":"Point","coordinates":[7.708055,45.068888]},"properties":{"scode":"PO481600","name":"Torino Murazzi Po","variables":["LIVIDRO"],"latest":{"LIVIDRO":0.25},"latest_time":"2026-09-07T00:20","series":"series/PO481600.csv"}},{"type":"Feature","geometry":{"type":"Point","coordinates":[7.943055,45.1725]},"properties":{"scode":"PO482500","name":"San Sebastiano Po","variables":["LIVIDRO"],"latest":{"LIVIDRO":1.07},"latest_time":"2026-09-07T00:20","series":"series/PO482500.csv"}},{"type":"Feature","geometry":{"type":"Point","coordinates":[11.000277,45.048888]},"properties":{"scode":"PO547700","name":"San Siro SIAP","variables":["LIVIDRO"],"latest":{"LIVIDRO":-1.18},"latest_time":"2026-09-07T00:30","series":"series/PO547700.csv"}},{"type":"Feature","geometry":{"type":"Point","coordinates":[9.767222,45.284722]},"properties":{"scode":"PO551400","name":"Castelleone SIAP","variables":["LIVIDRO"],"latest":{"LIVIDRO":0.01},"latest_time":"2026-08-31T09:30","series":"series/PO551400.csv"}},{"type":"Feature","geometry":{"type":"Point","coordinates":[10.709444,45.393888]},"properties":{"scode":"PO563300","name":"Salionze Mandracchio Virgilio","variables":["LIVIDRO"],"latest":{"LIVIDRO":0.75},"latest_time":"2026-09-07T00:30","series":"series/PO563300.csv"}},{"type":"Feature","geometry":{"type":"Point","coordinates":[10.845277,45.131666]},"properties":{"scode":"PO563500","name":"Formigosa-Botte Sifone","variables":["LIVIDRO"],"latest":{"LIVIDRO":13.86},"latest_time":"2026-09-07T00:30","series":"series/PO563500.csv"}},{"type":"Feature","geometry":{"type":"Point","coordinates":[10.843611,45.129722]},"properties":{"scode":"PO563600","name":"Vallazza-Fissero","variables":["LIVIDRO"],"latest":{"LIVIDRO":12.71},"latest_time":"2026-09-07T00:30","series":"series/PO563600.csv"}},{"type":"Feature","geometry":{"type":"Point","coordinates":[10.710833,45.392777]},"properties":{"scode":"PO564200","name":"Salionze canale Seriola","variables":["LIVIDRO"],"latest":{"LIVIDRO":1.32},"latest_time":"2026-09-07T00:30","series":"series/PO564200.csv"}},{"type":"Feature","geometry":{"type":"Point","coordinates":[9.693055,45.351111]},"properties":{"scode":"PO634900","name":"Crema Serio","variables":["LIVIDRO"],"latest":{"LIVIDRO":-1.23},"latest_time":"2026-09-07T00:35","series":"series/PO634900.csv"}},{"type":"Feature","geometry":{"type":"Point","coordinates":[8.836388,45.7075]},"properties":{"scode":"PO639100","name":"Cassano Magnago A1","variables":["LIVIDRO"],"latest":{"LIVIDRO":-0.69},"latest_time":"2026-09-07T00:30","series":"series/PO639100.csv"}},{"type":"Feature","geometry":{"type":"Point","coordinates":[8.831666,45.689444]},"properties":{"scode":"PO640700","name":"Cassano Magnago A5","variables":["LIVIDRO"],"latest":{"LIVIDRO":-0.36},"latest_time":"2026-09-07T00:30","series":"series/PO640700.csv"}},{"type":"Feature","geometry":{"type":"Point","coordinates":[8.938611,45.578611]},"properties":{"scode":"PO648700","name":"Olona a S.Vittore","variables":["LIVIDRO"],"latest":{"LIVIDRO":0.71},"latest_time":"2026-09-07T00:30","series":"series/PO648700.csv"}},{"type":"Feature","geometry":{"type":"Point","coordinates":[10.588611,44.643055]},"properties":{"scode":"PO651000","name":"Cassa Crostolo SIAP","variables":["LIVIDRO"],"latest":{"LIVIDRO":6.21},"latest_time":"2026-09-07T00:30","series":"series/PO651000.csv"}},{"type":"Feature","geometry":{"type":"Point","coordinates":[8.601944,44.914722]},"properties":{"scode":"PO683300","name":"Alessandria Tanaro","variables":["LIVIDRO"],"latest":{"LIVIDRO":0.39},"latest_time":"2026-09-07T00:20","series":"series/PO683300.csv"}},{"type":"Feature","geometry":{"type":"Point","coordinates":[10.698333,45.440277]},"properties":{"scode":"PO683800","name":"Peschiera del Garda","variables":["LIVIDRO"],"latest":{"LIVIDRO":0.57},"latest_time":"2026-09-07T00:30","series":"series/PO683800.csv"}},{"type":"Feature","geometry":{"type":"Point","coordinates":[9.145,45.625277]},"properties":{"scode":"PO711200","name":"Cesano Maderno","variables":["LIVIDRO"],"latest":{"LIVIDRO":-0.22},"latest_time":"2026-09-07T00:30","series":"series/PO711200.csv"}},{"type":"Feature","geometry":{"type":"Point","coordinates":[9.159722,45.578888]},"properties":{"scode":"PO711300","name":"Paderno Dugnano","variables":["LIVIDRO"],"latest":{"LIVIDRO":0.44},"latest_time":"2026-09-07T00:30","series":"series/PO711300.csv"}},{"type":"Feature","geometry":{"type":"Point","coordinates":[9.131111,45.571111]},"properties":{"scode":"PO711400","name":"Senago CSNO","variables":["LIVIDRO"],"latest":{"LIVIDRO":0.11},"latest_time":"2026-09-07T00:30","series":"series/PO711400.csv"}},{"type":"Feature","geometry":{"type":"Point","coordinates":[9.073055,45.538333]},"properties":{"scode":"PO711500","name":"Arese CSNO","variables":["LIVIDRO"],"latest":{"LIVIDRO":0.01},"latest_time":"2026-09-07T00:30","series":"series/PO711500.csv"}},{"type":"Feature","geometry":{"type":"Point","coordinates":[9.053055,45.538611]},"properties":{"scode":"PO711600","name":"Rho Lura","variables":["LIVIDRO"],"latest":{"LIVIDRO":0.28},"latest_time":"2026-09-07T00:30","series":"series/PO711600.csv"}},{"type":"Feature","geometry":{"type":"Point","coordinates":[9.021666,45.548055]},"properties":{"scode":"PO711800","name":"Rho Lainate","variables":["LIVIDRO"],"latest":{"LIVIDRO":0.4},"latest_time":"2026-09-07T00:30","series":"series/PO711800.csv"}},{"type":"Feature","geometry":{"type":"Point","coordinates":[8.925833,45.421944]},"properties":{"scode":"PO712100","name":"Albairate CSNO-Naviglio grande","variables":["LIVIDRO"],"latest":{"LIVIDRO":0.89},"latest_time":"2026-09-07T00:30","series":"series/PO712100.csv"}},{"type":"Feature","geometry":{"type":"Point","coordinates":[9.166944,45.425]},"properties":{"scode":"PO712200","name":"Milano Conca Fallata","variables":["LIVIDRO"],"latest":{"LIVIDRO":0.87},"latest_time":"2026-09-07T00:30","series":"series/PO712200.csv"}},{"type":"Feature","geometry":{"type":"Point","coordinates":[9.159166,45.443611]},"properties":{"scode":"PO712300","name":"Milano Via Malaga","variables":["LIVIDRO"],"latest":{"LIVIDRO":1.41},"latest_time":"2026-09-07T00:30","series":"series/PO712300.csv"}},{"type":"Feature","geometry":{"type":"Point","coordinates":[10.994444,44.821666]},"properties":{"scode":"PO715400","name":"Ponte Motta","variables":["LIVIDRO"],"latest":{"LIVIDRO":0.26},"latest_time":"2026-09-07T00:30","series":"series/PO715400.csv"}},{"type":"Feature","geometry":{"type":"Point","coordinates":[10.706111,45.392777]},"properties":{"scode":"PO725200","name":"Salionze Mincio","variables":["LIVIDRO"],"latest":{"LIVIDRO":0.55},"latest_time":"2026-09-07T00:30","series":"series/PO725200.csv"}},{"type":"Feature","geometry":{"type":"Point","coordinates":[9.195833,45.509444]},"properties":{"scode":"PO743500","name":"MM Valfurva","variables":["LIVIDRO"],"latest":{"LIVIDRO":0.41},"latest_time":"2026-09-07T00:21","series":"series/PO743500.csv"}},{"type":"Feature","geometry":{"type":"Point","coordinates":[9.091944,45.546944]},"properties":{"scode":"PO743900","name":"Guisa Arese","variables":["LIVIDRO"],"latest":{"LIVIDRO":0.0},"latest_time":"2026-09-07T00:30","series":"series/PO743900.csv"}},{"type":"Feature","geometry":{"type":"Point","coordinates":[9.143611,45.430555]},"properties":{"scode":"PO747100","name":"Cascina Battivacco-Dev Olona","variables":["LIVIDRO"],"latest":{"LIVIDRO":0.73},"latest_time":"2026-09-07T00:30","series":"series/PO747100.csv"}},{"type":"Feature","geometry":{"type":"Point","coordinates":[10.425555,44.77]},"properties":{"scode":"PO858400","name":"S.Ilario d'Enza","variables":["LIVIDRO"],"latest":{"LIVIDRO":-0.88},"latest_time":"2026-09-07T00:30","series":"series/PO858400.csv"}},{"type":"Feature","geometry":{"type":"Point","coordinates":[8.395833,45.530277]},"properties":{"scode":"PO916200","name":"Carpignano Sesia SIAP","variables":["LIVIDRO"],"latest":{"LIVIDRO":0.81},"latest_time":"2026-09-07T00:30","series":"series/PO916200.csv"}},{"type":"Feature","geometry":{"type":"Point","coordinates":[11.010277,44.474722]},"properties":{"scode":"PO923800","name":"Vignola SIAP","variables":["LIVIDRO"],"latest":{"LIVIDRO":0.42},"latest_time":"2026-09-07T00:30","series":"series/PO923800.csv"}},{"type":"Feature","geometry":{"type":"Point","coordinates":[7.669722,44.970555]},"properties":{"scode":"PO924000","name":"La Loggia Chisola SIAP","variables":["LIVIDRO"],"latest":{"LIVIDRO":1.2},"latest_time":"2026-09-07T00:30","series":"series/PO924000.csv"}},{"type":"Feature","geometry":{"type":"Point","coordinates":[8.868888,45.776111]},"properties":{"scode":"PO951700","name":"Olona a Lozza","variables":["LIVIDRO"],"latest":{"LIVIDRO":1.1},"latest_time":"2026-09-07T00:10","series":"series/PO951700.csv"}},{"type":"Feature","geometry":{"type":"Point","coordinates":[9.724444,45.68]},"properties":{"scode":"PO1095800","name":"Seriate SIAP","variables":["LIVIDRO"],"latest":{"LIVIDRO":-0.23},"latest_time":"2026-09-07T00:30","series":"series/PO1095800.csv"}},{"type":"Feature","geometry":{"type":"Point","coordinates":[8.437222,45.325555]},"properties":{"scode":"PO1095900","name":"Vercelli SIAP","variables":["LIVIDRO"],"latest":{"LIVIDRO":-0.93},"latest_time":"2026-09-07T00:30","series":"series/PO1095900.csv"}},{"type":"Feature","geometry":{"type":"Point","coordinates":[12.434166,44.935833]},"properties":{"scode":"PO1096000","name":"Cà Dolfin SIAP","variables":["LIVIDRO"],"latest":{"LIVIDRO":1.84},"latest_time":"2026-09-07T00:30","series":"series/PO1096000.csv"}},{"type":"Feature","geometry":{"type":"Point","coordinates":[12.303333,44.948611]},"properties":{"scode":"PO1096100","name":"Cà Tiepolo SIAP","variables":["LIVIDRO"],"latest":{"LIVIDRO":0.43},"latest_time":"2026-09-07T00:30","series":"series/PO1096100.csv"}},{"type":"Feature","geometry":{"type":"Point","coordinates":[12.330277,44.958333]},"properties":{"scode":"PO1096200","name":"Cà Venier SIAP","variables":["LIVIDRO"],"latest":{"LIVIDRO":1.52},"latest_time":"2026-09-07T00:30","series":"series/PO1096200.csv"}},{"type":"Feature","geometry":{"type":"Point","coordinates":[9.708055,45.263055]},"properties":{"scode":"PO1096300","name":"Boccaserio SP591","variables":["LIVIDRO"],"latest":{"LIVIDRO":1.18},"latest_time":"2026-09-07T00:30","series":"series/PO1096300.csv"}},{"type":"Feature","geometry":{"type":"Point","coordinates":[8.953888,45.569444]},"properties":{"scode":"PO946900","name":"San Lorenzo Parabiago","variables":["LIVIDRO"],"latest":{"LIVIDRO":1.04},"latest_time":"2026-09-07T00:30","series":"series/PO946900.csv"}}]}