{"type":"FeatureCollection","name":"LIG","features":[{"type":"Feature","geometry":{"type":"Point","coordinates":[8.15981,44.31321]},"properties":{"scode":"LIGMURIA","name":"Murialdo","variables":["CDD","ET0","GDD","HDD","LIVIDRO","TEMP"],"latest":{"CDD":0.0,"ET0":0.55,"GDD":0.0,"HDD":10.3,"LIVIDRO":-0.34,"TEMP":7.3},"latest_time":"2026-10-04T05:00","series":"series/LIGMURIA.csv"}},{"type":"Feature","geometry":{"type":"Point","coordinates":[9.61484,44.32323]},"properties":{"scode":"LIGLAMAC","name":"La Macchia","variables":["LIVIDRO"],"latest":{"LIVIDRO":-1.27},"latest_time":"2026-10-04T05:00","series":"series/LIGLAMAC.csv"}},{"type":"Feature","geometry":{"type":"Point","coordinates":[8.57322,44.37234]},"properties":{"scode":"LIGBOLSN","name":"Bolsine","variables":["CDD","ET0","GDD","HDD","LIVIDRO","TDEW","TEMP","UMID","VPD"],"latest":{"CDD":0.0,"ET0":0.81,"GDD":6.5,"HDD":1.5,"LIVIDRO":0.15,"TDEW":7.9,"TEMP":15.9,"UMID":59.0,"VPD":0.741},"latest_time":"2026-10-04T05:00","series":"series/LIGBOLSN.csv"}},{"type":"Feature","geometry":{"type":"Point","coordinates":[7.54484,43.87296]},"properties":{"scode":"LIGAIROL","name":"Airole","variables":["CDD","ET0","GDD","HDD","LIVIDRO","TEMP"],"latest":{"CDD":0.0,"ET0":0.79,"GDD":5.3,"HDD":2.7,"LIVIDRO":1.91,"TEMP":14.7},"latest_time":"2026-10-04T05:00","series":"series/LIGAIROL.csv"}},{"type":"Feature","geometry":{"type":"Point","coordinates":[8.21077,44.04882]},"properties":{"scode":"LIGMOBRA","name":"Albenga - Molino Branca","variables":["CDD","ET0","GDD","HDD","LIVIDRO","TEMP"],"latest":{"CDD":0.0,"ET0":1.5,"GDD":9.4,"HDD":0.0,"LIVIDRO":1.19,"TEMP":17.7},"latest_time":"2026-10-04T05:00","series":"series/LIGMOBRA.csv"}},{"type":"Feature","geometry":{"type":"Point","coordinates":[8.97959,44.45966]},"properties":{"scode":"LIGGEGEI","name":"Genova - Geirato","variables":["LIVIDRO"],"latest":{"LIVIDRO":1.15},"latest_time":"2026-10-04T05:00","series":"series/LIGGEGEI.csv"}},{"type":"Feature","geometry":{"type":"Point","coordinates":[9.4259,44.26672]},"properties":{"scode":"LIGSLPSS","name":"Sestri Levante - PonteSS1","variables":["LIVIDRO"],"latest":{"LIVIDRO":0.33},"latest_time":"2026-10-04T05:00","series":"series/LIGSLPSS.csv"}},{"type":"Feature","geometry":{"type":"Point","coordinates":[7.84202,43.93074]},"properties":{"scode":"LIGMONTL","name":"Montalto Ligure","variables":["LIVIDRO"],"latest":{"LIVIDRO":1.25},"latest_time":"2026-10-04T05:00","series":"series/LIGMONTL.csv"}},{"type":"Feature","geometry":{"type":"Point","coordinates":[9.04717,44.44076]},"properties":{"scode":"LIGLAPRS","name":"La Presa","variables":["LIVIDRO"],"latest":{"LIVIDRO":0.86},"latest_time":"2026-10-04T05:00","series":"series/LIGLAPRS.csv"}},{"type":"Feature","geometry":{"type":"Point","coordinates":[9.90286,44.14003]},"properties":{"scode":"LIGVZSAW","name":"Vezzano Ligure - Idro","variables":["LIVIDRO"],"latest":{"LIVIDRO":0.09},"latest_time":"2026-10-04T05:00","series":"series/LIGVZSAW.csv"}},{"type":"Feature","geometry":{"type":"Point","coordinates":[9.89905,44.33678]},"properties":{"scode":"LIGPTEGL","name":"Ponte Teglia","variables":["LIVIDRO"],"latest":{"LIVIDRO":0.67},"latest_time":"2026-10-04T05:00","series":"series/LIGPTEGL.csv"}},{"type":"Feature","geometry":{"type":"Point","coordinates":[9.89666,44.36184]},"properties":{"scode":"LIGPSGIU","name":"Pontremoli - S.Giustina (Rete Toscana)","variables":["LIVIDRO"],"latest":{"LIVIDRO":-1.42},"latest_time":"2026-10-04T05:00","series":"series/LIGPSGIU.csv"}},{"type":"Feature","geometry":{"type":"Point","coordinates":[9.95015,44.19802]},"properties":{"scode":"LIGCALAM","name":"Calamazza","variables":["LIVIDRO"],"latest":{"LIVIDRO":0.13},"latest_time":"2026-10-04T05:00","series":"series/LIGCALAM.csv"}},{"type":"Feature","geometry":{"type":"Point","coordinates":[8.98149,44.63599]},"properties":{"scode":"LIGVOBBI","name":"Vobbietta","variables":["LIVIDRO"],"latest":{"LIVIDRO":1.73},"latest_time":"2026-10-04T05:00","series":"series/LIGVOBBI.csv"}},{"type":"Feature","geometry":{"type":"Point","coordinates":[9.9722,44.07884]},"properties":{"scode":"LIGAMEFM","name":"Ameglia Foce Magra","variables":["LIVIDRO"],"latest":{"LIVIDRO":0.11},"latest_time":"2026-10-04T05:00","series":"series/LIGAMEFM.csv"}},{"type":"Feature","geometry":{"type":"Point","coordinates":[8.98654,44.45433]},"properties":{"scode":"LIGGEMOL","name":"Genova - Molassana","variables":["LIVIDRO"],"latest":{"LIVIDRO":-0.03},"latest_time":"2026-10-04T05:00","series":"series/LIGGEMOL.csv"}},{"type":"Feature","geometry":{"type":"Point","coordinates":[9.36169,44.35169]},"properties":{"scode":"LIGCARPB","name":"Carasco - Ponte Birago","variables":["LIVIDRO"],"latest":{"LIVIDRO":0.6},"latest_time":"2026-10-04T05:00","series":"series/LIGCARPB.csv"}},{"type":"Feature","geometry":{"type":"Point","coordinates":[7.81883,43.83551]},"properties":{"scode":"LIGARMEA","name":"Valle Armea - Ponte","variables":["LIVIDRO"],"latest":{"LIVIDRO":0.0},"latest_time":"2026-10-04T05:00","series":"series/LIGARMEA.csv"}},{"type":"Feature","geometry":{"type":"Point","coordinates":[8.28944,44.35662]},"properties":{"scode":"LIGCARCA","name":"Carcare","variables":["LIVIDRO"],"latest":{"LIVIDRO":0.08},"latest_time":"2026-10-04T05:00","series":"series/LIGCARCA.csv"}},{"type":"Feature","geometry":{"type":"Point","coordinates":[7.55404,43.83782]},"properties":{"scode":"LIGTORRI","name":"Torri","variables":["LIVIDRO"],"latest":{"LIVIDRO":-0.01},"latest_time":"2026-10-04T05:00","series":"series/LIGTORRI.csv"}},{"type":"Feature","geometry":{"type":"Point","coordinates":[8.95395,44.41094]},"properties":{"scode":"LIGFIRPO","name":"Genova - Firpo","variables":["LIVIDRO"],"latest":{"LIVIDRO":0.7},"latest_time":"2026-10-04T05:00","series":"series/LIGFIRPO.csv"}},{"type":"Feature","geometry":{"type":"Point","coordinates":[7.59046,43.81253]},"properties":{"scode":"LIGXXMPA","name":"Ventimiglia - Ponte Aniante","variables":["LIVIDRO"],"latest":{"LIVIDRO":0.46},"latest_time":"2026-10-04T05:00","series":"series/LIGXXMPA.csv"}},{"type":"Feature","geometry":{"type":"Point","coordinates":[8.4667,44.36638]},"properties":{"scode":"LIGELLRA","name":"Ellera - Foglietto","variables":["CDD","ET0","GDD","HDD","LIVIDRO","TEMP"],"latest":{"CDD":0.0,"ET0":0.82,"GDD":5.2,"HDD":2.5,"LIVIDRO":0.3,"TEMP":15.3},"latest_time":"2026-10-04T05:00","series":"series/LIGELLRA.csv"}},{"type":"Feature","geometry":{"type":"Point","coordinates":[7.62411,43.86053]},"properties":{"scode":"LIGDCQUA","name":"Dolceacqua - Molinetti","variables":["LIVIDRO"],"latest":{"LIVIDRO":0.31},"latest_time":"2026-10-04T05:00","series":"series/LIGDCQUA.csv"}},{"type":"Feature","geometry":{"type":"Point","coordinates":[9.28156,44.56529]},"properties":{"scode":"LIGROVPT","name":"Rovegno - Ponte","variables":["LIVIDRO"],"latest":{"LIVIDRO":-0.07},"latest_time":"2026-10-04T05:00","series":"series/LIGROVPT.csv"}},{"type":"Feature","geometry":{"type":"Point","coordinates":[8.00619,43.94153]},"properties":{"scode":"LIGRUGGE","name":"Rugge di Pontedassio","variables":["LIVIDRO"],"latest":{"LIVIDRO":-0.2},"latest_time":"2026-10-04T05:00","series":"series/LIGRUGGE.csv"}},{"type":"Feature","geometry":{"type":"Point","coordinates":[8.06393,44.05445]},"properties":{"scode":"LIGPOGLI","name":"Pogli d'Ortovero","variables":["LIVIDRO"],"latest":{"LIVIDRO":-0.37},"latest_time":"2026-10-04T05:00","series":"series/LIGPOGLI.csv"}},{"type":"Feature","geometry":{"type":"Point","coordinates":[9.71552,44.23132]},"properties":{"scode":"LIGBVARA","name":"Brugnato","variables":["LIVIDRO"],"latest":{"LIVIDRO":0.16},"latest_time":"2026-10-04T05:00","series":"series/LIGBVARA.csv"}},{"type":"Feature","geometry":{"type":"Point","coordinates":[8.74603,44.43946]},"properties":{"scode":"LIGMOLIN","name":"Molinetto","variables":["LIVIDRO"],"latest":{"LIVIDRO":0.14},"latest_time":"2026-10-04T05:00","series":"series/LIGMOLIN.csv"}},{"type":"Feature","geometry":{"type":"Point","coordinates":[9.34391,44.35945]},"properties":{"scode":"LIGSMART","name":"S. Martino","variables":["LIVIDRO"],"latest":{"LIVIDRO":-2.07},"latest_time":"2026-10-04T05:00","series":"series/LIGSMART.csv"}},{"type":"Feature","geometry":{"type":"Point","coordinates":[9.40992,44.27377]},"properties":{"scode":"LIGSLEVA","name":"Sestri Levante","variables":["CDD","ET0","GDD","HDD","LIVIDRO","TEMP"],"latest":{"CDD":0.0,"ET0":0.9,"GDD":6.4,"HDD":1.8,"LIVIDRO":-0.04,"TEMP":15.7},"latest_time":"2026-10-04T05:00","series":"series/LIGSLEVA.csv"}},{"type":"Feature","geometry":{"type":"Point","coordinates":[8.32248,44.36694]},"properties":{"scode":"LIGFERRA","name":"Ferrania","variables":["CDD","ET0","GDD","HDD","LIVIDRO","TDEW","TEMP","UMID","VPD"],"latest":{"CDD":0.0,"ET0":0.57,"GDD":0.0,"HDD":11.5,"LIVIDRO":0.25,"TDEW":5.9,"TEMP":6.0,"UMID":99.0,"VPD":0.009},"latest_time":"2026-10-04T05:00","series":"series/LIGFERRA.csv"}},{"type":"Feature","geometry":{"type":"Point","coordinates":[8.9001,44.48852]},"properties":{"scode":"LIGGEPTX","name":"Genova - Pontedecimo","variables":["CDD","ET0","GDD","HDD","LIVIDRO","TEMP"],"latest":{"CDD":0.0,"ET0":0.6,"GDD":3.3,"HDD":4.7,"LIVIDRO":0.24,"TEMP":12.9},"latest_time":"2026-10-04T05:00","series":"series/LIGGEPTX.csv"}},{"type":"Feature","geometry":{"type":"Point","coordinates":[9.35624,44.34209]},"properties":{"scode":"LIGPANES","name":"Panesi","variables":["LIVIDRO"],"latest":{"LIVIDRO":-1.5},"latest_time":"2026-10-04T05:00","series":"series/LIGPANES.csv"}},{"type":"Feature","geometry":{"type":"Point","coordinates":[8.48252,44.41582]},"properties":{"scode":"LIGSSGIU","name":"Stella S. Giustina","variables":["CDD","ET0","GDD","HDD","LIVIDRO","TEMP"],"latest":{"CDD":0.0,"ET0":0.87,"GDD":2.8,"HDD":4.8,"LIVIDRO":-0.11,"TEMP":12.0},"latest_time":"2026-10-04T05:00","series":"series/LIGSSGIU.csv"}},{"type":"Feature","geometry":{"type":"Point","coordinates":[9.84904,44.19801]},"properties":{"scode":"LIGPBATT","name":"Piana Battolla - Ponte","variables":["LIVIDRO"],"latest":{"LIVIDRO":-0.31},"latest_time":"2026-10-04T05:00","series":"series/LIGPBATT.csv"}},{"type":"Feature","geometry":{"type":"Point","coordinates":[8.6939,44.54256]},"properties":{"scode":"LIGCAMPL","name":"Campo Ligure","variables":["CDD","ET0","GDD","HDD","LIVIDRO","TDEW","TEMP","UMID","VPD"],"latest":{"CDD":0.0,"ET0":0.57,"GDD":0.0,"HDD":10.5,"LIVIDRO":-0.06,"TDEW":6.6,"TEMP":7.0,"UMID":97.0,"VPD":0.03},"latest_time":"2026-10-04T05:00","series":"series/LIGCAMPL.csv"}},{"type":"Feature","geometry":{"type":"Point","coordinates":[10.06207,44.20233]},"properties":{"scode":"LIGSOLIE","name":"Soliera","variables":["LIVIDRO"],"latest":{"LIVIDRO":1.06},"latest_time":"2026-10-04T05:00","series":"series/LIGSOLIE.csv"}},{"type":"Feature","geometry":{"type":"Point","coordinates":[9.04769,44.51561]},"properties":{"scode":"LIGMONTG","name":"Montoggio","variables":["CDD","ET0","GDD","HDD","LIVIDRO","TDEW","TEMP","UMID","VPD"],"latest":{"CDD":0.0,"ET0":0.51,"GDD":0.0,"HDD":10.9,"LIVIDRO":0.62,"TDEW":6.7,"TEMP":6.8,"UMID":99.0,"VPD":0.01},"latest_time":"2026-10-04T05:00","series":"series/LIGMONTG.csv"}},{"type":"Feature","geometry":{"type":"Point","coordinates":[8.43753,44.34555]},"properties":{"scode":"LIGSANTU","name":"Santuario di Savona","variables":["CDD","ET0","GDD","HDD","LIVIDRO","TEMP"],"latest":{"CDD":0.0,"ET0":1.26,"GDD":6.1,"HDD":1.9,"LIVIDRO":-0.12,"TEMP":17.5},"latest_time":"2026-10-04T05:00","series":"series/LIGSANTU.csv"}},{"type":"Feature","geometry":{"type":"Point","coordinates":[9.98416,44.30966]},"properties":{"scode":"LIGBGNNE","name":"Bagnone","variables":["LIVIDRO"],"latest":{"LIVIDRO":0.19},"latest_time":"2026-10-04T05:00","series":"series/LIGBGNNE.csv"}},{"type":"Feature","geometry":{"type":"Point","coordinates":[9.65595,44.27808]},"properties":{"scode":"LIGNASCE","name":"Nasceto","variables":["LIVIDRO"],"latest":{"LIVIDRO":0.74},"latest_time":"2026-10-04T05:00","series":"series/LIGNASCE.csv"}},{"type":"Feature","geometry":{"type":"Point","coordinates":[9.88566,44.39297]},"properties":{"scode":"LIGPICCA","name":"Piccatello","variables":["LIVIDRO"],"latest":{"LIVIDRO":0.06},"latest_time":"2026-10-04T05:00","series":"series/LIGPICCA.csv"}},{"type":"Feature","geometry":{"type":"Point","coordinates":[9.94238,44.29327]},"properties":{"scode":"LIGPMAGR","name":"Ponte Magra","variables":["LIVIDRO"],"latest":{"LIVIDRO":0.16},"latest_time":"2026-10-04T05:00","series":"series/LIGPMAGR.csv"}},{"type":"Feature","geometry":{"type":"Point","coordinates":[8.98468,44.39625]},"properties":{"scode":"LIGGSTUR","name":"Genova - Sturla","variables":["LIVIDRO"],"latest":{"LIVIDRO":-0.18},"latest_time":"2026-10-04T05:00","series":"series/LIGGSTUR.csv"}},{"type":"Feature","geometry":{"type":"Point","coordinates":[8.82023,44.43671]},"properties":{"scode":"LIGVAREN","name":"Genova - Granara","variables":["LIVIDRO"],"latest":{"LIVIDRO":1.19},"latest_time":"2026-10-04T05:00","series":"series/LIGVAREN.csv"}},{"type":"Feature","geometry":{"type":"Point","coordinates":[8.88952,44.43788]},"properties":{"scode":"LIGGERIV","name":"Genova - Rivarolo","variables":["LIVIDRO"],"latest":{"LIVIDRO":0.37},"latest_time":"2026-10-04T05:00","series":"series/LIGGERIV.csv"}},{"type":"Feature","geometry":{"type":"Point","coordinates":[9.41004,44.34004]},"properties":{"scode":"LIGCAMIN","name":"Caminata","variables":["LIVIDRO"],"latest":{"LIVIDRO":0.71},"latest_time":"2026-10-04T05:00","series":"series/LIGCAMIN.csv"}},{"type":"Feature","geometry":{"type":"Point","coordinates":[9.3738,44.38149]},"properties":{"scode":"LIGVIGNO","name":"Vignolo","variables":["LIVIDRO"],"latest":{"LIVIDRO":0.7},"latest_time":"2026-10-04T05:00","series":"series/LIGVIGNO.csv"}},{"type":"Feature","geometry":{"type":"Point","coordinates":[8.97019,44.42032]},"properties":{"scode":"LIGGEFER","name":"Genova - Fereggiano","variables":["LIVIDRO"],"latest":{"LIVIDRO":0.39},"latest_time":"2026-10-04T05:00","series":"series/LIGGEFER.csv"}},{"type":"Feature","geometry":{"type":"Point","coordinates":[7.63767,43.87765]},"properties":{"scode":"LIGISBON","name":"Isolabona","variables":["LIVIDRO"],"latest":{"LIVIDRO":0.51},"latest_time":"2026-10-04T05:00","series":"series/LIGISBON.csv"}},{"type":"Feature","geometry":{"type":"Point","coordinates":[7.9206,44.04149]},"properties":{"scode":"LIGPTECH","name":"Pieve di Teco (idro)","variables":["LIVIDRO"],"latest":{"LIVIDRO":0.98},"latest_time":"2026-10-04T05:00","series":"series/LIGPTECH.csv"}},{"type":"Feature","geometry":{"type":"Point","coordinates":[8.20417,44.38987]},"properties":{"scode":"LIGCENGI","name":"Cengio","variables":["LIVIDRO"],"latest":{"LIVIDRO":0.08},"latest_time":"2026-10-04T05:00","series":"series/LIGCENGI.csv"}},{"type":"Feature","geometry":{"type":"Point","coordinates":[8.14573,44.08552]},"properties":{"scode":"LIGCISAN","name":"Cisano sul Neva","variables":["LIVIDRO"],"latest":{"LIVIDRO":0.94},"latest_time":"2026-10-04T05:00","series":"series/LIGCISAN.csv"}},{"type":"Feature","geometry":{"type":"Point","coordinates":[7.84759,43.88137]},"properties":{"scode":"LIGAMERE","name":"Merelli","variables":["LIVIDRO"],"latest":{"LIVIDRO":0.49},"latest_time":"2026-10-04T05:00","series":"series/LIGAMERE.csv"}},{"type":"Feature","geometry":{"type":"Point","coordinates":[9.34647,44.4952]},"properties":{"scode":"LIGCABAN","name":"Cabanne","variables":["CDD","ET0","GDD","HDD","LIVIDRO","TEMP"],"latest":{"CDD":0.0,"ET0":0.41,"GDD":0.0,"HDD":14.3,"LIVIDRO":-0.39,"TEMP":3.4},"latest_time":"2026-10-04T04:45","series":"series/LIGCABAN.csv"}},{"type":"Feature","geometry":{"type":"Point","coordinates":[8.30735,44.48618]},"properties":{"scode":"LIGPCRIX","name":"Piana Crixia","variables":["LIVIDRO"],"latest":{"LIVIDRO":0.66},"latest_time":"2026-10-04T05:00","series":"series/LIGPCRIX.csv"}},{"type":"Feature","geometry":{"type":"Point","coordinates":[8.60839,44.52561]},"properties":{"scode":"LIGTIGLT","name":"Tiglieto","variables":["LIVIDRO"],"latest":{"LIVIDRO":0.06},"latest_time":"2026-10-04T05:00","series":"series/LIGTIGLT.csv"}},{"type":"Feature","geometry":{"type":"Point","coordinates":[9.94859,44.29114]},"properties":{"scode":"LIGVFLUN","name":"Villafranca Lunigiana","variables":["CDD","ET0","GDD","HDD","TEMP"],"latest":{"CDD":0.0,"ET0":0.62,"GDD":0.0,"HDD":9.6,"TEMP":7.9},"latest_time":"2026-10-04T05:00","series":"series/LIGVFLUN.csv"}},{"type":"Feature","geometry":{"type":"Point","coordinates":[9.88311,44.36932]},"properties":{"scode":"LIGPNTRM","name":"Pontremoli Depuratore","variables":["CDD","ET0","GDD","HDD","TEMP"],"latest":{"CDD":0.0,"ET0":0.52,"GDD":0.0,"HDD":8.8,"TEMP":8.9},"latest_time":"2026-10-04T05:00","series":"series/LIGPNTRM.csv"}},{"type":"Feature","geometry":{"type":"Point","coordinates":[9.89976,44.22178]},"properties":{"scode":"LIGNOVGA","name":"Novegigola","variables":["CDD","ET0","GDD","HDD","TEMP"],"latest":{"CDD":0.0,"ET0":0.52,"GDD":3.1,"HDD":5.0,"TEMP":13.0},"latest_time":"2026-10-04T05:00","series":"series/LIGNOVGA.csv"}},{"type":"Feature","geometry":{"type":"Point","coordinates":[7.86644,44.06393]},"properties":{"scode":"LIGPORNA","name":"Pornassio","variables":["CDD","ET0","GDD","HDD","TAPP","TDEW","TEMP","UMID","VPD","VVENTO"],"latest":{"CDD":0.0,"ET0":0.79,"GDD":5.4,"HDD":2.7,"TAPP":13.7,"TDEW":5.8,"TEMP":15.9,"UMID":51.0,"VPD":0.885,"VVENTO":1.7},"latest_time":"2026-10-04T05:00","series":"series/LIGPORNA.csv"}},{"type":"Feature","geometry":{"type":"Point","coordinates":[9.20928,44.35453]},"properties":{"scode":"LIGRAPAL","name":"Rapallo","variables":["CDD","ET0","GDD","HDD","TDEW","TEMP","UMID","VPD"],"latest":{"CDD":0.0,"ET0":0.66,"GDD":4.6,"HDD":3.6,"TDEW":10.7,"TEMP":14.1,"UMID":80.0,"VPD":0.322},"latest_time":"2026-10-04T05:00","series":"series/LIGRAPAL.csv"}},{"type":"Feature","geometry":{"type":"Point","coordinates":[10.21676,44.30427]},"properties":{"scode":"LIGPCERR","name":"Passo del Cerreto","variables":["CDD","ET0","GDD","HDD","TEMP"],"latest":{"CDD":0.0,"ET0":0.7,"GDD":0.8,"HDD":7.3,"TEMP":11.2},"latest_time":"2026-10-04T05:00","series":"series/LIGPCERR.csv"}},{"type":"Feature","geometry":{"type":"Point","coordinates":[8.64766,44.4035]},"properties":{"scode":"LIGLERCA","name":"Lerca","variables":["CDD","ET0","GDD","HDD","TDEW","TEMP","UMID","VPD"],"latest":{"CDD":0.0,"ET0":1.09,"GDD":11.0,"HDD":0.0,"TDEW":7.1,"TEMP":20.1,"UMID":43.0,"VPD":1.341},"latest_time":"2026-10-04T05:00","series":"series/LIGLERCA.csv"}},{"type":"Feature","geometry":{"type":"Point","coordinates":[9.7975,44.30491]},"properties":{"scode":"LIGBOROS","name":"Bosco di Rossano","variables":["CDD","ET0","GDD","HDD","TEMP"],"latest":{"CDD":0.0,"ET0":0.48,"GDD":0.9,"HDD":7.1,"TEMP":10.6},"latest_time":"2026-10-04T05:00","series":"series/LIGBOROS.csv"}},{"type":"Feature","geometry":{"type":"Point","coordinates":[9.82294,44.45624]},"properties":{"scode":"LIGBRATT","name":"Passo del Brattello","variables":["CDD","ET0","GDD","HDD","TEMP","VVENTO"],"latest":{"CDD":0.0,"ET0":0.36,"GDD":0.0,"HDD":9.0,"TEMP":8.8,"VVENTO":1.4},"latest_time":"2026-10-04T05:00","series":"series/LIGBRATT.csv"}},{"type":"Feature","geometry":{"type":"Point","coordinates":[10.14991,44.16942]},"properties":{"scode":"LIGEQUIT","name":"Equi Terme","variables":["CDD","ET0","GDD","HDD","TEMP"],"latest":{"CDD":0.0,"ET0":0.38,"GDD":0.0,"HDD":8.0,"TEMP":9.8},"latest_time":"2026-10-04T05:00","series":"series/LIGEQUIT.csv"}},{"type":"Feature","geometry":{"type":"Point","coordinates":[9.93842,44.07129]},"properties":{"scode":"LIGMROCC","name":"Monte Rocchetta","variables":["CDD","ET0","GDD","HDD","TAPP","TDEW","TEMP","UMID","VPD","VVENTO"],"latest":{"CDD":0.0,"ET0":0.8,"GDD":8.7,"HDD":0.0,"TAPP":17.5,"TDEW":6.6,"TEMP":19.1,"UMID":44.0,"VPD":1.238,"VVENTO":1.2},"latest_time":"2026-10-04T05:00","series":"series/LIGMROCC.csv"}},{"type":"Feature","geometry":{"type":"Point","coordinates":[9.73483,44.10632]},"properties":{"scode":"LIGCRNLO","name":"Corniolo","variables":["CDD","ET0","GDD","HDD","TAPP","TDEW","TEMP","UMID","VPD","VVENTO"],"latest":{"CDD":1.1,"ET0":0.77,"GDD":12.1,"HDD":0.0,"TAPP":21.0,"TDEW":8.6,"TEMP":21.7,"UMID":43.0,"VPD":1.48,"VVENTO":0.5},"latest_time":"2026-10-04T05:00","series":"series/LIGCRNLO.csv"}},{"type":"Feature","geometry":{"type":"Point","coordinates":[9.86331,44.28217]},"properties":{"scode":"LIGPARAN","name":"Parana","variables":["CDD","ET0","GDD","HDD","TEMP"],"latest":{"CDD":0.0,"ET0":0.41,"GDD":2.5,"HDD":5.5,"TEMP":12.5},"latest_time":"2026-10-04T05:00","series":"series/LIGPARAN.csv"}},{"type":"Feature","geometry":{"type":"Point","coordinates":[8.03517,44.00653]},"properties":{"scode":"LIGTESTI","name":"Testico","variables":["CDD","ET0","GDD","HDD","TEMP"],"latest":{"CDD":0.0,"ET0":0.62,"GDD":6.5,"HDD":1.4,"TEMP":16.6},"latest_time":"2026-10-04T05:00","series":"series/LIGTESTI.csv"}},{"type":"Feature","geometry":{"type":"Point","coordinates":[9.02329,44.53176]},"properties":{"scode":"LIGVBGOR","name":"Valbrevenna - Gorra","variables":["CDD","ET0","GDD","HDD","TDEW","TEMP","UMID","VPD"],"latest":{"CDD":0.0,"ET0":0.88,"GDD":3.7,"HDD":4.5,"TDEW":6.7,"TEMP":12.9,"UMID":66.0,"VPD":0.506},"latest_time":"2026-10-04T05:00","series":"series/LIGVBGOR.csv"}},{"type":"Feature","geometry":{"type":"Point","coordinates":[8.5273,44.36189]},"properties":{"scode":"LIGSANDA","name":"Sanda","variables":["CDD","ET0","GDD","HDD","TDEW","TEMP","UMID","VPD"],"latest":{"CDD":0.0,"ET0":0.82,"GDD":8.6,"HDD":0.0,"TDEW":6.3,"TEMP":18.1,"UMID":46.0,"VPD":1.122},"latest_time":"2026-10-04T05:00","series":"series/LIGSANDA.csv"}},{"type":"Feature","geometry":{"type":"Point","coordinates":[10.03381,44.15601]},"properties":{"scode":"LIGTNDLA","name":"Tendola","variables":["CDD","ET0","GDD","HDD","TEMP"],"latest":{"CDD":0.0,"ET0":0.73,"GDD":3.2,"HDD":4.9,"TEMP":12.6},"latest_time":"2026-10-04T05:00","series":"series/LIGTNDLA.csv"}},{"type":"Feature","geometry":{"type":"Point","coordinates":[9.82889,44.10673]},"properties":{"scode":"LIGSPZIW","name":"La Spezia - via Campanella","variables":["CDD","ET0","GDD","HDD","TDEW","TEMP","UMID","VPD"],"latest":{"CDD":0.0,"ET0":0.83,"GDD":7.3,"HDD":0.7,"TDEW":9.6,"TEMP":16.7,"UMID":63.0,"VPD":0.703},"latest_time":"2026-10-04T05:00","series":"series/LIGSPZIW.csv"}},{"type":"Feature","geometry":{"type":"Point","coordinates":[8.13421,44.07678]},"properties":{"scode":"LIGCENES","name":"Cenesi","variables":["CDD","ET0","GDD","HDD","TAPP","TDEW","TEMP","UMID","VPD","VVENTO"],"latest":{"CDD":0.2,"ET0":0.53,"GDD":11.2,"HDD":0.0,"TAPP":20.3,"TDEW":9.0,"TEMP":21.1,"UMID":46.0,"VPD":1.351,"VVENTO":0.9},"latest_time":"2026-10-04T05:00","series":"series/LIGCENES.csv"}},{"type":"Feature","geometry":{"type":"Point","coordinates":[7.60808,43.9396]},"properties":{"scode":"LIGGOUTA","name":"Sella di Gouta","variables":["CDD","ET0","GDD","HDD","TDEW","TEMP","UMID","VPD"],"latest":{"CDD":0.0,"ET0":0.62,"GDD":2.4,"HDD":5.6,"TDEW":3.1,"TEMP":12.1,"UMID":54.0,"VPD":0.649},"latest_time":"2026-10-04T05:00","series":"series/LIGGOUTA.csv"}},{"type":"Feature","geometry":{"type":"Point","coordinates":[8.94744,44.52038]},"properties":{"scode":"LIGVREGI","name":"Valleregia","variables":["CDD","ET0","GDD","HDD","TDEW","TEMP","UMID","VPD"],"latest":{"CDD":0.0,"ET0":0.72,"GDD":4.1,"HDD":3.8,"TDEW":7.1,"TEMP":13.6,"UMID":65.0,"VPD":0.545},"latest_time":"2026-10-04T05:00","series":"series/LIGVREGI.csv"}},{"type":"Feature","geometry":{"type":"Point","coordinates":[9.6402,44.1483]},"properties":{"scode":"LIGMROSS","name":"Monterosso","variables":["CDD","ET0","GDD","HDD","TDEW","TEMP","UMID","VPD"],"latest":{"CDD":0.0,"ET0":0.64,"GDD":10.5,"HDD":0.0,"TDEW":9.6,"TEMP":20.4,"UMID":50.0,"VPD":1.198},"latest_time":"2026-10-04T05:00","series":"series/LIGMROSS.csv"}},{"type":"Feature","geometry":{"type":"Point","coordinates":[7.79343,44.04202]},"properties":{"scode":"LIGPFEAR","name":"Poggio Fearza","variables":["CDD","ET0","GDD","HDD","TAPP","TDEW","TEMP","UMID","VPD","VVENTO"],"latest":{"CDD":0.0,"ET0":0.71,"GDD":0.0,"HDD":9.0,"TAPP":-0.4,"TDEW":-0.3,"TEMP":8.2,"UMID":55.0,"VPD":0.489,"VVENTO":9.4},"latest_time":"2026-10-04T05:00","series":"series/LIGPFEAR.csv"}},{"type":"Feature","geometry":{"type":"Point","coordinates":[9.76581,44.30542]},"properties":{"scode":"LIGCASON","name":"Casoni di Suvero","variables":["CDD","ET0","GDD","HDD","TAPP","TDEW","TEMP","UMID","VPD","VVENTO"],"latest":{"CDD":0.0,"ET0":0.39,"GDD":5.3,"HDD":2.6,"TAPP":13.5,"TDEW":4.2,"TEMP":15.5,"UMID":47.0,"VPD":0.933,"VVENTO":1.0},"latest_time":"2026-10-04T05:00","series":"series/LIGCASON.csv"}},{"type":"Feature","geometry":{"type":"Point","coordinates":[8.0007,43.9333]},"properties":{"scode":"LIGBESTA","name":"Bestagno","variables":["CDD","ET0","GDD","HDD","TEMP"],"latest":{"CDD":0.0,"ET0":1.12,"GDD":7.4,"HDD":1.0,"TEMP":18.5},"latest_time":"2026-10-04T05:00","series":"series/LIGBESTA.csv"}},{"type":"Feature","geometry":{"type":"Point","coordinates":[7.69983,43.98152]},"properties":{"scode":"LIGBELEN","name":"Colle Belenda","variables":["CDD","ET0","GDD","HDD","TDEW","TEMP","UMID","VPD"],"latest":{"CDD":0.0,"ET0":0.49,"GDD":0.0,"HDD":8.9,"TDEW":1.4,"TEMP":9.0,"UMID":59.0,"VPD":0.471},"latest_time":"2026-10-04T05:00","series":"series/LIGBELEN.csv"}},{"type":"Feature","geometry":{"type":"Point","coordinates":[9.32978,44.31885]},"properties":{"scode":"LIGCHIRI","name":"Chiavari","variables":["CDD","ET0","GDD","HDD","TDEW","TEMP","UMID","VPD"],"latest":{"CDD":0.0,"ET0":0.43,"GDD":8.8,"HDD":0.0,"TDEW":8.7,"TEMP":18.8,"UMID":52.0,"VPD":1.042},"latest_time":"2026-10-04T05:00","series":"series/LIGCHIRI.csv"}},{"type":"Feature","geometry":{"type":"Point","coordinates":[9.60677,44.17143]},"properties":{"scode":"LIGLEVAN","name":"Levanto","variables":["CDD","ET0","GDD","HDD","TAPP","TDEW","TEMP","UMID","VPD","VVENTO"],"latest":{"CDD":0.0,"ET0":0.68,"GDD":10.0,"HDD":0.0,"TAPP":18.6,"TDEW":9.2,"TEMP":19.6,"UMID":51.0,"VPD":1.118,"VVENTO":1.2},"latest_time":"2026-10-04T05:00","series":"series/LIGLEVAN.csv"}},{"type":"Feature","geometry":{"type":"Point","coordinates":[8.11822,44.23413]},"properties":{"scode":"LIGCALIZ","name":"Calizzano","variables":["CDD","ET0","GDD","HDD","TEMP"],"latest":{"CDD":0.0,"ET0":0.7,"GDD":0.0,"HDD":11.0,"TEMP":6.1},"latest_time":"2026-10-04T05:00","series":"series/LIGCALIZ.csv"}},{"type":"Feature","geometry":{"type":"Point","coordinates":[8.48305,44.3062]},"properties":{"scode":"LIGINASV","name":"Savona - Istituto Nautico","variables":["CDD","ET0","GDD","HDD","TAPP","TDEW","TEMP","UMID","VPD","VVENTO"],"latest":{"CDD":0.0,"ET0":0.9,"GDD":10.5,"HDD":0.0,"TAPP":16.8,"TDEW":7.9,"TEMP":19.9,"UMID":46.0,"VPD":1.255,"VVENTO":3.7},"latest_time":"2026-10-04T05:00","series":"series/LIGINASV.csv"}},{"type":"Feature","geometry":{"type":"Point","coordinates":[8.94892,44.57129]},"properties":{"scode":"LIGBUSAL","name":"Busalla","variables":["CDD","ET0","GDD","HDD","TEMP"],"latest":{"CDD":0.0,"ET0":0.58,"GDD":0.0,"HDD":10.2,"TEMP":7.4},"latest_time":"2026-10-04T05:00","series":"series/LIGBUSAL.csv"}},{"type":"Feature","geometry":{"type":"Point","coordinates":[9.48136,44.29506]},"properties":{"scode":"LIGBARGO","name":"Bargone","variables":["CDD","ET0","GDD","HDD","TDEW","TEMP","UMID","VPD"],"latest":{"CDD":0.0,"ET0":1.05,"GDD":8.4,"HDD":0.0,"TDEW":8.7,"TEMP":17.6,"UMID":56.0,"VPD":0.886},"latest_time":"2026-10-04T05:00","series":"series/LIGBARGO.csv"}},{"type":"Feature","geometry":{"type":"Point","coordinates":[9.06348,44.42846]},"properties":{"scode":"LIGVIGAN","name":"Viganego","variables":["CDD","ET0","GDD","HDD","TDEW","TEMP","UMID","VPD"],"latest":{"CDD":0.0,"ET0":0.5,"GDD":5.1,"HDD":2.9,"TDEW":8.9,"TEMP":14.8,"UMID":68.0,"VPD":0.539},"latest_time":"2026-10-04T05:00","series":"series/LIGVIGAN.csv"}},{"type":"Feature","geometry":{"type":"Point","coordinates":[7.99653,44.12275]},"properties":{"scode":"LIGALTOM","name":"Alto - Madonna del lago","variables":["CDD","ET0","GDD","HDD","TDEW","TEMP","UMID","VPD"],"latest":{"CDD":0.0,"ET0":0.59,"GDD":4.4,"HDD":3.4,"TDEW":6.0,"TEMP":14.7,"UMID":56.0,"VPD":0.736},"latest_time":"2026-10-04T05:00","series":"series/LIGALTOM.csv"}},{"type":"Feature","geometry":{"type":"Point","coordinates":[8.74299,44.43344]},"properties":{"scode":"LIGMADGR","name":"Madonna delle Grazie","variables":["CDD","ET0","GDD","HDD","TDEW","TEMP","UMID","VPD"],"latest":{"CDD":0.0,"ET0":0.9,"GDD":7.7,"HDD":0.4,"TDEW":8.4,"TEMP":17.0,"UMID":57.0,"VPD":0.833},"latest_time":"2026-10-04T05:00","series":"series/LIGMADGR.csv"}},{"type":"Feature","geometry":{"type":"Point","coordinates":[8.47521,44.33492]},"properties":{"scode":"LIGLAVAG","name":"Lavagnola","variables":["CDD","ET0","GDD","HDD","TDEW","TEMP","UMID","VPD"],"latest":{"CDD":0.0,"ET0":0.81,"GDD":9.8,"HDD":0.0,"TDEW":5.4,"TEMP":19.3,"UMID":40.0,"VPD":1.343},"latest_time":"2026-10-04T05:00","series":"series/LIGLAVAG.csv"}},{"type":"Feature","geometry":{"type":"Point","coordinates":[9.73698,44.26434]},"properties":{"scode":"LIGSZIGN","name":"Sero' di Zignago","variables":["CDD","ET0","GDD","HDD","TEMP"],"latest":{"CDD":0.0,"ET0":0.86,"GDD":7.4,"HDD":0.7,"TEMP":17.2},"latest_time":"2026-10-04T05:00","series":"series/LIGSZIGN.csv"}},{"type":"Feature","geometry":{"type":"Point","coordinates":[7.9515,43.9059]},"properties":{"scode":"LIGDOLCE","name":"Dolcedo","variables":["CDD","ET0","GDD","HDD","TDEW","TEMP","UMID","VPD"],"latest":{"CDD":0.0,"ET0":0.96,"GDD":7.3,"HDD":0.9,"TDEW":8.5,"TEMP":16.5,"UMID":59.0,"VPD":0.77},"latest_time":"2026-10-04T05:00","series":"series/LIGDOLCE.csv"}},{"type":"Feature","geometry":{"type":"Point","coordinates":[8.1634,44.14441]},"properties":{"scode":"LIGCARPG","name":"Carpe - Case Garoni","variables":["CDD","ET0","GDD","HDD","TDEW","TEMP","UMID","VPD"],"latest":{"CDD":0.0,"ET0":0.54,"GDD":7.2,"HDD":0.7,"TDEW":6.9,"TEMP":17.4,"UMID":50.0,"VPD":0.994},"latest_time":"2026-10-04T05:00","series":"series/LIGCARPG.csv"}},{"type":"Feature","geometry":{"type":"Point","coordinates":[9.67751,44.29848]},"properties":{"scode":"LIGSEGOD","name":"Sesta Godano","variables":["CDD","ET0","GDD","HDD","TDEW","TEMP","UMID","VPD"],"latest":{"CDD":0.0,"ET0":0.57,"GDD":0.1,"HDD":7.8,"TDEW":8.8,"TEMP":9.7,"UMID":94.0,"VPD":0.072},"latest_time":"2026-10-04T05:00","series":"series/LIGSEGOD.csv"}},{"type":"Feature","geometry":{"type":"Point","coordinates":[8.38289,44.33297]},"properties":{"scode":"LIGCCADB","name":"Colle di Cadibona","variables":["CDD","ET0","GDD","HDD","TAPP","TDEW","TEMP","UMID","VPD","VVENTO"],"latest":{"CDD":0.0,"ET0":0.78,"GDD":5.4,"HDD":2.7,"TAPP":8.8,"TDEW":7.8,"TEMP":14.8,"UMID":63.0,"VPD":0.623,"VVENTO":7.9},"latest_time":"2026-10-04T05:00","series":"series/LIGCCADB.csv"}},{"type":"Feature","geometry":{"type":"Point","coordinates":[8.10363,43.97923]},"properties":{"scode":"LIGCONNA","name":"Conna","variables":["CDD","ET0","GDD","HDD","TDEW","TEMP","UMID","VPD"],"latest":{"CDD":0.0,"ET0":0.62,"GDD":9.0,"HDD":0.0,"TDEW":8.6,"TEMP":18.7,"UMID":52.0,"VPD":1.035},"latest_time":"2026-10-04T05:00","series":"series/LIGCONNA.csv"}},{"type":"Feature","geometry":{"type":"Point","coordinates":[8.19105,44.36959]},"properties":{"scode":"LIGVALZE","name":"Valzemola","variables":["CDD","ET0","GDD","HDD","TDEW","TEMP","UMID","VPD"],"latest":{"CDD":0.0,"ET0":0.56,"GDD":0.0,"HDD":9.7,"TDEW":7.4,"TEMP":8.0,"UMID":96.0,"VPD":0.043},"latest_time":"2026-10-04T05:00","series":"series/LIGVALZE.csv"}},{"type":"Feature","geometry":{"type":"Point","coordinates":[8.84485,44.44247]},"properties":{"scode":"LIGMGAZZ","name":"Santuario Monte Gazzo","variables":["CDD","ET0","GDD","HDD","TEMP"],"latest":{"CDD":0.0,"ET0":0.89,"GDD":10.0,"HDD":0.0,"TEMP":19.4},"latest_time":"2026-10-04T05:00","series":"series/LIGMGAZZ.csv"}},{"type":"Feature","geometry":{"type":"Point","coordinates":[7.87331,44.08325]},"properties":{"scode":"LIGCNAVA","name":"Colle di Nava","variables":["CDD","ET0","GDD","HDD","TDEW","TEMP","UMID","VPD"],"latest":{"CDD":0.0,"ET0":0.84,"GDD":0.0,"HDD":10.3,"TDEW":4.0,"TEMP":6.2,"UMID":86.0,"VPD":0.133},"latest_time":"2026-10-04T05:00","series":"series/LIGCNAVA.csv"}},{"type":"Feature","geometry":{"type":"Point","coordinates":[8.20245,44.23234]},"properties":{"scode":"LIGCMELO","name":"Colle del Melogno","variables":["CDD","ET0","GDD","HDD","TEMP"],"latest":{"CDD":0.0,"ET0":0.43,"GDD":3.5,"HDD":4.5,"TEMP":13.3},"latest_time":"2026-10-04T05:00","series":"series/LIGCMELO.csv"}},{"type":"Feature","geometry":{"type":"Point","coordinates":[8.30205,44.19573]},"properties":{"scode":"LIGCALGR","name":"Calice Ligure - Ca Rosse","variables":["CDD","ET0","GDD","HDD","TDEW","TEMP","UMID","VPD"],"latest":{"CDD":0.0,"ET0":1.82,"GDD":7.6,"HDD":0.8,"TDEW":7.6,"TEMP":16.4,"UMID":56.0,"VPD":0.821},"latest_time":"2026-10-04T05:00","series":"series/LIGCALGR.csv"}},{"type":"Feature","geometry":{"type":"Point","coordinates":[9.10735,44.43845]},"properties":{"scode":"LIGSALBE","name":"Bargagli","variables":["CDD","ET0","GDD","HDD","TAPP","TDEW","TEMP","UMID","VPD","VVENTO"],"latest":{"CDD":0.0,"ET0":0.68,"GDD":7.5,"HDD":0.3,"TAPP":15.9,"TDEW":7.7,"TEMP":17.1,"UMID":54.0,"VPD":0.897,"VVENTO":0.9},"latest_time":"2026-10-04T05:00","series":"series/LIGSALBE.csv"}},{"type":"Feature","geometry":{"type":"Point","coordinates":[9.38773,44.46112]},"properties":{"scode":"LIGGIACO","name":"Giacopiane - Lago","variables":["CDD","ET0","GDD","HDD","TAPP","TDEW","TEMP","UMID","VPD","VVENTO"],"latest":{"CDD":0.0,"ET0":0.83,"GDD":3.1,"HDD":5.3,"TAPP":10.3,"TDEW":7.0,"TEMP":12.3,"UMID":70.0,"VPD":0.429,"VVENTO":1.9},"latest_time":"2026-10-04T05:00","series":"series/LIGGIACO.csv"}},{"type":"Feature","geometry":{"type":"Point","coordinates":[9.17495,44.52931]},"properties":{"scode":"LIGTOGAR","name":"Torriglia - Garaventa","variables":["CDD","ET0","GDD","HDD","TAPP","TDEW","TEMP","UMID","VPD","VVENTO"],"latest":{"CDD":0.0,"ET0":0.55,"GDD":0.7,"HDD":7.2,"TAPP":7.7,"TDEW":7.5,"TEMP":10.8,"UMID":80.0,"VPD":0.259,"VVENTO":3.6},"latest_time":"2026-10-04T05:00","series":"series/LIGTOGAR.csv"}},{"type":"Feature","geometry":{"type":"Point","coordinates":[8.70493,44.46494]},"properties":{"scode":"LIGFIORI","name":"Fiorino","variables":["CDD","ET0","GDD","HDD","TDEW","TEMP","UMID","VPD"],"latest":{"CDD":0.0,"ET0":0.65,"GDD":8.5,"HDD":0.0,"TDEW":6.7,"TEMP":18.5,"UMID":46.0,"VPD":1.15},"latest_time":"2026-10-04T05:00","series":"series/LIGFIORI.csv"}},{"type":"Feature","geometry":{"type":"Point","coordinates":[9.10336,44.51715]},"properties":{"scode":"LIGFALLA","name":"Fallarosa","variables":["CDD","ET0","GDD","HDD","TDEW","TEMP","UMID","VPD"],"latest":{"CDD":0.0,"ET0":0.73,"GDD":4.8,"HDD":3.2,"TDEW":8.4,"TEMP":14.2,"UMID":68.0,"VPD":0.518},"latest_time":"2026-10-04T05:00","series":"series/LIGFALLA.csv"}},{"type":"Feature","geometry":{"type":"Point","coordinates":[9.83869,44.24894]},"properties":{"scode":"LIGCCORM","name":"Calice al C. - Molunghi","variables":["CDD","ET0","GDD","HDD","TDEW","TEMP","UMID","VPD"],"latest":{"CDD":0.0,"ET0":0.66,"GDD":6.6,"HDD":1.5,"TDEW":6.9,"TEMP":16.5,"UMID":53.0,"VPD":0.882},"latest_time":"2026-10-04T05:00","series":"series/LIGCCORM.csv"}},{"type":"Feature","geometry":{"type":"Point","coordinates":[9.6205,44.4053]},"properties":{"scode":"LIGTAGLT","name":"Taglieto","variables":["CDD","ET0","GDD","HDD","TEMP","VVENTO"],"latest":{"CDD":0.0,"ET0":0.91,"GDD":4.8,"HDD":3.2,"TEMP":13.9,"VVENTO":0.7},"latest_time":"2026-10-04T05:00","series":"series/LIGTAGLT.csv"}},{"type":"Feature","geometry":{"type":"Point","coordinates":[9.6187,44.17888]},"properties":{"scode":"LIGLVTSG","name":"Levanto - San Gottardo","variables":["CDD","ET0","GDD","HDD","TAPP","TDEW","TEMP","UMID","VPD","VVENTO"],"latest":{"CDD":0.0,"ET0":1.18,"GDD":9.6,"HDD":0.0,"TAPP":17.8,"TDEW":8.8,"TEMP":18.6,"UMID":53.0,"VPD":1.007,"VVENTO":0.8},"latest_time":"2026-10-04T05:00","series":"series/LIGLVTSG.csv"}},{"type":"Feature","geometry":{"type":"Point","coordinates":[9.41013,44.42429]},"properties":{"scode":"LIGBRZON","name":"Borzone","variables":["CDD","ET0","GDD","HDD","TDEW","TEMP","UMID","VPD"],"latest":{"CDD":0.0,"ET0":0.56,"GDD":6.0,"HDD":2.0,"TDEW":9.8,"TEMP":15.7,"UMID":68.0,"VPD":0.571},"latest_time":"2026-10-04T05:00","series":"series/LIGBRZON.csv"}},{"type":"Feature","geometry":{"type":"Point","coordinates":[8.93433,44.42797]},"properties":{"scode":"LIGRIGHI","name":"Genova - Castellaccio","variables":["CDD","ET0","GDD","HDD","TEMP","VVENTO"],"latest":{"CDD":0.0,"ET0":0.71,"GDD":6.8,"HDD":1.2,"TEMP":16.3,"VVENTO":3.2},"latest_time":"2026-10-04T05:00","series":"series/LIGRIGHI.csv"}},{"type":"Feature","geometry":{"type":"Point","coordinates":[9.39525,44.46268]},"properties":{"scode":"LIGLGIAC","name":"Giacopiane - Diga","variables":["CDD","ET0","GDD","HDD","TEMP"],"latest":{"CDD":0.0,"ET0":0.58,"GDD":0.6,"HDD":7.4,"TEMP":10.2},"latest_time":"2026-10-04T05:00","series":"series/LIGLGIAC.csv"}},{"type":"Feature","geometry":{"type":"Point","coordinates":[8.17956,44.06875]},"properties":{"scode":"LIGISBLL","name":"Albenga - Isolabella","variables":["CDD","ET0","GDD","HDD","TEMP"],"latest":{"CDD":0.0,"ET0":1.45,"GDD":9.6,"HDD":0.0,"TEMP":18.7},"latest_time":"2026-10-04T05:00","series":"series/LIGISBLL.csv"}},{"type":"Feature","geometry":{"type":"Point","coordinates":[9.00714,44.47507]},"properties":{"scode":"LIGCRETO","name":"Creto","variables":["CDD","ET0","GDD","HDD","TEMP"],"latest":{"CDD":0.0,"ET0":0.67,"GDD":0.0,"HDD":8.3,"TEMP":9.3},"latest_time":"2026-10-04T05:00","series":"series/LIGCRETO.csv"}},{"type":"Feature","geometry":{"type":"Point","coordinates":[8.37136,44.28425]},"properties":{"scode":"LIGMONTA","name":"Montagna","variables":["CDD","ET0","GDD","HDD","TDEW","TEMP","UMID","VPD"],"latest":{"CDD":0.0,"ET0":0.55,"GDD":8.2,"HDD":0.0,"TDEW":7.9,"TEMP":18.2,"UMID":51.0,"VPD":1.024},"latest_time":"2026-10-04T05:00","series":"series/LIGMONTA.csv"}},{"type":"Feature","geometry":{"type":"Point","coordinates":[9.59772,44.27525]},"properties":{"scode":"LIGCARRO","name":"Carro","variables":["CDD","ET0","GDD","HDD","TEMP"],"latest":{"CDD":0.0,"ET0":0.93,"GDD":5.2,"HDD":2.7,"TEMP":14.3},"latest_time":"2026-10-04T05:00","series":"series/LIGCARRO.csv"}},{"type":"Feature","geometry":{"type":"Point","coordinates":[9.06066,44.384]},"properties":{"scode":"LIGSTILA","name":"Genova - S.Ilario","variables":["CDD","ET0","GDD","HDD","TAPP","TDEW","TEMP","UMID","VPD","VVENTO"],"latest":{"CDD":0.0,"ET0":0.66,"GDD":8.5,"HDD":0.0,"TAPP":17.0,"TDEW":9.4,"TEMP":18.3,"UMID":56.0,"VPD":0.925,"VVENTO":1.7},"latest_time":"2026-10-04T05:00","series":"series/LIGSTILA.csv"}},{"type":"Feature","geometry":{"type":"Point","coordinates":[8.8246,44.43227]},"properties":{"scode":"LIGGEPEG","name":"Genova - Pegli","variables":["CDD","ET0","GDD","HDD","TDEW","TEMP","UMID","VPD"],"latest":{"CDD":0.0,"ET0":0.89,"GDD":9.0,"HDD":0.0,"TDEW":6.6,"TEMP":18.4,"UMID":46.0,"VPD":1.143},"latest_time":"2026-10-04T05:00","series":"series/LIGGEPEG.csv"}},{"type":"Feature","geometry":{"type":"Point","coordinates":[8.9726,44.42367]},"properties":{"scode":"LIGGEQUE","name":"Genova - Quezzi","variables":["CDD","ET0","GDD","HDD","TDEW","TEMP","UMID","VPD"],"latest":{"CDD":0.0,"ET0":1.0,"GDD":9.1,"HDD":0.0,"TDEW":8.8,"TEMP":18.3,"UMID":54.0,"VPD":0.967},"latest_time":"2026-10-04T05:00","series":"series/LIGGEQUE.csv"}},{"type":"Feature","geometry":{"type":"Point","coordinates":[8.62739,44.46953]},"properties":{"scode":"LIGURVAS","name":"Urbe - Vara Sup.","variables":["CDD","ET0","GDD","HDD","TDEW","TEMP","UMID","VPD"],"latest":{"CDD":0.0,"ET0":0.55,"GDD":0.0,"HDD":8.6,"TDEW":7.0,"TEMP":9.0,"UMID":87.0,"VPD":0.149},"latest_time":"2026-10-04T05:00","series":"series/LIGURVAS.csv"}},{"type":"Feature","geometry":{"type":"Point","coordinates":[9.44927,44.29552]},"properties":{"scode":"LIGTASNI","name":"Tassani","variables":["CDD","ET0","GDD","HDD","TEMP"],"latest":{"CDD":0.0,"ET0":0.76,"GDD":9.4,"HDD":0.0,"TEMP":19.2},"latest_time":"2026-10-04T05:00","series":"series/LIGTASNI.csv"}},{"type":"Feature","geometry":{"type":"Point","coordinates":[7.54322,43.83103]},"properties":{"scode":"LIGCLROS","name":"Colla Rossa","variables":["CDD","ET0","GDD","HDD","TDEW","TEMP","UMID","VPD"],"latest":{"CDD":0.0,"ET0":0.77,"GDD":9.4,"HDD":0.0,"TDEW":6.2,"TEMP":19.5,"UMID":42.0,"VPD":1.315},"latest_time":"2026-10-04T05:00","series":"series/LIGCLROS.csv"}},{"type":"Feature","geometry":{"type":"Point","coordinates":[9.54033,44.21359]},"properties":{"scode":"LIGFRAMU","name":"Framura","variables":["CDD","ET0","GDD","HDD","TAPP","TDEW","TEMP","UMID","VPD","VVENTO"],"latest":{"CDD":0.0,"ET0":0.85,"GDD":9.6,"HDD":0.0,"TAPP":18.4,"TDEW":13.2,"TEMP":19.0,"UMID":69.0,"VPD":0.681,"VVENTO":2.3},"latest_time":"2026-10-04T05:00","series":"series/LIGFRAMU.csv"}},{"type":"Feature","geometry":{"type":"Point","coordinates":[8.04134,44.05719]},"properties":{"scode":"LIGONZPO","name":"Onzo - Ponterotto","variables":["CDD","ET0","GDD","HDD","TEMP"],"latest":{"CDD":0.0,"ET0":0.31,"GDD":3.9,"HDD":4.1,"TEMP":13.8},"latest_time":"2026-10-04T05:00","series":"series/LIGONZPO.csv"}},{"type":"Feature","geometry":{"type":"Point","coordinates":[10.00899,44.07491]},"properties":{"scode":"LIGLUNIS","name":"Luni - Provasco","variables":["CDD","ET0","GDD","HDD","TAPP","TDEW","TEMP","UMID","VPD","VVENTO"],"latest":{"CDD":0.0,"ET0":0.71,"GDD":5.1,"HDD":2.9,"TAPP":12.8,"TDEW":8.6,"TEMP":14.7,"UMID":67.0,"VPD":0.552,"VVENTO":2.3},"latest_time":"2026-10-04T05:00","series":"series/LIGLUNIS.csv"}},{"type":"Feature","geometry":{"type":"Point","coordinates":[9.76373,44.15319]},"properties":{"scode":"LIGRICCO","name":"Ricco' del Golfo","variables":["CDD","ET0","GDD","HDD","TDEW","TEMP","UMID","VPD"],"latest":{"CDD":0.0,"ET0":0.52,"GDD":0.0,"HDD":8.8,"TDEW":8.6,"TEMP":8.9,"UMID":98.0,"VPD":0.023},"latest_time":"2026-10-04T05:00","series":"series/LIGRICCO.csv"}},{"type":"Feature","geometry":{"type":"Point","coordinates":[9.54859,44.31274]},"properties":{"scode":"LIGTAVRN","name":"Tavarone","variables":["CDD","ET0","GDD","HDD","TDEW","TEMP","UMID","VPD"],"latest":{"CDD":0.0,"ET0":0.62,"GDD":4.3,"HDD":3.7,"TDEW":7.9,"TEMP":13.9,"UMID":67.0,"VPD":0.524},"latest_time":"2026-10-04T05:00","series":"series/LIGTAVRN.csv"}},{"type":"Feature","geometry":{"type":"Point","coordinates":[7.86667,43.98131]},"properties":{"scode":"LIGCODOG","name":"Colle D'Oggia","variables":["CDD","ET0","GDD","HDD","TDEW","TEMP","UMID","VPD"],"latest":{"CDD":0.0,"ET0":0.49,"GDD":4.2,"HDD":3.7,"TDEW":2.9,"TEMP":14.0,"UMID":47.0,"VPD":0.847},"latest_time":"2026-10-04T05:00","series":"series/LIGCODOG.csv"}},{"type":"Feature","geometry":{"type":"Point","coordinates":[8.11888,44.13202]},"properties":{"scode":"LIGCASRB","name":"Castelvecchio di R. B.","variables":["CDD","ET0","GDD","HDD","TEMP"],"latest":{"CDD":0.0,"ET0":0.55,"GDD":7.9,"HDD":0.2,"TEMP":17.9},"latest_time":"2026-10-04T05:00","series":"series/LIGCASRB.csv"}},{"type":"Feature","geometry":{"type":"Point","coordinates":[9.82325,44.33964]},"properties":{"scode":"LIGPPICC","name":"Pietra Piccata","variables":["CDD","ET0","GDD","HDD","TEMP","VVENTO"],"latest":{"CDD":0.0,"ET0":0.68,"GDD":5.4,"HDD":2.7,"TEMP":15.4,"VVENTO":1.1},"latest_time":"2026-10-04T05:00","series":"series/LIGPPICC.csv"}},{"type":"Feature","geometry":{"type":"Point","coordinates":[8.79867,44.48017]},"properties":{"scode":"LIGMOPEN","name":"Monte Pennello","variables":["CDD","ET0","GDD","HDD","TAPP","TDEW","TEMP","UMID","VPD","VVENTO"],"latest":{"CDD":0.0,"ET0":0.86,"GDD":2.0,"HDD":6.0,"TAPP":8.2,"TDEW":5.4,"TEMP":11.1,"UMID":68.0,"VPD":0.423,"VVENTO":2.7},"latest_time":"2026-10-04T05:00","series":"series/LIGMOPEN.csv"}},{"type":"Feature","geometry":{"type":"Point","coordinates":[8.94591,44.40035]},"properties":{"scode":"LIGCFUNZ","name":"Genova - Centro Funzionale","variables":["CDD","ET0","GDD","HDD","TDEW","TEMP","UMID","VPD"],"latest":{"CDD":0.0,"ET0":0.85,"GDD":9.9,"HDD":0.0,"TDEW":8.0,"TEMP":19.3,"UMID":48.0,"VPD":1.164},"latest_time":"2026-10-04T05:00","series":"series/LIGCFUNZ.csv"}},{"type":"Feature","geometry":{"type":"Point","coordinates":[8.85822,44.53013]},"properties":{"scode":"LIGISOVE","name":"Isoverde","variables":["CDD","ET0","GDD","HDD","TDEW","TEMP","UMID","VPD"],"latest":{"CDD":0.0,"ET0":0.66,"GDD":3.0,"HDD":4.9,"TDEW":8.6,"TEMP":12.5,"UMID":77.0,"VPD":0.333},"latest_time":"2026-10-04T05:00","series":"series/LIGISOVE.csv"}},{"type":"Feature","geometry":{"type":"Point","coordinates":[8.62464,44.40645]},"properties":{"scode":"LIGSCIAR","name":"Sciarborasca","variables":["CDD","ET0","GDD","HDD","TDEW","TEMP","UMID","VPD"],"latest":{"CDD":0.5,"ET0":0.93,"GDD":11.6,"HDD":0.0,"TDEW":6.5,"TEMP":21.0,"UMID":39.0,"VPD":1.517},"latest_time":"2026-10-04T05:00","series":"series/LIGSCIAR.csv"}},{"type":"Feature","geometry":{"type":"Point","coordinates":[9.58414,44.35237]},"properties":{"scode":"LIGCEMBR","name":"Cembrano","variables":["CDD","ET0","GDD","HDD","TEMP"],"latest":{"CDD":0.0,"ET0":0.71,"GDD":2.4,"HDD":5.7,"TEMP":11.8},"latest_time":"2026-10-04T05:00","series":"series/LIGCEMBR.csv"}},{"type":"Feature","geometry":{"type":"Point","coordinates":[9.71496,44.18992]},"properties":{"scode":"LIGPIGNO","name":"Casale di Pignone","variables":["CDD","ET0","GDD","HDD","TDEW","TEMP","UMID","VPD"],"latest":{"CDD":0.0,"ET0":0.54,"GDD":0.0,"HDD":9.4,"TDEW":7.9,"TEMP":8.2,"UMID":98.0,"VPD":0.022},"latest_time":"2026-10-04T05:00","series":"series/LIGPIGNO.csv"}},{"type":"Feature","geometry":{"type":"Point","coordinates":[9.27102,44.39365]},"properties":{"scode":"LIGPRTTI","name":"Pian dei Ratti","variables":["CDD","ET0","GDD","HDD","TDEW","TEMP","UMID","VPD"],"latest":{"CDD":0.0,"ET0":0.41,"GDD":1.9,"HDD":6.0,"TDEW":10.8,"TEMP":11.7,"UMID":94.0,"VPD":0.083},"latest_time":"2026-10-04T05:00","series":"series/LIGPRTTI.csv"}},{"type":"Feature","geometry":{"type":"Point","coordinates":[8.48572,44.48233]},"properties":{"scode":"LIGSASSL","name":"Sassello","variables":["CDD","ET0","GDD","HDD","TEMP"],"latest":{"CDD":0.0,"ET0":0.57,"GDD":0.0,"HDD":13.3,"TEMP":4.0},"latest_time":"2026-10-04T05:00","series":"series/LIGSASSL.csv"}},{"type":"Feature","geometry":{"type":"Point","coordinates":[9.18206,44.48758]},"properties":{"scode":"LIGSEGIA","name":"Sella Giassina","variables":["CDD","ET0","GDD","HDD","TDEW","TEMP","UMID","VPD"],"latest":{"CDD":0.0,"ET0":0.78,"GDD":4.2,"HDD":3.9,"TDEW":6.6,"TEMP":14.3,"UMID":60.0,"VPD":0.652},"latest_time":"2026-10-04T05:00","series":"series/LIGSEGIA.csv"}},{"type":"Feature","geometry":{"type":"Point","coordinates":[8.52604,44.40667]},"properties":{"scode":"LIGALPIC","name":"Alpicella","variables":["CDD","ET0","GDD","HDD","TDEW","TEMP","UMID","VPD"],"latest":{"CDD":0.0,"ET0":0.59,"GDD":7.4,"HDD":0.6,"TDEW":5.4,"TEMP":17.1,"UMID":46.0,"VPD":1.053},"latest_time":"2026-10-04T05:00","series":"series/LIGALPIC.csv"}},{"type":"Feature","geometry":{"type":"Point","coordinates":[7.61211,43.78777]},"properties":{"scode":"LIGXXMIG","name":"Ventimiglia","variables":["CDD","ET0","GDD","HDD","TDEW","TEMP","UMID","VPD"],"latest":{"CDD":0.0,"ET0":0.78,"GDD":9.6,"HDD":0.0,"TDEW":8.2,"TEMP":19.2,"UMID":49.0,"VPD":1.135},"latest_time":"2026-10-04T05:00","series":"series/LIGXXMIG.csv"}},{"type":"Feature","geometry":{"type":"Point","coordinates":[7.73328,43.90463]},"properties":{"scode":"LIGCERPG","name":"Passo Ghimbegna","variables":["CDD","ET0","GDD","HDD","TEMP"],"latest":{"CDD":0.0,"ET0":0.56,"GDD":5.5,"HDD":2.4,"TEMP":15.7},"latest_time":"2026-10-04T05:00","series":"series/LIGCERPG.csv"}},{"type":"Feature","geometry":{"type":"Point","coordinates":[9.3735,44.29669]},"properties":{"scode":"LIGCAVIP","name":"Cavi di Lavagna","variables":["CDD","ET0","GDD","HDD","TAPP","TDEW","TEMP","UMID","VPD","VVENTO"],"latest":{"CDD":0.0,"ET0":0.78,"GDD":10.4,"HDD":0.0,"TAPP":19.4,"TDEW":9.2,"TEMP":19.9,"UMID":50.0,"VPD":1.162,"VVENTO":0.4},"latest_time":"2026-10-04T05:00","series":"series/LIGCAVIP.csv"}},{"type":"Feature","geometry":{"type":"Point","coordinates":[9.77099,44.19514]},"properties":{"scode":"LIGPDVRM","name":"Padivarma","variables":["CDD","ET0","GDD","HDD","TEMP"],"latest":{"CDD":0.0,"ET0":0.56,"GDD":0.0,"HDD":11.2,"TEMP":6.3},"latest_time":"2026-10-04T05:00","series":"series/LIGPDVRM.csv"}},{"type":"Feature","geometry":{"type":"Point","coordinates":[7.91473,44.04952]},"properties":{"scode":"LIGPTECO","name":"Pieve di Teco","variables":["CDD","ET0","GDD","HDD","TDEW","TEMP","UMID","VPD"],"latest":{"CDD":0.0,"ET0":0.49,"GDD":1.2,"HDD":6.8,"TDEW":9.5,"TEMP":11.1,"UMID":90.0,"VPD":0.132},"latest_time":"2026-10-04T05:00","series":"series/LIGPTECO.csv"}},{"type":"Feature","geometry":{"type":"Point","coordinates":[9.28421,44.55421]},"properties":{"scode":"LIGLOCOC","name":"Loco Carchelli","variables":["CDD","ET0","GDD","HDD","TEMP"],"latest":{"CDD":0.0,"ET0":0.48,"GDD":0.0,"HDD":12.0,"TEMP":5.6},"latest_time":"2026-10-04T05:00","series":"series/LIGLOCOC.csv"}},{"type":"Feature","geometry":{"type":"Point","coordinates":[8.67306,44.51775]},"properties":{"scode":"LIGPRAIC","name":"Prai","variables":["CDD","ET0","GDD","HDD","TDEW","TEMP","UMID","VPD"],"latest":{"CDD":0.0,"ET0":0.89,"GDD":3.0,"HDD":5.0,"TDEW":6.2,"TEMP":12.1,"UMID":67.0,"VPD":0.466},"latest_time":"2026-10-04T05:00","series":"series/LIGPRAIC.csv"}},{"type":"Feature","geometry":{"type":"Point","coordinates":[9.45876,44.47287]},"properties":{"scode":"LIGPRMLO","name":"Pratomollo","variables":["CDD","ET0","GDD","HDD","TDEW","TEMP","UMID","VPD"],"latest":{"CDD":0.0,"ET0":0.56,"GDD":0.0,"HDD":10.9,"TDEW":5.3,"TEMP":6.7,"UMID":91.0,"VPD":0.088},"latest_time":"2026-10-04T05:00","series":"series/LIGPRMLO.csv"}},{"type":"Feature","geometry":{"type":"Point","coordinates":[9.16912,44.32709]},"properties":{"scode":"LIGMTPOR","name":"Monte Portofino","variables":["CDD","ET0","GDD","HDD","TAPP","TDEW","TEMP","UMID","VPD","VVENTO"],"latest":{"CDD":0.0,"ET0":0.7,"GDD":8.6,"HDD":0.0,"TAPP":16.6,"TDEW":7.3,"TEMP":18.2,"UMID":49.0,"VPD":1.066,"VVENTO":1.4},"latest_time":"2026-10-04T05:00","series":"series/LIGMTPOR.csv"}},{"type":"Feature","geometry":{"type":"Point","coordinates":[9.45496,44.51447]},"properties":{"scode":"LIGAMBOR","name":"Amborzasco","variables":["CDD","ET0","GDD","HDD","TDEW","TEMP","UMID","VPD"],"latest":{"CDD":0.0,"ET0":0.45,"GDD":0.0,"HDD":8.4,"TDEW":7.9,"TEMP":9.3,"UMID":91.0,"VPD":0.105},"latest_time":"2026-10-04T05:00","series":"series/LIGAMBOR.csv"}},{"type":"Feature","geometry":{"type":"Point","coordinates":[9.89257,44.36957]},"properties":{"scode":"LIGPNTCA","name":"Pontremoli - La Costa","variables":["CDD","ET0","GDD","HDD","TEMP","VVENTO"],"latest":{"CDD":0.0,"ET0":1.0,"GDD":3.6,"HDD":4.5,"TEMP":12.7,"VVENTO":1.9},"latest_time":"2026-10-04T05:00","series":"series/LIGPNTCA.csv"}},{"type":"Feature","geometry":{"type":"Point","coordinates":[8.73602,44.48613]},"properties":{"scode":"LIGPTURC","name":"Passo del Turchino","variables":["CDD","ET0","GDD","HDD","TAPP","TDEW","TEMP","UMID","VPD","VVENTO"],"latest":{"CDD":0.0,"ET0":0.57,"GDD":0.0,"HDD":9.3,"TAPP":5.5,"TDEW":7.0,"TEMP":8.2,"UMID":92.0,"VPD":0.087,"VVENTO":2.8},"latest_time":"2026-10-04T05:00","series":"series/LIGPTURC.csv"}},{"type":"Feature","geometry":{"type":"Point","coordinates":[9.43978,44.5598]},"properties":{"scode":"LIGMTMEZ","name":"Monte di Mezzo","variables":["CDD","ET0","GDD","HDD","TAPP","TDEW","TEMP","UMID","VPD","VVENTO"],"latest":{"CDD":0.0,"ET0":0.54,"GDD":2.2,"HDD":5.6,"TAPP":10.6,"TDEW":7.4,"TEMP":11.9,"UMID":74.0,"VPD":0.362,"VVENTO":1.0},"latest_time":"2026-10-04T05:00","series":"series/LIGMTMEZ.csv"}},{"type":"Feature","geometry":{"type":"Point","coordinates":[9.48082,44.35048]},"properties":{"scode":"LIGSTALE","name":"Statale","variables":["CDD","ET0","GDD","HDD","TEMP"],"latest":{"CDD":0.0,"ET0":0.54,"GDD":7.4,"HDD":0.6,"TEMP":17.2},"latest_time":"2026-10-04T05:00","series":"series/LIGSTALE.csv"}},{"type":"Feature","geometry":{"type":"Point","coordinates":[9.53384,44.40681]},"properties":{"scode":"LIGSCURT","name":"Scurtabo'","variables":["CDD","ET0","GDD","HDD","TDEW","TEMP","UMID","VPD"],"latest":{"CDD":0.0,"ET0":0.88,"GDD":2.8,"HDD":5.4,"TDEW":6.6,"TEMP":11.9,"UMID":70.0,"VPD":0.418},"latest_time":"2026-10-04T05:00","series":"series/LIGSCURT.csv"}},{"type":"Feature","geometry":{"type":"Point","coordinates":[8.00433,44.06542]},"properties":{"scode":"LIGRANZO","name":"Ranzo","variables":["CDD","ET0","GDD","HDD","TAPP","TDEW","TEMP","UMID","VPD","VVENTO"],"latest":{"CDD":0.0,"ET0":0.99,"GDD":6.0,"HDD":1.7,"TAPP":14.6,"TDEW":7.8,"TEMP":16.9,"UMID":55.0,"VPD":0.866,"VVENTO":2.5},"latest_time":"2026-10-04T05:00","series":"series/LIGRANZO.csv"}},{"type":"Feature","geometry":{"type":"Point","coordinates":[8.98586,44.52014]},"properties":{"scode":"LIGCRORE","name":"Crocetta di Orero","variables":["CDD","ET0","GDD","HDD","TDEW","TEMP","UMID","VPD"],"latest":{"CDD":0.0,"ET0":0.78,"GDD":0.0,"HDD":8.8,"TDEW":7.5,"TEMP":8.6,"UMID":93.0,"VPD":0.078},"latest_time":"2026-10-04T05:00","series":"series/LIGCRORE.csv"}},{"type":"Feature","geometry":{"type":"Point","coordinates":[9.01824,44.58458]},"properties":{"scode":"LIGCRCFI","name":"Crocefieschi - Santuario","variables":["CDD","ET0","GDD","HDD","TDEW","TEMP","UMID","VPD"],"latest":{"CDD":0.0,"ET0":0.9,"GDD":3.6,"HDD":4.5,"TDEW":5.8,"TEMP":12.7,"UMID":63.0,"VPD":0.543},"latest_time":"2026-10-04T05:00","series":"series/LIGCRCFI.csv"}},{"type":"Feature","geometry":{"type":"Point","coordinates":[10.01077,44.10752]},"properties":{"scode":"LIGCSMAM","name":"Castelnuovo Magra - Montecchio","variables":["CDD","ET0","GDD","HDD","TDEW","TEMP","UMID","VPD"],"latest":{"CDD":0.0,"ET0":0.93,"GDD":8.6,"HDD":0.0,"TDEW":9.3,"TEMP":17.9,"UMID":57.0,"VPD":0.882},"latest_time":"2026-10-04T05:00","series":"series/LIGCSMAM.csv"}},{"type":"Feature","geometry":{"type":"Point","coordinates":[9.09539,44.46781]},"properties":{"scode":"LIGDAVAG","name":"Davagna","variables":["CDD","ET0","GDD","HDD","TDEW","TEMP","UMID","VPD"],"latest":{"CDD":0.0,"ET0":0.43,"GDD":3.8,"HDD":4.3,"TDEW":8.8,"TEMP":13.6,"UMID":73.0,"VPD":0.421},"latest_time":"2026-10-04T05:00","series":"series/LIGDAVAG.csv"}},{"type":"Feature","geometry":{"type":"Point","coordinates":[8.73312,44.47419]},"properties":{"scode":"LIGMELEE","name":"Mele","variables":["CDD","ET0","GDD","HDD","TDEW","TEMP","UMID","VPD"],"latest":{"CDD":0.0,"ET0":0.71,"GDD":3.9,"HDD":4.2,"TDEW":8.0,"TEMP":13.4,"UMID":70.0,"VPD":0.461},"latest_time":"2026-10-04T05:00","series":"series/LIGMELEE.csv"}},{"type":"Feature","geometry":{"type":"Point","coordinates":[8.37883,44.19325]},"properties":{"scode":"LIGMANIE","name":"Manie","variables":["CDD","ET0","GDD","HDD","TDEW","TEMP","UMID","VPD"],"latest":{"CDD":0.0,"ET0":0.84,"GDD":9.4,"HDD":0.0,"TDEW":5.9,"TEMP":18.8,"UMID":43.0,"VPD":1.237},"latest_time":"2026-10-04T05:00","series":"series/LIGMANIE.csv"}},{"type":"Feature","geometry":{"type":"Point","coordinates":[9.61474,44.24499]},"properties":{"scode":"LIGMATRA","name":"Mattarana","variables":["CDD","ET0","GDD","HDD","TDEW","TEMP","UMID","VPD"],"latest":{"CDD":0.0,"ET0":0.75,"GDD":6.8,"HDD":1.3,"TDEW":6.3,"TEMP":16.5,"UMID":51.0,"VPD":0.92},"latest_time":"2026-10-04T05:00","series":"series/LIGMATRA.csv"}},{"type":"Feature","geometry":{"type":"Point","coordinates":[8.93816,44.54028]},"properties":{"scode":"LIGMIGNA","name":"Mignanego","variables":["CDD","ET0","GDD","HDD","TDEW","TEMP","UMID","VPD"],"latest":{"CDD":0.0,"ET0":0.35,"GDD":2.3,"HDD":5.7,"TDEW":7.5,"TEMP":12.2,"UMID":73.0,"VPD":0.384},"latest_time":"2026-10-04T05:00","series":"series/LIGMIGNA.csv"}},{"type":"Feature","geometry":{"type":"Point","coordinates":[7.65607,43.93209]},"properties":{"scode":"LIGPIGNA","name":"Pigna","variables":["CDD","ET0","GDD","HDD","TEMP"],"latest":{"CDD":0.0,"ET0":0.76,"GDD":4.3,"HDD":3.7,"TEMP":13.7},"latest_time":"2026-10-04T05:00","series":"series/LIGPIGNA.csv"}},{"type":"Feature","geometry":{"type":"Point","coordinates":[7.69454,43.91862]},"properties":{"scode":"LIGPZGLI","name":"Pizzeglio","variables":["CDD","ET0","GDD","HDD","TDEW","TEMP","UMID","VPD"],"latest":{"CDD":0.0,"ET0":0.68,"GDD":7.2,"HDD":0.7,"TDEW":5.0,"TEMP":17.0,"UMID":45.0,"VPD":1.066},"latest_time":"2026-10-04T05:00","series":"series/LIGPZGLI.csv"}},{"type":"Feature","geometry":{"type":"Point","coordinates":[8.89561,44.4553]},"properties":{"scode":"LIGGEBOL","name":"Genova - Bolzaneto","variables":["CDD","ET0","GDD","HDD","TDEW","TEMP","UMID","VPD"],"latest":{"CDD":0.0,"ET0":0.61,"GDD":5.8,"HDD":2.1,"TDEW":8.2,"TEMP":15.5,"UMID":62.0,"VPD":0.669},"latest_time":"2026-10-04T05:00","series":"series/LIGGEBOL.csv"}},{"type":"Feature","geometry":{"type":"Point","coordinates":[7.60177,43.88859]},"properties":{"scode":"LIGROCNE","name":"Rocchetta Nervina","variables":["CDD","ET0","GDD","HDD","TEMP"],"latest":{"CDD":0.0,"ET0":0.74,"GDD":1.8,"HDD":6.2,"TEMP":11.2},"latest_time":"2026-10-04T05:00","series":"series/LIGROCNE.csv"}},{"type":"Feature","geometry":{"type":"Point","coordinates":[9.45774,44.37488]},"properties":{"scode":"LIGREPPI","name":"Reppia","variables":["CDD","ET0","GDD","HDD","TDEW","TEMP","UMID","VPD"],"latest":{"CDD":0.0,"ET0":0.76,"GDD":5.6,"HDD":2.3,"TDEW":8.3,"TEMP":15.1,"UMID":64.0,"VPD":0.618},"latest_time":"2026-10-04T05:00","series":"series/LIGREPPI.csv"}},{"type":"Feature","geometry":{"type":"Point","coordinates":[7.61888,43.7933]},"properties":{"scode":"LIGMMAUR","name":"Monte Maure","variables":["CDD","ET0","GDD","HDD","TEMP","VVENTO"],"latest":{"CDD":0.0,"ET0":0.86,"GDD":9.9,"HDD":0.0,"TEMP":19.4,"VVENTO":6.0},"latest_time":"2026-10-04T05:00","series":"series/LIGMMAUR.csv"}},{"type":"Feature","geometry":{"type":"Point","coordinates":[9.65964,44.2747]},"properties":{"scode":"LIGSMVAR","name":"S. Margherita Vara","variables":["CDD","ET0","GDD","HDD","TEMP"],"latest":{"CDD":0.0,"ET0":0.44,"GDD":0.0,"HDD":9.6,"TEMP":8.1},"latest_time":"2026-10-04T05:00","series":"series/LIGSMVAR.csv"}},{"type":"Feature","geometry":{"type":"Point","coordinates":[8.97849,44.48555]},"properties":{"scode":"LIGVICOM","name":"Vicomorasso","variables":["CDD","ET0","GDD","HDD","TDEW","TEMP","UMID","VPD"],"latest":{"CDD":0.0,"ET0":0.73,"GDD":6.4,"HDD":1.6,"TDEW":7.0,"TEMP":16.0,"UMID":55.0,"VPD":0.818},"latest_time":"2026-10-04T05:00","series":"series/LIGVICOM.csv"}},{"type":"Feature","geometry":{"type":"Point","coordinates":[9.5842,44.38313]},"properties":{"scode":"LIGVALIG","name":"Varese Ligure","variables":["CDD","ET0","GDD","HDD","TDEW","TEMP","UMID","VPD"],"latest":{"CDD":0.0,"ET0":0.43,"GDD":0.3,"HDD":7.7,"TDEW":8.9,"TEMP":10.1,"UMID":92.0,"VPD":0.099},"latest_time":"2026-10-04T05:00","series":"series/LIGVALIG.csv"}},{"type":"Feature","geometry":{"type":"Point","coordinates":[7.76242,43.99451]},"properties":{"scode":"LIGTRIOR","name":"Triora","variables":["CDD","ET0","GDD","HDD","TEMP"],"latest":{"CDD":0.0,"ET0":0.5,"GDD":1.9,"HDD":6.2,"TEMP":11.6},"latest_time":"2026-10-04T05:00","series":"series/LIGTRIOR.csv"}},{"type":"Feature","geometry":{"type":"Point","coordinates":[7.92859,43.85263]},"properties":{"scode":"LIGCRAIN","name":"Cipressa","variables":["CDD","ET0","GDD","HDD","TAPP","TDEW","TEMP","UMID","VPD","VVENTO"],"latest":{"CDD":0.3,"ET0":0.47,"GDD":11.4,"HDD":0.0,"TAPP":19.1,"TDEW":7.0,"TEMP":21.5,"UMID":39.0,"VPD":1.564,"VVENTO":2.4},"latest_time":"2026-10-04T05:00","series":"series/LIGCRAIN.csv"}},{"type":"Feature","geometry":{"type":"Point","coordinates":[7.95315,43.97713]},"properties":{"scode":"LIGBMARO","name":"Borgomaro","variables":["CDD","ET0","GDD","HDD","TEMP","VVENTO"],"latest":{"CDD":0.0,"ET0":0.47,"GDD":2.9,"HDD":5.1,"TEMP":12.9,"VVENTO":0.8},"latest_time":"2026-10-04T05:00","series":"series/LIGBMARO.csv"}},{"type":"Feature","geometry":{"type":"Point","coordinates":[8.1693,44.00624]},"properties":{"scode":"LIGALASS","name":"Alassio","variables":["CDD","ET0","GDD","HDD","TAPP","TDEW","TEMP","UMID","VPD","VVENTO"],"latest":{"CDD":2.1,"ET0":0.4,"GDD":13.0,"HDD":0.0,"TAPP":19.7,"TDEW":8.4,"TEMP":23.1,"UMID":39.0,"VPD":1.724,"VVENTO":4.3},"latest_time":"2026-10-04T05:00","series":"series/LIGALASS.csv"}},{"type":"Feature","geometry":{"type":"Point","coordinates":[9.69908,44.34967]},"properties":{"scode":"LIGCUCCA","name":"Cuccarello","variables":["CDD","ET0","GDD","HDD","TAPP","TDEW","TEMP","UMID","VPD","VVENTO"],"latest":{"CDD":0.0,"ET0":0.39,"GDD":0.8,"HDD":7.3,"TAPP":9.5,"TDEW":7.8,"TEMP":10.8,"UMID":82.0,"VPD":0.233,"VVENTO":1.1},"latest_time":"2026-10-04T05:00","series":"series/LIGCUCCA.csv"}},{"type":"Feature","geometry":{"type":"Point","coordinates":[9.83594,44.052]},"properties":{"scode":"LIGPVENE","name":"Portovenere - Comune","variables":["CDD","ET0","GDD","HDD","TAPP","TDEW","TEMP","UMID","VPD","VVENTO"],"latest":{"CDD":0.0,"ET0":0.8,"GDD":9.3,"HDD":0.0,"TAPP":17.2,"TDEW":8.4,"TEMP":19.7,"UMID":48.0,"VPD":1.194,"VVENTO":3.0},"latest_time":"2026-10-04T05:00","series":"series/LIGPVENE.csv"}},{"type":"Feature","geometry":{"type":"Point","coordinates":[8.33939,44.45176]},"properties":{"scode":"LIGDEGIR","name":"Dego - Girini","variables":["CDD","ET0","GDD","HDD","TAPP","TDEW","TEMP","UMID","VPD","VVENTO"],"latest":{"CDD":0.0,"ET0":0.63,"GDD":0.2,"HDD":7.8,"TAPP":8.4,"TDEW":6.4,"TEMP":9.9,"UMID":79.0,"VPD":0.256,"VVENTO":1.0},"latest_time":"2026-10-04T05:00","series":"series/LIGDEGIR.csv"}},{"type":"Feature","geometry":{"type":"Point","coordinates":[8.06768,43.91987]},"properties":{"scode":"LIGDCAVV","name":"Diano Castello - Varcavello","variables":["CDD","ET0","GDD","HDD","TAPP","TDEW","TEMP","UMID","VPD","VVENTO"],"latest":{"CDD":0.2,"ET0":0.81,"GDD":11.2,"HDD":0.0,"TAPP":19.7,"TDEW":9.1,"TEMP":20.8,"UMID":47.0,"VPD":1.302,"VVENTO":1.3},"latest_time":"2026-10-04T05:00","series":"series/LIGDCAVV.csv"}},{"type":"Feature","geometry":{"type":"Point","coordinates":[9.21045,44.3362]},"properties":{"scode":"LIGSMARG","name":"S. Margherita Ligure","variables":["CDD","ET0","GDD","HDD","TAPP","TDEW","TEMP","UMID","VPD","VVENTO"],"latest":{"CDD":0.0,"ET0":0.7,"GDD":8.4,"HDD":0.0,"TAPP":17.0,"TDEW":10.1,"TEMP":18.0,"UMID":60.0,"VPD":0.826,"VVENTO":1.5},"latest_time":"2026-10-04T05:00","series":"series/LIGSMARG.csv"}},{"type":"Feature","geometry":{"type":"Point","coordinates":[9.96546,44.11227]},"properties":{"scode":"LIGSRZAN","name":"Sarzana","variables":["CDD","ET0","GDD","HDD","TEMP"],"latest":{"CDD":0.0,"ET0":0.73,"GDD":4.4,"HDD":3.6,"TEMP":13.9},"latest_time":"2026-10-04T05:00","series":"series/LIGSRZAN.csv"}},{"type":"Feature","geometry":{"type":"Point","coordinates":[7.78625,43.82265]},"properties":{"scode":"LIGSREMO","name":"Sanremo","variables":["CDD","ET0","GDD","HDD","TAPP","TDEW","TEMP","UMID","VPD","VVENTO"],"latest":{"CDD":1.3,"ET0":1.2,"GDD":12.4,"HDD":0.0,"TAPP":21.4,"TDEW":6.8,"TEMP":22.6,"UMID":36.0,"VPD":1.755,"VVENTO":0.6},"latest_time":"2026-10-04T05:00","series":"series/LIGSREMO.csv"}},{"type":"Feature","geometry":{"type":"Point","coordinates":[8.50244,44.4061]},"properties":{"scode":"LIGSTBUR","name":"Stella - Burdone","variables":["CDD","ET0","GDD","HDD","TAPP","TDEW","TEMP","UMID","VPD","VVENTO"],"latest":{"CDD":0.0,"ET0":1.03,"GDD":5.9,"HDD":2.0,"TAPP":10.9,"TDEW":6.2,"TEMP":14.9,"UMID":56.0,"VPD":0.746,"VVENTO":4.4},"latest_time":"2026-10-04T05:00","series":"series/LIGSTBUR.csv"}},{"type":"Feature","geometry":{"type":"Point","coordinates":[9.82819,44.10703]},"properties":{"scode":"LIGSPZIA","name":"La Spezia","variables":["CDD","ET0","GDD","HDD","TAPP","TDEW","TEMP","UMID","VPD","VVENTO"],"latest":{"CDD":0.0,"ET0":0.78,"GDD":8.4,"HDD":0.0,"TAPP":16.8,"TDEW":9.1,"TEMP":18.0,"UMID":56.0,"VPD":0.908,"VVENTO":1.4},"latest_time":"2026-10-04T05:00","series":"series/LIGSPZIA.csv"}},{"type":"Feature","geometry":{"type":"Point","coordinates":[9.32194,44.42107]},"properties":{"scode":"LIGCCHER","name":"Cichero","variables":["CDD","ET0","GDD","HDD","TAPP","TDEW","TEMP","UMID","VPD","VVENTO"],"latest":{"CDD":0.0,"ET0":0.91,"GDD":5.5,"HDD":2.4,"TAPP":13.6,"TDEW":10.1,"TEMP":14.7,"UMID":74.0,"VPD":0.435,"VVENTO":1.7},"latest_time":"2026-10-04T05:00","series":"series/LIGCCHER.csv"}},{"type":"Feature","geometry":{"type":"Point","coordinates":[10.00343,44.24267]},"properties":{"scode":"LIGLICCN","name":"Licciana Nardi","variables":["CDD","ET0","GDD","HDD","TEMP"],"latest":{"CDD":0.0,"ET0":0.41,"GDD":0.0,"HDD":8.9,"TEMP":9.2},"latest_time":"2026-10-04T05:00","series":"series/LIGLICCN.csv"}},{"type":"Feature","geometry":{"type":"Point","coordinates":[9.09318,44.4029]},"properties":{"scode":"LIGFFRES","name":"Fontana Fresca","variables":["CDD","ET0","GDD","HDD","TAPP","TDEW","TEMP","UMID","VPD","VVENTO"],"latest":{"CDD":0.0,"ET0":0.54,"GDD":7.9,"HDD":0.0,"TAPP":15.6,"TDEW":5.7,"TEMP":17.8,"UMID":45.0,"VPD":1.121,"VVENTO":1.7},"latest_time":"2026-10-04T05:00","series":"series/LIGFFRES.csv"}},{"type":"Feature","geometry":{"type":"Point","coordinates":[8.95422,44.54856]},"properties":{"scode":"LIGMTECA","name":"Monte Cappellino","variables":["CDD","ET0","GDD","HDD","TAPP","TDEW","TEMP","UMID","VPD","VVENTO"],"latest":{"CDD":0.0,"ET0":0.81,"GDD":4.1,"HDD":4.0,"TAPP":10.7,"TDEW":7.4,"TEMP":13.4,"UMID":67.0,"VPD":0.507,"VVENTO":3.0},"latest_time":"2026-10-04T05:00","series":"series/LIGMTECA.csv"}},{"type":"Feature","geometry":{"type":"Point","coordinates":[9.28492,44.42422]},"properties":{"scode":"LIGORERO","name":"Croce Orero","variables":["CDD","ET0","GDD","HDD","TEMP"],"latest":{"CDD":0.0,"ET0":0.46,"GDD":5.8,"HDD":2.3,"TEMP":15.6},"latest_time":"2026-10-04T05:00","series":"series/LIGORERO.csv"}},{"type":"Feature","geometry":{"type":"Point","coordinates":[9.16994,44.44372]},"properties":{"scode":"LIGOGNIO","name":"Ognio","variables":["CDD","ET0","GDD","HDD","TDEW","TEMP","UMID","VPD"],"latest":{"CDD":0.0,"ET0":0.51,"GDD":5.9,"HDD":2.2,"TDEW":9.7,"TEMP":15.6,"UMID":68.0,"VPD":0.567},"latest_time":"2026-10-04T05:00","series":"series/LIGOGNIO.csv"}},{"type":"Feature","geometry":{"type":"Point","coordinates":[8.91803,44.61948]},"properties":{"scode":"LIGTANOR","name":"Tanadorso","variables":["CDD","ET0","GDD","HDD","TAPP","TDEW","TEMP","UMID","VPD","VVENTO"],"latest":{"CDD":0.0,"ET0":0.79,"GDD":3.4,"HDD":4.6,"TAPP":7.6,"TDEW":6.9,"TEMP":12.7,"UMID":68.0,"VPD":0.47,"VVENTO":6.2},"latest_time":"2026-10-04T05:00","series":"series/LIGTANOR.csv"}},{"type":"Feature","geometry":{"type":"Point","coordinates":[10.15168,44.24644]},"properties":{"scode":"LIGTURAN","name":"Turano","variables":["CDD","ET0","GDD","HDD","TEMP"],"latest":{"CDD":0.0,"ET0":0.58,"GDD":4.2,"HDD":3.9,"TEMP":14.5},"latest_time":"2026-10-04T05:00","series":"series/LIGTURAN.csv"}},{"type":"Feature","geometry":{"type":"Point","coordinates":[9.96878,44.25042]},"properties":{"scode":"LIGVLFOL","name":"Villafranca - Fornoli","variables":["CDD","ET0","GDD","HDD","TEMP","VVENTO"],"latest":{"CDD":0.0,"ET0":0.56,"GDD":0.0,"HDD":8.3,"TEMP":9.4,"VVENTO":0.4},"latest_time":"2026-10-04T05:00","series":"series/LIGVLFOL.csv"}},{"type":"Feature","geometry":{"type":"Point","coordinates":[9.15931,44.34704]},"properties":{"scode":"LIGCAMOG","name":"Camogli","variables":["CDD","ET0","GDD","HDD","TAPP","TDEW","TEMP","UMID","VPD","VVENTO"],"latest":{"CDD":0.0,"ET0":0.72,"GDD":9.7,"HDD":0.0,"TAPP":19.2,"TDEW":10.6,"TEMP":19.3,"UMID":57.0,"VPD":0.963,"VVENTO":0.5},"latest_time":"2026-10-04T05:00","series":"series/LIGCAMOG.csv"}},{"type":"Feature","geometry":{"type":"Point","coordinates":[8.27224,44.40234]},"properties":{"scode":"LIGCAIRM","name":"Cairo Montenotte","variables":["CDD","ET0","GDD","HDD","TEMP"],"latest":{"CDD":0.0,"ET0":0.74,"GDD":0.0,"HDD":10.3,"TEMP":6.9},"latest_time":"2026-10-04T05:00","series":"series/LIGCAIRM.csv"}},{"type":"Feature","geometry":{"type":"Point","coordinates":[8.58092,44.4623]},"properties":{"scode":"LIGPIAMP","name":"Piampaludo","variables":["CDD","ET0","GDD","HDD","TEMP"],"latest":{"CDD":0.0,"ET0":0.68,"GDD":0.0,"HDD":9.3,"TEMP":7.9},"latest_time":"2026-10-04T05:00","series":"series/LIGPIAMP.csv"}},{"type":"Feature","geometry":{"type":"Point","coordinates":[8.20254,44.28647]},"properties":{"scode":"LIGOSIGL","name":"Osiglia","variables":["CDD","ET0","GDD","HDD","TEMP"],"latest":{"CDD":0.0,"ET0":0.46,"GDD":0.0,"HDD":10.4,"TEMP":7.2},"latest_time":"2026-10-04T05:00","series":"series/LIGOSIGL.csv"}},{"type":"Feature","geometry":{"type":"Point","coordinates":[8.41176,44.41259]},"properties":{"scode":"LIGMNINF","name":"Montenotte Inferiore","variables":["CDD","ET0","GDD","HDD","TEMP"],"latest":{"CDD":0.0,"ET0":0.36,"GDD":0.0,"HDD":11.9,"TEMP":5.9},"latest_time":"2026-10-04T05:00","series":"series/LIGMNINF.csv"}},{"type":"Feature","geometry":{"type":"Point","coordinates":[8.29792,44.29318]},"properties":{"scode":"LIGMLARE","name":"Mallare","variables":["CDD","ET0","GDD","HDD","TEMP"],"latest":{"CDD":0.0,"ET0":0.49,"GDD":0.0,"HDD":11.8,"TEMP":5.9},"latest_time":"2026-10-04T05:00","series":"series/LIGMLARE.csv"}},{"type":"Feature","geometry":{"type":"Point","coordinates":[7.6985,43.82756]},"properties":{"scode":"LIGSEBOR","name":"Seborga","variables":["CDD","ET0","GDD","HDD","TDEW","TEMP","UMID","VPD"],"latest":{"CDD":0.0,"ET0":0.57,"GDD":9.4,"HDD":0.0,"TDEW":3.8,"TEMP":19.3,"UMID":36.0,"VPD":1.433},"latest_time":"2026-10-04T05:00","series":"series/LIGSEBOR.csv"}},{"type":"Feature","geometry":{"type":"Point","coordinates":[7.62104,43.84601]},"properties":{"scode":"LIGBONUO","name":"Borgonuovo","variables":["CDD","ET0","GDD","HDD","TAPP","TDEW","TEMP","UMID","VPD","VVENTO"],"latest":{"CDD":0.0,"ET0":0.75,"GDD":4.9,"HDD":3.1,"TAPP":12.6,"TDEW":9.2,"TEMP":14.4,"UMID":71.0,"VPD":0.476,"VVENTO":2.4},"latest_time":"2026-10-04T05:00","series":"series/LIGBONUO.csv"}},{"type":"Feature","geometry":{"type":"Point","coordinates":[7.72108,44.04425]},"properties":{"scode":"LIGVERDE","name":"Verdeggia","variables":["CDD","ET0","GDD","HDD","TDEW","TEMP","UMID","VPD"],"latest":{"CDD":0.0,"ET0":0.58,"GDD":0.0,"HDD":9.1,"TDEW":3.1,"TEMP":8.3,"UMID":70.0,"VPD":0.328},"latest_time":"2026-10-04T05:00","series":"series/LIGVERDE.csv"}},{"type":"Feature","geometry":{"type":"Point","coordinates":[8.01652,43.87957]},"properties":{"scode":"LIGIMPER","name":"Imperia - Oss. Meteosismico","variables":["CDD","ET0","GDD","HDD","TAPP","TDEW","TEMP","UMID","VPD","VVENTO"],"latest":{"CDD":1.9,"ET0":0.4,"GDD":12.9,"HDD":0.0,"TAPP":19.5,"TDEW":8.2,"TEMP":22.9,"UMID":39.0,"VPD":1.703,"VVENTO":4.3},"latest_time":"2026-10-04T05:00","series":"series/LIGIMPER.csv"}},{"type":"Feature","geometry":{"type":"Point","coordinates":[8.26235,44.14665]},"properties":{"scode":"LIGCLARI","name":"Castellari","variables":["CDD","ET0","GDD","HDD","TAPP","TDEW","TEMP","UMID","VPD","VVENTO"],"latest":{"CDD":1.9,"ET0":0.56,"GDD":12.9,"HDD":0.0,"TAPP":21.0,"TDEW":5.7,"TEMP":22.8,"UMID":33.0,"VPD":1.86,"VVENTO":1.2},"latest_time":"2026-10-04T05:00","series":"series/LIGCLARI.csv"}},{"type":"Feature","geometry":{"type":"Point","coordinates":[9.00911,44.41681]},"properties":{"scode":"LIGPREMA","name":"Premanico","variables":["CDD","ET0","GDD","HDD","TDEW","TEMP","UMID","VPD"],"latest":{"CDD":0.0,"ET0":0.86,"GDD":8.6,"HDD":0.0,"TDEW":7.7,"TEMP":18.0,"UMID":51.0,"VPD":1.011},"latest_time":"2026-10-04T05:00","series":"series/LIGPREMA.csv"}},{"type":"Feature","geometry":{"type":"Point","coordinates":[10.03361,44.33329]},"properties":{"scode":"LIGIERAA","name":"Iera","variables":["CDD","ET0","GDD","HDD","TEMP"],"latest":{"CDD":0.0,"ET0":0.55,"GDD":2.8,"HDD":5.1,"TEMP":12.7},"latest_time":"2026-10-04T05:00","series":"series/LIGIERAA.csv"}},{"type":"Feature","geometry":{"type":"Point","coordinates":[10.01409,44.05021]},"properties":{"scode":"LIGMARIN","name":"Marinella di Sarzana","variables":["CDD","ET0","GDD","HDD","TEMP"],"latest":{"CDD":0.0,"ET0":0.44,"GDD":4.3,"HDD":3.7,"TEMP":14.2},"latest_time":"2026-10-04T05:00","series":"series/LIGMARIN.csv"}},{"type":"Feature","geometry":{"type":"Point","coordinates":[10.11688,44.21112]},"properties":{"scode":"LIGMAZLA","name":"Mazzola","variables":["CDD","ET0","GDD","HDD","TEMP"],"latest":{"CDD":0.0,"ET0":0.5,"GDD":5.2,"HDD":2.8,"TEMP":15.0},"latest_time":"2026-10-04T05:00","series":"series/LIGMAZLA.csv"}},{"type":"Feature","geometry":{"type":"Point","coordinates":[9.7903,44.13254]},"properties":{"scode":"LIGLFMTV","name":"La Foce - Mte Viseggi","variables":["CDD","ET0","GDD","HDD","TEMP"],"latest":{"CDD":0.0,"ET0":0.63,"GDD":4.6,"HDD":3.4,"TEMP":14.2},"latest_time":"2026-10-04T05:00","series":"series/LIGLFMTV.csv"}},{"type":"Feature","geometry":{"type":"Point","coordinates":[8.19581,44.24398]},"properties":{"scode":"LIGMSETT","name":"Monte Settepani","variables":["CDD","ET0","GDD","HDD","TAPP","TDEW","TEMP","UMID","VPD","VVENTO"],"latest":{"CDD":0.0,"ET0":0.38,"GDD":0.3,"HDD":7.6,"TAPP":4.1,"TDEW":2.7,"TEMP":10.1,"UMID":60.0,"VPD":0.494,"VVENTO":6.4},"latest_time":"2026-10-04T05:00","series":"series/LIGMSETT.csv"}},{"type":"Feature","geometry":{"type":"Point","coordinates":[8.22002,44.16397]},"properties":{"scode":"LIGVERZI","name":"Verzi Loano","variables":["CDD","ET0","GDD","HDD","TEMP"],"latest":{"CDD":0.0,"ET0":0.76,"GDD":8.9,"HDD":0.0,"TEMP":18.5},"latest_time":"2026-10-04T05:00","series":"series/LIGVERZI.csv"}},{"type":"Feature","geometry":{"type":"Point","coordinates":[9.07492,44.57032]},"properties":{"scode":"LIGAVOBB","name":"Alpe Vobbia","variables":["CDD","ET0","GDD","HDD","TEMP"],"latest":{"CDD":0.0,"ET0":0.76,"GDD":4.5,"HDD":3.5,"TEMP":13.9},"latest_time":"2026-10-04T05:00","series":"series/LIGAVOBB.csv"}},{"type":"Feature","geometry":{"type":"Point","coordinates":[8.65776,44.57232]},"properties":{"scode":"LIGROSGL","name":"Rossiglione","variables":["CDD","ET0","GDD","HDD","TEMP"],"latest":{"CDD":0.0,"ET0":0.61,"GDD":0.7,"HDD":7.3,"TEMP":10.2},"latest_time":"2026-10-04T05:00","series":"series/LIGROSGL.csv"}},{"type":"Feature","geometry":{"type":"Point","coordinates":[9.45118,44.54886]},"properties":{"scode":"LIGSSTAV","name":"S. Stefano d'Aveto","variables":["CDD","ET0","GDD","HDD","TEMP"],"latest":{"CDD":0.0,"ET0":0.45,"GDD":0.0,"HDD":8.9,"TEMP":9.2},"latest_time":"2026-10-04T04:45","series":"series/LIGSSTAV.csv"}},{"type":"Feature","geometry":{"type":"Point","coordinates":[9.24202,44.48218]},"properties":{"scode":"LIGBRGEL","name":"Barbagelata","variables":["CDD","ET0","GDD","HDD","TEMP"],"latest":{"CDD":0.0,"ET0":0.67,"GDD":3.6,"HDD":4.5,"TEMP":13.7},"latest_time":"2026-10-04T04:45","series":"series/LIGBRGEL.csv"}},{"type":"Feature","geometry":{"type":"Point","coordinates":[9.15962,44.51685]},"properties":{"scode":"LIGTRRIG","name":"Torriglia","variables":["CDD","ET0","GDD","HDD","TEMP"],"latest":{"CDD":0.0,"ET0":0.67,"GDD":0.0,"HDD":8.4,"TEMP":10.0},"latest_time":"2026-10-04T04:45","series":"series/LIGTRRIG.csv"}},{"type":"Feature","geometry":{"type":"Point","coordinates":[9.20544,44.53635]},"properties":{"scode":"LIGBRUGN","name":"Brugneto Diga","variables":["CDD","ET0","GDD","HDD","TEMP"],"latest":{"CDD":0.0,"ET0":0.57,"GDD":0.0,"HDD":10.5,"TEMP":7.9},"latest_time":"2026-10-04T04:45","series":"series/LIGBRUGN.csv"}},{"type":"Feature","geometry":{"type":"Point","coordinates":[9.28306,44.57722]},"properties":{"scode":"LIGROVEG","name":"Rovegno","variables":["CDD","ET0","GDD","HDD","TEMP"],"latest":{"CDD":0.0,"ET0":0.64,"GDD":0.0,"HDD":10.6,"TEMP":6.6},"latest_time":"2026-10-04T04:45","series":"series/LIGROVEG.csv"}},{"type":"Feature","geometry":{"type":"Point","coordinates":[8.177,43.92167]},"properties":{"scode":"LIGBOACM","name":"BOA Capo Mele","variables":["CDD","ET0","GDD","HDD","TAPP","TDEW","TEMP","UMID","VPD","VVENTO"],"latest":{"CDD":1.7,"ET0":0.62,"GDD":12.8,"HDD":0.0,"TAPP":19.1,"TDEW":11.9,"TEMP":22.5,"UMID":51.0,"VPD":1.336,"VVENTO":5.7},"latest_time":"2026-10-04T04:00","series":"series/LIGBOACM.csv"}},{"type":"Feature","geometry":{"type":"Point","coordinates":[9.2363,44.6047]},"properties":{"scode":"LIGAGORR","name":"Alpe Gorreto","variables":["CDD","ET0","GDD","HDD","TEMP"],"latest":{"CDD":0.0,"ET0":0.62,"GDD":0.9,"HDD":7.1,"TEMP":10.4},"latest_time":"2026-10-04T04:45","series":"series/LIGAGORR.csv"}},{"type":"Feature","geometry":{"type":"Point","coordinates":[10.11961,44.30385]},"properties":{"scode":"LIGCOMAN","name":"Comano","variables":["CDD","ET0","GDD","HDD","TEMP"],"latest":{"CDD":0.0,"ET0":0.57,"GDD":4.1,"HDD":4.1,"TEMP":14.1},"latest_time":"2026-10-04T05:00","series":"series/LIGCOMAN.csv"}},{"type":"Feature","geometry":{"type":"Point","coordinates":[8.68775,44.3981]},"properties":{"scode":"LIGAREPO","name":"Arenzano-Porto","variables":["VVENTO"],"latest":{"VVENTO":1.5},"latest_time":"2026-10-04T05:00","series":"series/LIGAREPO.csv"}},{"type":"Feature","geometry":{"type":"Point","coordinates":[8.92317,44.40816]},"properties":{"scode":"LIGGEPOA","name":"Genova - Porto Antico","variables":["VVENTO"],"latest":{"VVENTO":2.8},"latest_time":"2026-10-04T05:00","series":"series/LIGGEPOA.csv"}},{"type":"Feature","geometry":{"type":"Point","coordinates":[9.34056,44.30691]},"properties":{"scode":"LIGLAVPO","name":"Lavagna - Porto","variables":["VVENTO"],"latest":{"VVENTO":5.7},"latest_time":"2026-10-04T05:00","series":"series/LIGLAVPO.csv"}},{"type":"Feature","geometry":{"type":"Point","coordinates":[8.88997,44.42439]},"properties":{"scode":"LIGGECER","name":"Genova - Certosa","variables":["VVENTO"],"latest":{"VVENTO":4.5},"latest_time":"2026-10-04T05:00","series":"series/LIGGECER.csv"}},{"type":"Feature","geometry":{"type":"Point","coordinates":[8.26713,44.13386]},"properties":{"scode":"LIGMALOA","name":"Marina Loano","variables":["VVENTO"],"latest":{"VVENTO":1.5},"latest_time":"2026-10-04T05:00","series":"series/LIGMALOA.csv"}}]}