{"type":"FeatureCollection","name":"LAGHI","features":[{"type":"Feature","geometry":{"type":"Point","coordinates":[8.6,45.93]},"properties":{"scode":"Lago_Maggiore","name":"Lago Maggiore","variables":["AFFLUSSO","DEFLUSSO","LIVLAGO"],"latest":{"AFFLUSSO":57.4,"DEFLUSSO":99.0,"LIVLAGO":-0.22},"latest_time":"2026-10-04T06:30","series":"series/Lago_Maggiore.csv"}},{"type":"Feature","geometry":{"type":"Point","coordinates":[9.26,46.0]},"properties":{"scode":"Lago_di_Como","name":"Lago di Como","variables":["AFFLUSSO","DEFLUSSO","LIVLAGO"],"latest":{"AFFLUSSO":129.0,"DEFLUSSO":124.3,"LIVLAGO":0.16},"latest_time":"2026-10-04T06:30","series":"series/Lago_di_Como.csv"}},{"type":"Feature","geometry":{"type":"Point","coordinates":[10.05,45.71]},"properties":{"scode":"Lago_d_Iseo","name":"Lago d'Iseo","variables":["AFFLUSSO","DEFLUSSO","LIVLAGO"],"latest":{"AFFLUSSO":25.4,"DEFLUSSO":40.6,"LIVLAGO":0.59},"latest_time":"2026-10-04T06:30","series":"series/Lago_d_Iseo.csv"}},{"type":"Feature","geometry":{"type":"Point","coordinates":[10.63,45.6]},"properties":{"scode":"Lago_di_Garda","name":"Lago di Garda","variables":["DEFLUSSO","LIVLAGO"],"latest":{"DEFLUSSO":35.0,"LIVLAGO":0.565},"latest_time":"2026-10-04T06:30","series":"series/Lago_di_Garda.csv"}},{"type":"Feature","geometry":{"type":"Point","coordinates":[10.51,45.79]},"properties":{"scode":"Lago_d_Idro","name":"Lago d'Idro","variables":["LIVLAGO"],"latest":{"LIVLAGO":367.48},"latest_time":"2026-10-04T05:50","series":"series/Lago_d_Idro.csv"}}]}