{"type":"FeatureCollection","name":"MAR_FVG","features":[{"type":"Feature","geometry":{"type":"Point","coordinates":[13.7083333,45.6976667]},"properties":{"scode":"MAMBO1","name":"Boa MAMBO1 (Golfo di Trieste)","variables":["CDD","DVENTO","ET0","GDD","HDD","PRESS","QSPEC","TAPP","TDEW","TEMP","UMID","UWND","VPD","VVENTO","VWND"],"latest":{"CDD":0.0,"DVENTO":63.12,"ET0":1.07,"GDD":7.6,"HDD":0.4,"PRESS":982.98,"QSPEC":8.13,"TAPP":12.2,"TDEW":10.6,"TEMP":16.92,"UMID":66.47,"UWND":-6.33,"VPD":0.646,"VVENTO":7.1,"VWND":-3.21},"latest_time":"2026-10-10T22:00","series":"series/MAMBO1.csv"}},{"type":"Feature","geometry":{"type":"Point","coordinates":[13.0685195,45.6714885]},"properties":{"scode":"PIEZTAG","name":"PIEZTAG - Foce Tagliamento","variables":["MAREA","TEMPACQUA"],"latest":{"MAREA":1.04269,"TEMPACQUA":20.006},"latest_time":"2026-10-10T23:00","series":"series/PIEZTAG.csv"}},{"type":"Feature","geometry":{"type":"Point","coordinates":[13.209,45.6995]},"properties":{"scode":"DWRG2","name":"Ondametro DWRG2 (Golfo di Trieste)","variables":["ONDE"],"latest":{"ONDE":0.09},"latest_time":"2026-10-10T21:30","series":"series/DWRG2.csv"}},{"type":"Feature","geometry":{"type":"Point","coordinates":[13.248,45.5655]},"properties":{"scode":"DWRG1","name":"Ondametro DWRG1 (Golfo di Trieste)","variables":["ONDE"],"latest":{"ONDE":0.12},"latest_time":"2026-10-10T20:30","series":"series/DWRG1.csv"}},{"type":"Feature","geometry":{"type":"Point","coordinates":[13.521316,45.688266]},"properties":{"scode":"DWRG3","name":"Ondametro DWRG3 (Golfo di Trieste)","variables":["ONDE"],"latest":{"ONDE":0.19},"latest_time":"2026-10-10T21:30","series":"series/DWRG3.csv"}},{"type":"Feature","geometry":{"type":"Point","coordinates":[13.4963333,45.7616667]},"properties":{"scode":"CURRISO","name":"CURRISO - Foce Isonzo","variables":["PORTATA","TEMPACQUA"],"latest":{"PORTATA":21.06,"TEMPACQUA":21.8},"latest_time":"2026-10-10T23:00","series":"series/CURRISO.csv"}}]}