{"type":"FeatureCollection","name":"PC_TN","features":[{"type":"Feature","geometry":{"type":"Point","coordinates":[11.006637,45.758606]},"properties":{"scode":"TN28210","name":"Ala","variables":["LIVIDRO"],"latest":{"LIVIDRO":0.51},"latest_time":"2026-09-05T20:00","series":"series/TN28210.csv"}},{"type":"Feature","geometry":{"type":"Point","coordinates":[11.250025,45.981509]},"properties":{"scode":"TN31071","name":"Aonè","variables":["LIVIDRO"],"latest":{"LIVIDRO":-0.01},"latest_time":"2026-09-05T20:00","series":"series/TN31071.csv"}},{"type":"Feature","geometry":{"type":"Point","coordinates":[10.937188,45.731747]},"properties":{"scode":"TN28206","name":"Avio","variables":["LIVIDRO"],"latest":{"LIVIDRO":0.06},"latest_time":"2026-09-05T20:00","series":"series/TN28206.csv"}},{"type":"Feature","geometry":{"type":"Point","coordinates":[10.92839,45.704143]},"properties":{"scode":"TN30785","name":"Borghetto","variables":["LIVIDRO"],"latest":{"LIVIDRO":2.84},"latest_time":"2026-09-05T20:00","series":"series/TN30785.csv"}},{"type":"Feature","geometry":{"type":"Point","coordinates":[11.460014,46.054108]},"properties":{"scode":"TN11805","name":"Borgo Valsugana","variables":["LIVIDRO"],"latest":{"LIVIDRO":0.15},"latest_time":"2026-09-05T20:00","series":"series/TN11805.csv"}},{"type":"Feature","geometry":{"type":"Point","coordinates":[11.273958,46.004858]},"properties":{"scode":"TN57229","name":"Brenta Caldonazzo","variables":["LIVIDRO"],"latest":{"LIVIDRO":-0.077},"latest_time":"2026-09-05T20:00","series":"series/TN57229.csv"}},{"type":"Feature","geometry":{"type":"Point","coordinates":[11.744702,46.474532]},"properties":{"scode":"TN30415","name":"Campitello Avisio","variables":["LIVIDRO"],"latest":{"LIVIDRO":0.45},"latest_time":"2026-09-05T20:00","series":"series/TN30415.csv"}},{"type":"Feature","geometry":{"type":"Point","coordinates":[11.741348,46.476286]},"properties":{"scode":"TN32184","name":"Campitello Duron","variables":["LIVIDRO"],"latest":{"LIVIDRO":-1.13},"latest_time":"2026-09-05T20:00","series":"series/TN32184.csv"}},{"type":"Feature","geometry":{"type":"Point","coordinates":[11.276851,46.076394]},"properties":{"scode":"TN11777","name":"Canezza","variables":["LIVIDRO"],"latest":{"LIVIDRO":-0.11},"latest_time":"2026-09-05T20:00","series":"series/TN11777.csv"}},{"type":"Feature","geometry":{"type":"Point","coordinates":[11.670279,46.197622]},"properties":{"scode":"TN11770","name":"Caoria Ponte Belfe","variables":["LIVIDRO"],"latest":{"LIVIDRO":0.25},"latest_time":"2026-09-05T20:00","series":"series/TN11770.csv"}},{"type":"Feature","geometry":{"type":"Point","coordinates":[11.679002,46.196939]},"properties":{"scode":"TN30987","name":"Caoria Valsorda","variables":["LIVIDRO"],"latest":{"LIVIDRO":0.24},"latest_time":"2026-09-05T20:00","series":"series/TN30987.csv"}},{"type":"Feature","geometry":{"type":"Point","coordinates":[11.479926,46.28497]},"properties":{"scode":"TN11736","name":"Cavalese Masi","variables":["LIVIDRO"],"latest":{"LIVIDRO":-0.09},"latest_time":"2026-09-05T20:00","series":"series/TN11736.csv"}},{"type":"Feature","geometry":{"type":"Point","coordinates":[10.955575,46.369758]},"properties":{"scode":"TN32116","name":"Cavizzana","variables":["LIVIDRO"],"latest":{"LIVIDRO":0.44},"latest_time":"2026-09-05T20:00","series":"series/TN32116.csv"}},{"type":"Feature","geometry":{"type":"Point","coordinates":[10.621895,45.915404]},"properties":{"scode":"TN11801","name":"Cimego","variables":["LIVIDRO"],"latest":{"LIVIDRO":0.49},"latest_time":"2026-09-05T20:00","series":"series/TN11801.csv"}},{"type":"Feature","geometry":{"type":"Point","coordinates":[10.594679,45.87722]},"properties":{"scode":"TN31945","name":"Condino Chiese","variables":["LIVIDRO"],"latest":{"LIVIDRO":0.32},"latest_time":"2026-09-05T20:00","series":"series/TN31945.csv"}},{"type":"Feature","geometry":{"type":"Point","coordinates":[10.880224,46.327128]},"properties":{"scode":"TN30872","name":"Dimaro","variables":["LIVIDRO"],"latest":{"LIVIDRO":0.33},"latest_time":"2026-09-05T20:00","series":"series/TN30872.csv"}},{"type":"Feature","geometry":{"type":"Point","coordinates":[10.861681,46.325604]},"properties":{"scode":"TN1016114","name":"Dimaro Rotian","variables":["LIVIDRO"],"latest":{"LIVIDRO":-0.14},"latest_time":"2026-09-05T19:45","series":"series/TN1016114.csv"}},{"type":"Feature","geometry":{"type":"Point","coordinates":[10.907916,45.963757]},"properties":{"scode":"TN31942","name":"Dro","variables":["LIVIDRO"],"latest":{"LIVIDRO":1.02},"latest_time":"2026-09-05T20:00","series":"series/TN31942.csv"}},{"type":"Feature","geometry":{"type":"Point","coordinates":[11.829868,46.174121]},"properties":{"scode":"TN11768","name":"Fiera di Primiero","variables":["LIVIDRO"],"latest":{"LIVIDRO":0.55},"latest_time":"2026-09-05T20:00","series":"series/TN11768.csv"}},{"type":"Feature","geometry":{"type":"Point","coordinates":[11.644417,46.004383]},"properties":{"scode":"TN11766","name":"Grigno Ponte Filippini","variables":["LIVIDRO"],"latest":{"LIVIDRO":0.2},"latest_time":"2026-09-05T20:00","series":"series/TN11766.csv"}},{"type":"Feature","geometry":{"type":"Point","coordinates":[11.118571,46.138302]},"properties":{"scode":"TN11694","name":"Lavis","variables":["LIVIDRO"],"latest":{"LIVIDRO":0.31},"latest_time":"2026-09-05T20:00","series":"series/TN11694.csv"}},{"type":"Feature","geometry":{"type":"Point","coordinates":[11.295926,46.004124]},"properties":{"scode":"TN30749","name":"Levico Brentella","variables":["LIVIDRO"],"latest":{"LIVIDRO":0.2},"latest_time":"2026-09-05T20:00","series":"series/TN30749.csv"}},{"type":"Feature","geometry":{"type":"Point","coordinates":[11.318063,46.003333]},"properties":{"scode":"TN11762","name":"Levico Ponte Cervia","variables":["LIVIDRO"],"latest":{"LIVIDRO":0.16},"latest_time":"2026-09-05T20:00","series":"series/TN11762.csv"}},{"type":"Feature","geometry":{"type":"Point","coordinates":[10.913804,46.347216]},"properties":{"scode":"TN11732","name":"Malé","variables":["LIVIDRO"],"latest":{"LIVIDRO":0.34},"latest_time":"2026-09-05T20:00","series":"series/TN11732.csv"}},{"type":"Feature","geometry":{"type":"Point","coordinates":[11.000874,45.83906]},"properties":{"scode":"TN12323","name":"Marco","variables":["LIVIDRO"],"latest":{"LIVIDRO":-0.15},"latest_time":"2026-09-05T20:00","series":"series/TN12323.csv"}},{"type":"Feature","geometry":{"type":"Point","coordinates":[11.122894,46.009636]},"properties":{"scode":"TN49050","name":"Mattarello","variables":["LIVIDRO"],"latest":{"LIVIDRO":1.19},"latest_time":"2026-09-05T20:00","series":"series/TN49050.csv"}},{"type":"Feature","geometry":{"type":"Point","coordinates":[11.103355,46.193669]},"properties":{"scode":"TN11691","name":"Mezzolombardo Ponte Rupe","variables":["LIVIDRO"],"latest":{"LIVIDRO":0.08},"latest_time":"2026-09-05T20:00","series":"series/TN11691.csv"}},{"type":"Feature","geometry":{"type":"Point","coordinates":[11.668345,46.374966]},"properties":{"scode":"TN28938","name":"Moena","variables":["LIVIDRO"],"latest":{"LIVIDRO":0.38},"latest_time":"2026-09-05T20:00","series":"series/TN28938.csv"}},{"type":"Feature","geometry":{"type":"Point","coordinates":[11.423078,46.271148]},"properties":{"scode":"TN30420","name":"Molina di Fiemme","variables":["LIVIDRO"],"latest":{"LIVIDRO":0.33},"latest_time":"2026-09-05T20:00","series":"series/TN30420.csv"}},{"type":"Feature","geometry":{"type":"Point","coordinates":[11.548351,46.039912]},"properties":{"scode":"TN31936","name":"Ospedaletto","variables":["LIVIDRO"],"latest":{"LIVIDRO":0.15},"latest_time":"2026-09-05T20:00","series":"series/TN31936.csv"}},{"type":"Feature","geometry":{"type":"Point","coordinates":[10.688683,46.35354]},"properties":{"scode":"TN30752","name":"Peio Cogolo","variables":["LIVIDRO"],"latest":{"LIVIDRO":0.85},"latest_time":"2026-09-05T20:00","series":"series/TN30752.csv"}},{"type":"Feature","geometry":{"type":"Point","coordinates":[10.76177,46.311196]},"properties":{"scode":"TN11773","name":"Pellizzano","variables":["LIVIDRO"],"latest":{"LIVIDRO":0.61},"latest_time":"2026-09-05T20:00","series":"series/TN11773.csv"}},{"type":"Feature","geometry":{"type":"Point","coordinates":[10.644934,45.945539]},"properties":{"scode":"TN31933","name":"Pieve di Bono","variables":["LIVIDRO"],"latest":{"LIVIDRO":0.4},"latest_time":"2026-09-05T20:00","series":"series/TN31933.csv"}},{"type":"Feature","geometry":{"type":"Point","coordinates":[10.755952,46.155437]},"properties":{"scode":"TN32179","name":"Pinzolo Sarca","variables":["LIVIDRO"],"latest":{"LIVIDRO":0.29},"latest_time":"2026-09-05T20:00","series":"series/TN32179.csv"}},{"type":"Feature","geometry":{"type":"Point","coordinates":[10.545005,45.817397]},"properties":{"scode":"TN31924","name":"Ponte dei Tedeschi","variables":["LIVIDRO"],"latest":{"LIVIDRO":-0.16},"latest_time":"2026-09-05T20:00","series":"series/TN31924.csv"}},{"type":"Feature","geometry":{"type":"Point","coordinates":[11.062353,46.262609]},"properties":{"scode":"TN28341","name":"Ponte di Moncovo","variables":["LIVIDRO"],"latest":{"LIVIDRO":0.67},"latest_time":"2026-09-05T20:00","series":"series/TN28341.csv"}},{"type":"Feature","geometry":{"type":"Point","coordinates":[11.410511,46.039078]},"properties":{"scode":"TN31939","name":"Ponte Zaccon","variables":["LIVIDRO"],"latest":{"LIVIDRO":0.18},"latest_time":"2026-09-05T20:00","series":"series/TN31939.csv"}},{"type":"Feature","geometry":{"type":"Point","coordinates":[11.250972,46.189798]},"properties":{"scode":"TN32527","name":"Prà Ponte di Cantilaga","variables":["LIVIDRO"],"latest":{"LIVIDRO":0.48},"latest_time":"2026-09-05T20:00","series":"series/TN32527.csv"}},{"type":"Feature","geometry":{"type":"Point","coordinates":[11.595996,46.310233]},"properties":{"scode":"TN28244","name":"Predazzo Avisio","variables":["LIVIDRO"],"latest":{"LIVIDRO":0.16},"latest_time":"2026-09-05T20:00","series":"series/TN28244.csv"}},{"type":"Feature","geometry":{"type":"Point","coordinates":[11.601262,46.308424]},"properties":{"scode":"TN28943","name":"Predazzo Travignolo","variables":["LIVIDRO"],"latest":{"LIVIDRO":0.3},"latest_time":"2026-09-05T20:00","series":"series/TN28943.csv"}},{"type":"Feature","geometry":{"type":"Point","coordinates":[10.750055,46.042488]},"properties":{"scode":"TN11793","name":"Preore","variables":["LIVIDRO"],"latest":{"LIVIDRO":0.13},"latest_time":"2026-09-05T20:00","series":"series/TN11793.csv"}},{"type":"Feature","geometry":{"type":"Point","coordinates":[10.785694,46.050262]},"properties":{"scode":"TN32113","name":"Ragoli","variables":["LIVIDRO"],"latest":{"LIVIDRO":0.73},"latest_time":"2026-09-05T20:00","series":"series/TN32113.csv"}},{"type":"Feature","geometry":{"type":"Point","coordinates":[10.847608,45.884055]},"properties":{"scode":"TN28159","name":"Riva del Garda Parco Cattoi","variables":["LIVIDRO"],"latest":{"LIVIDRO":0.02},"latest_time":"2026-09-05T20:00","series":"series/TN28159.csv"}},{"type":"Feature","geometry":{"type":"Point","coordinates":[10.848531,45.883318]},"properties":{"scode":"TN28160","name":"Riva del Garda Parco Cattoi","variables":["LIVIDRO"],"latest":{"LIVIDRO":0.24},"latest_time":"2026-09-05T20:00","series":"series/TN28160.csv"}},{"type":"Feature","geometry":{"type":"Point","coordinates":[11.405008,46.048508]},"properties":{"scode":"TN28229","name":"Roncegno","variables":["LIVIDRO"],"latest":{"LIVIDRO":0.04},"latest_time":"2026-09-05T20:00","series":"series/TN28229.csv"}},{"type":"Feature","geometry":{"type":"Point","coordinates":[11.022282,45.88093]},"properties":{"scode":"TN12320","name":"Rovereto Ponte Zigherane","variables":["LIVIDRO"],"latest":{"LIVIDRO":0.08},"latest_time":"2026-09-05T20:00","series":"series/TN12320.csv"}},{"type":"Feature","geometry":{"type":"Point","coordinates":[11.100841,45.794974]},"properties":{"scode":"TN12316","name":"S. Anna","variables":["LIVIDRO"],"latest":{"LIVIDRO":0.05},"latest_time":"2026-09-05T20:00","series":"series/TN12316.csv"}},{"type":"Feature","geometry":{"type":"Point","coordinates":[10.844546,46.400359]},"properties":{"scode":"TN32213","name":"S. Bernardo Rabbi","variables":["LIVIDRO"],"latest":{"LIVIDRO":0.17},"latest_time":"2026-09-05T20:00","series":"series/TN32213.csv"}},{"type":"Feature","geometry":{"type":"Point","coordinates":[10.84423,46.400301]},"properties":{"scode":"TN32215","name":"S. Bernardo Rabbi","variables":["LIVIDRO"],"latest":{"LIVIDRO":0.11},"latest_time":"2026-09-05T20:00","series":"series/TN32215.csv"}},{"type":"Feature","geometry":{"type":"Point","coordinates":[11.800834,46.264194]},"properties":{"scode":"TN28240","name":"S. Martino di Castrozza","variables":["LIVIDRO"],"latest":{"LIVIDRO":0.08},"latest_time":"2026-09-05T20:00","series":"series/TN28240.csv"}},{"type":"Feature","geometry":{"type":"Point","coordinates":[11.13237,46.195173]},"properties":{"scode":"TN11751","name":"S. Michele all'Adige","variables":["LIVIDRO"],"latest":{"LIVIDRO":0.65},"latest_time":"2026-09-05T20:00","series":"series/TN11751.csv"}},{"type":"Feature","geometry":{"type":"Point","coordinates":[10.946562,46.033082]},"properties":{"scode":"TN11797","name":"Sarche Ponte del Gobbo","variables":["LIVIDRO"],"latest":{"LIVIDRO":0.19},"latest_time":"2026-09-05T20:00","series":"series/TN11797.csv"}},{"type":"Feature","geometry":{"type":"Point","coordinates":[11.666686,46.393742]},"properties":{"scode":"TN11728","name":"Soraga","variables":["LIVIDRO"],"latest":{"LIVIDRO":0.13},"latest_time":"2026-09-05T20:00","series":"series/TN11728.csv"}},{"type":"Feature","geometry":{"type":"Point","coordinates":[10.738926,46.102251]},"properties":{"scode":"TN11789","name":"Spiazzo","variables":["LIVIDRO"],"latest":{"LIVIDRO":0.19},"latest_time":"2026-09-05T20:00","series":"series/TN11789.csv"}},{"type":"Feature","geometry":{"type":"Point","coordinates":[11.171905,45.86772]},"properties":{"scode":"TN12312","name":"Stedileri","variables":["LIVIDRO"],"latest":{"LIVIDRO":-0.03},"latest_time":"2026-09-05T20:00","series":"series/TN12312.csv"}},{"type":"Feature","geometry":{"type":"Point","coordinates":[10.735031,46.033819]},"properties":{"scode":"TN30869","name":"Tione","variables":["LIVIDRO"],"latest":{"LIVIDRO":0.58},"latest_time":"2026-09-05T20:00","series":"series/TN30869.csv"}},{"type":"Feature","geometry":{"type":"Point","coordinates":[11.009947,46.399803]},"properties":{"scode":"TN32110","name":"Toflin","variables":["LIVIDRO"],"latest":{"LIVIDRO":2.07},"latest_time":"2026-09-05T20:00","series":"series/TN32110.csv"}},{"type":"Feature","geometry":{"type":"Point","coordinates":[11.843489,46.182651]},"properties":{"scode":"TN28236","name":"Tonadico","variables":["LIVIDRO"],"latest":{"LIVIDRO":0.15},"latest_time":"2026-09-05T20:00","series":"series/TN28236.csv"}},{"type":"Feature","geometry":{"type":"Point","coordinates":[10.882769,45.884009]},"properties":{"scode":"TN11702","name":"Torbole","variables":["LIVIDRO"],"latest":{"LIVIDRO":0.31},"latest_time":"2026-09-05T20:00","series":"series/TN11702.csv"}},{"type":"Feature","geometry":{"type":"Point","coordinates":[11.117988,46.043983]},"properties":{"scode":"TN11780","name":"Trento Fersina","variables":["LIVIDRO"],"latest":{"LIVIDRO":-0.11},"latest_time":"2026-09-05T20:00","series":"series/TN11780.csv"}},{"type":"Feature","geometry":{"type":"Point","coordinates":[11.11501,46.070134]},"properties":{"scode":"TN11697","name":"Trento Ponte S. Lorenzo","variables":["LIVIDRO"],"latest":{"LIVIDRO":0.41},"latest_time":"2026-09-05T20:00","series":"series/TN11697.csv"}},{"type":"Feature","geometry":{"type":"Point","coordinates":[10.66107,46.166759]},"properties":{"scode":"TN11784","name":"Val Genova Ponte S. Maria","variables":["LIVIDRO"],"latest":{"LIVIDRO":0.62},"latest_time":"2026-09-05T20:00","series":"series/TN11784.csv"}},{"type":"Feature","geometry":{"type":"Point","coordinates":[10.684147,46.290394]},"properties":{"scode":"TN11808","name":"Vermiglio","variables":["LIVIDRO"],"latest":{"LIVIDRO":0.14},"latest_time":"2026-09-05T20:00","series":"series/TN11808.csv"}},{"type":"Feature","geometry":{"type":"Point","coordinates":[11.523932,46.056805]},"properties":{"scode":"TN28219","name":"Villa Agnedo","variables":["LIVIDRO"],"latest":{"LIVIDRO":0.06},"latest_time":"2026-09-05T20:00","series":"series/TN28219.csv"}},{"type":"Feature","geometry":{"type":"Point","coordinates":[11.038306,45.912623]},"properties":{"scode":"TN11700","name":"Villa Lagarina","variables":["LIVIDRO"],"latest":{"LIVIDRO":0.51},"latest_time":"2026-09-05T20:00","series":"series/TN11700.csv"}},{"type":"Feature","geometry":{"type":"Point","coordinates":[10.957453,45.735233]},"properties":{"scode":"TN12326","name":"Vò Destro","variables":["LIVIDRO"],"latest":{"LIVIDRO":1.0},"latest_time":"2026-09-05T20:00","series":"series/TN12326.csv"}},{"type":"Feature","geometry":{"type":"Point","coordinates":[11.507308,46.052548]},"properties":{"scode":"TN28205","name":"Ponte delle Carrette","variables":["LIVIDRO"],"latest":{"LIVIDRO":0.13},"latest_time":"2026-09-05T08:30","series":"series/TN28205.csv"}},{"type":"Feature","geometry":{"type":"Point","coordinates":[11.636802,46.015172]},"properties":{"scode":"TN30423","name":"Grigno Paese","variables":["LIVIDRO"],"latest":{"LIVIDRO":0.34},"latest_time":"2026-09-05T20:00","series":"series/TN30423.csv"}},{"type":"Feature","geometry":{"type":"Point","coordinates":[11.873918,46.219815]},"properties":{"scode":"TN30977","name":"Pradidali","variables":["LIVIDRO"],"latest":{"LIVIDRO":0.88},"latest_time":"2026-09-05T16:30","series":"series/TN30977.csv"}},{"type":"Feature","geometry":{"type":"Point","coordinates":[10.870244,46.037477]},"properties":{"scode":"TN32207","name":"Ponte Arche","variables":["LIVIDRO"],"latest":{"LIVIDRO":0.21},"latest_time":"2026-09-05T08:30","series":"series/TN32207.csv"}},{"type":"Feature","geometry":{"type":"Point","coordinates":[11.006637,45.758606]},"properties":{"scode":"TN38559","name":"Ala","variables":["PORTATA"],"latest":{"PORTATA":3.96},"latest_time":"2026-09-05T20:00","series":"series/TN38559.csv"}},{"type":"Feature","geometry":{"type":"Point","coordinates":[11.25,45.981667]},"properties":{"scode":"TN42430","name":"Aonè","variables":["PORTATA"],"latest":{"PORTATA":0.0},"latest_time":"2026-09-05T20:00","series":"series/TN42430.csv"}},{"type":"Feature","geometry":{"type":"Point","coordinates":[10.937376,45.731604]},"properties":{"scode":"TN38557","name":"Avio","variables":["PORTATA"],"latest":{"PORTATA":0.16},"latest_time":"2026-09-05T20:00","series":"series/TN38557.csv"}},{"type":"Feature","geometry":{"type":"Point","coordinates":[11.460107,46.054072]},"properties":{"scode":"TN18704","name":"Borgo Valsugana","variables":["PORTATA"],"latest":{"PORTATA":1.42},"latest_time":"2026-09-05T20:00","series":"series/TN18704.csv"}},{"type":"Feature","geometry":{"type":"Point","coordinates":[11.744702,46.474532]},"properties":{"scode":"TN38565","name":"Campitello Avisio","variables":["PORTATA"],"latest":{"PORTATA":0.61},"latest_time":"2026-09-05T20:00","series":"series/TN38565.csv"}},{"type":"Feature","geometry":{"type":"Point","coordinates":[11.741111,46.476389]},"properties":{"scode":"TN50686","name":"Campitello Duron","variables":["PORTATA"],"latest":{"PORTATA":0.23},"latest_time":"2026-09-05T10:45","series":"series/TN50686.csv"}},{"type":"Feature","geometry":{"type":"Point","coordinates":[11.2764,46.076273]},"properties":{"scode":"TN18715","name":"Canezza","variables":["PORTATA"],"latest":{"PORTATA":0.01},"latest_time":"2026-09-05T20:00","series":"series/TN18715.csv"}},{"type":"Feature","geometry":{"type":"Point","coordinates":[11.670335,46.197498]},"properties":{"scode":"TN18707","name":"Caoria Ponte Belfe","variables":["PORTATA"],"latest":{"PORTATA":0.07},"latest_time":"2026-09-05T20:00","series":"series/TN18707.csv"}},{"type":"Feature","geometry":{"type":"Point","coordinates":[11.678889,46.197222]},"properties":{"scode":"TN42431","name":"Caoria Valsorda","variables":["PORTATA"],"latest":{"PORTATA":0.09},"latest_time":"2026-09-05T20:00","series":"series/TN42431.csv"}},{"type":"Feature","geometry":{"type":"Point","coordinates":[11.479977,46.284856]},"properties":{"scode":"TN18713","name":"Cavalese Masi","variables":["PORTATA"],"latest":{"PORTATA":2.88},"latest_time":"2026-09-05T20:00","series":"series/TN18713.csv"}},{"type":"Feature","geometry":{"type":"Point","coordinates":[10.621964,45.915279]},"properties":{"scode":"TN18729","name":"Cimego","variables":["PORTATA"],"latest":{"PORTATA":1.97},"latest_time":"2026-09-05T20:00","series":"series/TN18729.csv"}},{"type":"Feature","geometry":{"type":"Point","coordinates":[10.594444,45.8775]},"properties":{"scode":"TN42432","name":"Condino Chiese","variables":["PORTATA"],"latest":{"PORTATA":2.09},"latest_time":"2026-09-05T20:00","series":"series/TN42432.csv"}},{"type":"Feature","geometry":{"type":"Point","coordinates":[10.908056,45.963611]},"properties":{"scode":"TN42433","name":"Dro","variables":["PORTATA"],"latest":{"PORTATA":5.68},"latest_time":"2026-09-05T20:00","series":"series/TN42433.csv"}},{"type":"Feature","geometry":{"type":"Point","coordinates":[11.829937,46.174083]},"properties":{"scode":"TN18706","name":"Fiera di Primiero","variables":["PORTATA"],"latest":{"PORTATA":1.99},"latest_time":"2026-09-05T20:00","series":"series/TN18706.csv"}},{"type":"Feature","geometry":{"type":"Point","coordinates":[11.644513,46.004275]},"properties":{"scode":"TN18705","name":"Grigno Ponte Filippini","variables":["PORTATA"],"latest":{"PORTATA":5.93},"latest_time":"2026-09-05T20:00","series":"series/TN18705.csv"}},{"type":"Feature","geometry":{"type":"Point","coordinates":[11.118599,46.13811]},"properties":{"scode":"TN18714","name":"Lavis","variables":["PORTATA"],"latest":{"PORTATA":5.03},"latest_time":"2026-09-05T20:00","series":"series/TN18714.csv"}},{"type":"Feature","geometry":{"type":"Point","coordinates":[11.295833,46.004167]},"properties":{"scode":"TN38568","name":"Levico Brentella","variables":["PORTATA"],"latest":{"PORTATA":0.53},"latest_time":"2026-09-05T20:00","series":"series/TN38568.csv"}},{"type":"Feature","geometry":{"type":"Point","coordinates":[11.317894,46.003337]},"properties":{"scode":"TN18703","name":"Levico Ponte Cervia","variables":["PORTATA"],"latest":{"PORTATA":0.19},"latest_time":"2026-09-05T20:00","series":"series/TN18703.csv"}},{"type":"Feature","geometry":{"type":"Point","coordinates":[10.913822,46.347113]},"properties":{"scode":"TN18711","name":"Malé","variables":["PORTATA"],"latest":{"PORTATA":6.27},"latest_time":"2026-09-05T20:00","series":"series/TN18711.csv"}},{"type":"Feature","geometry":{"type":"Point","coordinates":[11.000874,45.83906]},"properties":{"scode":"TN18721","name":"Marco","variables":["PORTATA"],"latest":{"PORTATA":11.26},"latest_time":"2026-09-05T20:00","series":"series/TN18721.csv"}},{"type":"Feature","geometry":{"type":"Point","coordinates":[11.103355,46.193669]},"properties":{"scode":"TN18712","name":"Mezzolombardo Ponte Rupe","variables":["PORTATA"],"latest":{"PORTATA":9.21},"latest_time":"2026-09-05T20:00","series":"series/TN18712.csv"}},{"type":"Feature","geometry":{"type":"Point","coordinates":[11.543333,46.031111]},"properties":{"scode":"TN42434","name":"Ospedaletto","variables":["PORTATA"],"latest":{"PORTATA":0.19},"latest_time":"2026-09-05T20:00","series":"series/TN42434.csv"}},{"type":"Feature","geometry":{"type":"Point","coordinates":[10.688611,46.353611]},"properties":{"scode":"TN42997","name":"Peio Cogolo","variables":["PORTATA"],"latest":{"PORTATA":9.39},"latest_time":"2026-09-05T20:00","series":"series/TN42997.csv"}},{"type":"Feature","geometry":{"type":"Point","coordinates":[10.761779,46.31113]},"properties":{"scode":"TN18710","name":"Pellizzano","variables":["PORTATA"],"latest":{"PORTATA":18.32},"latest_time":"2026-09-05T20:00","series":"series/TN18710.csv"}},{"type":"Feature","geometry":{"type":"Point","coordinates":[10.645,45.945556]},"properties":{"scode":"TN42435","name":"Pieve di Bono","variables":["PORTATA"],"latest":{"PORTATA":0.78},"latest_time":"2026-09-05T20:00","series":"series/TN42435.csv"}},{"type":"Feature","geometry":{"type":"Point","coordinates":[10.756111,46.155556]},"properties":{"scode":"TN42436","name":"Pinzolo Sarca","variables":["PORTATA"],"latest":{"PORTATA":1.26},"latest_time":"2026-09-05T20:00","series":"series/TN42436.csv"}},{"type":"Feature","geometry":{"type":"Point","coordinates":[10.545348,45.817228]},"properties":{"scode":"TN38569","name":"Ponte dei Tedeschi","variables":["PORTATA"],"latest":{"PORTATA":0.82},"latest_time":"2026-09-05T20:00","series":"series/TN38569.csv"}},{"type":"Feature","geometry":{"type":"Point","coordinates":[11.410556,46.039167]},"properties":{"scode":"TN42439","name":"Ponte Zaccon","variables":["PORTATA"],"latest":{"PORTATA":0.33},"latest_time":"2026-09-05T20:00","series":"series/TN42439.csv"}},{"type":"Feature","geometry":{"type":"Point","coordinates":[11.250833,46.19]},"properties":{"scode":"TN42441","name":"Prà Ponte di Cantilaga","variables":["PORTATA"],"latest":{"PORTATA":7.01},"latest_time":"2026-09-05T20:00","series":"series/TN42441.csv"}},{"type":"Feature","geometry":{"type":"Point","coordinates":[11.595833,46.310556]},"properties":{"scode":"TN42440","name":"Predazzo Avisio","variables":["PORTATA"],"latest":{"PORTATA":0.2},"latest_time":"2026-09-05T20:00","series":"series/TN42440.csv"}},{"type":"Feature","geometry":{"type":"Point","coordinates":[11.601667,46.308611]},"properties":{"scode":"TN48500","name":"Predazzo Travignolo","variables":["PORTATA"],"latest":{"PORTATA":2.8},"latest_time":"2026-09-05T20:00","series":"series/TN48500.csv"}},{"type":"Feature","geometry":{"type":"Point","coordinates":[10.750111,46.042482]},"properties":{"scode":"TN18725","name":"Preore","variables":["PORTATA"],"latest":{"PORTATA":3.19},"latest_time":"2026-09-05T20:00","series":"series/TN18725.csv"}},{"type":"Feature","geometry":{"type":"Point","coordinates":[10.785556,46.050556]},"properties":{"scode":"TN42442","name":"Ragoli","variables":["PORTATA"],"latest":{"PORTATA":4.69},"latest_time":"2026-09-05T20:00","series":"series/TN42442.csv"}},{"type":"Feature","geometry":{"type":"Point","coordinates":[10.847778,45.884167]},"properties":{"scode":"TN42443","name":"Riva del Garda Parco Cattoi","variables":["PORTATA"],"latest":{"PORTATA":0.01},"latest_time":"2026-09-05T20:00","series":"series/TN42443.csv"}},{"type":"Feature","geometry":{"type":"Point","coordinates":[10.847778,45.884167]},"properties":{"scode":"TN42444","name":"Riva del Garda Parco Cattoi","variables":["PORTATA"],"latest":{"PORTATA":0.27},"latest_time":"2026-09-05T20:00","series":"series/TN42444.csv"}},{"type":"Feature","geometry":{"type":"Point","coordinates":[11.404722,46.048333]},"properties":{"scode":"TN42445","name":"Roncegno","variables":["PORTATA"],"latest":{"PORTATA":0.04},"latest_time":"2026-09-05T20:00","series":"series/TN42445.csv"}},{"type":"Feature","geometry":{"type":"Point","coordinates":[11.022282,45.88093]},"properties":{"scode":"TN18720","name":"Rovereto Ponte Zigherane","variables":["PORTATA"],"latest":{"PORTATA":0.6},"latest_time":"2026-09-05T20:00","series":"series/TN18720.csv"}},{"type":"Feature","geometry":{"type":"Point","coordinates":[11.100882,45.794946]},"properties":{"scode":"TN18719","name":"S. Anna","variables":["PORTATA"],"latest":{"PORTATA":0.24},"latest_time":"2026-09-05T20:00","series":"series/TN18719.csv"}},{"type":"Feature","geometry":{"type":"Point","coordinates":[10.844507,46.400247]},"properties":{"scode":"TN38570","name":"S. Bernardo Rabbi","variables":["PORTATA"],"latest":{"PORTATA":1.39},"latest_time":"2026-09-05T20:00","series":"series/TN38570.csv"}},{"type":"Feature","geometry":{"type":"Point","coordinates":[10.844444,46.400278]},"properties":{"scode":"TN42446","name":"S. Bernardo Rabbi","variables":["PORTATA"],"latest":{"PORTATA":0.3},"latest_time":"2026-09-05T20:00","series":"series/TN42446.csv"}},{"type":"Feature","geometry":{"type":"Point","coordinates":[11.13234,46.195162]},"properties":{"scode":"TN18708","name":"S. Michele all'Adige","variables":["PORTATA"],"latest":{"PORTATA":105.3},"latest_time":"2026-09-05T20:00","series":"series/TN18708.csv"}},{"type":"Feature","geometry":{"type":"Point","coordinates":[10.946496,46.03301]},"properties":{"scode":"TN18726","name":"Sarche Ponte del Gobbo","variables":["PORTATA"],"latest":{"PORTATA":2.01},"latest_time":"2026-09-05T20:00","series":"series/TN18726.csv"}},{"type":"Feature","geometry":{"type":"Point","coordinates":[11.666753,46.393701]},"properties":{"scode":"TN18702","name":"Soraga","variables":["PORTATA"],"latest":{"PORTATA":2.9},"latest_time":"2026-09-05T20:00","series":"series/TN18702.csv"}},{"type":"Feature","geometry":{"type":"Point","coordinates":[10.738969,46.102176]},"properties":{"scode":"TN18724","name":"Spiazzo","variables":["PORTATA"],"latest":{"PORTATA":0.82},"latest_time":"2026-09-05T20:00","series":"series/TN18724.csv"}},{"type":"Feature","geometry":{"type":"Point","coordinates":[10.735,46.033611]},"properties":{"scode":"TN42447","name":"Tione","variables":["PORTATA"],"latest":{"PORTATA":1.16},"latest_time":"2026-09-05T20:00","series":"series/TN42447.csv"}},{"type":"Feature","geometry":{"type":"Point","coordinates":[11.843611,46.182778]},"properties":{"scode":"TN42449","name":"Tonadico","variables":["PORTATA"],"latest":{"PORTATA":3.52},"latest_time":"2026-09-05T20:00","series":"series/TN42449.csv"}},{"type":"Feature","geometry":{"type":"Point","coordinates":[10.882831,45.883986]},"properties":{"scode":"TN18727","name":"Torbole","variables":["PORTATA"],"latest":{"PORTATA":4.89},"latest_time":"2026-09-05T20:00","series":"series/TN18727.csv"}},{"type":"Feature","geometry":{"type":"Point","coordinates":[11.117988,46.043983]},"properties":{"scode":"TN18716","name":"Trento Fersina","variables":["PORTATA"],"latest":{"PORTATA":0.29},"latest_time":"2026-09-05T20:00","series":"series/TN18716.csv"}},{"type":"Feature","geometry":{"type":"Point","coordinates":[11.11501,46.070134]},"properties":{"scode":"TN18701","name":"Trento Ponte S. Lorenzo","variables":["PORTATA"],"latest":{"PORTATA":118.74},"latest_time":"2026-09-05T20:00","series":"series/TN18701.csv"}},{"type":"Feature","geometry":{"type":"Point","coordinates":[10.661162,46.166699]},"properties":{"scode":"TN18723","name":"Val Genova Ponte S. Maria","variables":["PORTATA"],"latest":{"PORTATA":4.7},"latest_time":"2026-09-05T20:00","series":"series/TN18723.csv"}},{"type":"Feature","geometry":{"type":"Point","coordinates":[10.684134,46.290329]},"properties":{"scode":"TN18709","name":"Vermiglio","variables":["PORTATA"],"latest":{"PORTATA":2.11},"latest_time":"2026-09-05T20:00","series":"series/TN18709.csv"}},{"type":"Feature","geometry":{"type":"Point","coordinates":[11.523889,46.056667]},"properties":{"scode":"TN42688","name":"Villa Agnedo","variables":["PORTATA"],"latest":{"PORTATA":0.06},"latest_time":"2026-09-05T20:00","series":"series/TN42688.csv"}},{"type":"Feature","geometry":{"type":"Point","coordinates":[11.038306,45.912623]},"properties":{"scode":"TN18717","name":"Villa Lagarina","variables":["PORTATA"],"latest":{"PORTATA":99.91},"latest_time":"2026-09-05T20:00","series":"series/TN18717.csv"}},{"type":"Feature","geometry":{"type":"Point","coordinates":[10.957414,45.735043]},"properties":{"scode":"TN18722","name":"Vò Destro","variables":["PORTATA"],"latest":{"PORTATA":22.41},"latest_time":"2026-09-05T20:00","series":"series/TN18722.csv"}},{"type":"Feature","geometry":{"type":"Point","coordinates":[11.171923,45.867653]},"properties":{"scode":"TN18718","name":"Stedileri","variables":["PORTATA"],"latest":{"PORTATA":0.0},"latest_time":"2026-09-05T17:30","series":"series/TN18718.csv"}},{"type":"Feature","geometry":{"type":"Point","coordinates":[11.636856,46.015194]},"properties":{"scode":"TN38566","name":"Grigno Paese","variables":["PORTATA"],"latest":{"PORTATA":2.12},"latest_time":"2026-09-05T20:00","series":"series/TN38566.csv"}},{"type":"Feature","geometry":{"type":"Point","coordinates":[10.87,46.037222]},"properties":{"scode":"TN42437","name":"Ponte Arche","variables":["PORTATA"],"latest":{"PORTATA":2.12},"latest_time":"2026-09-05T08:30","series":"series/TN42437.csv"}}]}