{"type":"FeatureCollection","name":"BZ","features":[{"type":"Feature","geometry":{"type":"Point","coordinates":[11.2987,46.8456]},"properties":{"scode":"35205SF","name":"Racines Malga Wasserfaller","variables":["CDD","DVENTO","ET0","GDD","HDD","LIVNEVE","TAPP","TDEW","TEMP","UMID","UWND","VPD","VVENTO","VVENTOMAX","VWND"],"latest":{"CDD":0.0,"DVENTO":262.0,"ET0":0.78,"GDD":0.0,"HDD":12.2,"LIVNEVE":2.4,"TAPP":2.0,"TDEW":3.1,"TEMP":4.0,"UMID":94.1,"UWND":0.79,"VPD":0.048,"VVENTO":0.8,"VVENTOMAX":2.1,"VWND":0.11},"latest_time":"2026-10-10T23:00","series":"series/35205SF.csv"}},{"type":"Feature","geometry":{"type":"Point","coordinates":[10.6247,46.8468]},"properties":{"scode":"01080SF","name":"Melago Monte Pratzen","variables":["CDD","DVENTO","ET0","GDD","HDD","LIVNEVE","TAPP","TDEW","TEMP","UMID","UWND","VPD","VVENTO","VVENTOMAX","VWND"],"latest":{"CDD":0.0,"DVENTO":198.0,"ET0":0.69,"GDD":0.0,"HDD":14.9,"LIVNEVE":3.6,"TAPP":-0.9,"TDEW":0.0,"TEMP":1.2,"UMID":91.9,"UWND":0.03,"VPD":0.054,"VVENTO":0.1,"VVENTOMAX":0.5,"VWND":0.1},"latest_time":"2026-10-10T23:00","series":"series/01080SF.csv"}},{"type":"Feature","geometry":{"type":"Point","coordinates":[11.1487,46.9136]},"properties":{"scode":"20050SF","name":"Alpe del Tumulo","variables":["CDD","DVENTO","ET0","GDD","HDD","LIVNEVE","TAPP","TDEW","TEMP","UMID","UWND","VPD","VVENTO","VVENTOMAX","VWND"],"latest":{"CDD":0.0,"DVENTO":40.0,"ET0":0.68,"GDD":0.0,"HDD":13.3,"LIVNEVE":2.5,"TAPP":0.6,"TDEW":-0.5,"TEMP":3.6,"UMID":74.5,"UWND":-0.84,"VPD":0.202,"VVENTO":1.3,"VVENTOMAX":2.4,"VWND":-1.0},"latest_time":"2026-10-10T23:00","series":"series/20050SF.csv"}},{"type":"Feature","geometry":{"type":"Point","coordinates":[11.3319,46.5304]},"properties":{"scode":"82910MS","name":"San Genesio","variables":["CDD","DVENTO","ET0","GDD","HDD","PREC","PREC24","PREC48","PRESS","PSLM","QSPEC","RADSOL","SOLEGG","TAPP","TDEW","TEMP","UMID","UWND","VPD","VVENTO","VVENTOMAX","VWND"],"latest":{"CDD":0.0,"DVENTO":16.8,"ET0":0.98,"GDD":1.8,"HDD":6.4,"PREC":0.0,"PREC24":0.2,"PREC48":0.2,"PRESS":1012.6,"PSLM":1137.4,"QSPEC":6.23,"RADSOL":0.0,"SOLEGG":0.0,"TAPP":8.0,"TDEW":7.2,"TEMP":8.9,"UMID":88.8,"UWND":-0.09,"VPD":0.128,"VVENTO":0.3,"VVENTOMAX":1.4,"VWND":-0.29},"latest_time":"2026-10-10T23:00","series":"series/82910MS.csv"}},{"type":"Feature","geometry":{"type":"Point","coordinates":[10.5397,46.5556]},"properties":{"scode":"07740WS","name":"Trafoi Zaufenkofel","variables":["CDD","DVENTO","ET0","GDD","HDD","TAPP","TDEW","TEMP","UMID","UWND","VPD","VVENTO","VVENTOMAX","VWND"],"latest":{"CDD":0.0,"DVENTO":310.0,"ET0":0.63,"GDD":0.0,"HDD":13.9,"TAPP":-0.8,"TDEW":-2.6,"TEMP":3.3,"UMID":65.2,"UWND":1.92,"VPD":0.269,"VVENTO":2.5,"VVENTOMAX":5.3,"VWND":-1.61},"latest_time":"2026-10-10T23:00","series":"series/07740WS.csv"}},{"type":"Feature","geometry":{"type":"Point","coordinates":[11.2008,46.5767]},"properties":{"scode":"27100MS","name":"Gargazzone","variables":["CDD","DVENTO","ET0","GDD","HDD","PREC","PREC24","PREC48","PRESS","PSLM","QSPEC","RADSOL","SOLEGG","TAPP","TDEW","TEMP","UMID","UWND","VPD","VVENTO","VVENTOMAX","VWND"],"latest":{"CDD":0.0,"DVENTO":306.1,"ET0":1.21,"GDD":5.1,"HDD":3.5,"PREC":0.0,"PREC24":0.3,"PREC48":0.4,"PRESS":1012.1,"PSLM":1043.4,"QSPEC":7.93,"RADSOL":0.0,"SOLEGG":0.0,"TAPP":9.7,"TDEW":10.7,"TEMP":10.7,"UMID":100.0,"UWND":1.45,"VPD":0.0,"VVENTO":1.8,"VVENTOMAX":2.2,"VWND":-1.06},"latest_time":"2026-10-10T23:00","series":"series/27100MS.csv"}},{"type":"Feature","geometry":{"type":"Point","coordinates":[11.7534,46.8111]},"properties":{"scode":"65350MS","name":"Vandoies","variables":["CDD","DVENTO","ET0","GDD","HDD","PREC","PREC24","PREC48","PRESS","PSLM","QSPEC","RADSOL","SOLEGG","TAPP","TDEW","TEMP","UMID","UWND","VPD","VVENTO","VVENTOMAX","VWND"],"latest":{"CDD":0.0,"DVENTO":149.4,"ET0":0.8,"GDD":1.3,"HDD":6.7,"PREC":0.0,"PREC24":0.2,"PREC48":0.2,"PRESS":1014.2,"PSLM":1109.7,"QSPEC":6.46,"RADSOL":0.0,"SOLEGG":0.0,"TAPP":7.0,"TDEW":7.7,"TEMP":7.7,"UMID":99.9,"UWND":-0.1,"VPD":0.001,"VVENTO":0.2,"VVENTOMAX":0.9,"VWND":0.17},"latest_time":"2026-10-10T23:00","series":"series/65350MS.csv"}},{"type":"Feature","geometry":{"type":"Point","coordinates":[11.3968,46.3465]},"properties":{"scode":"87300MS","name":"Redagno","variables":["CDD","DVENTO","ET0","GDD","HDD","PREC","PREC24","PREC48","PRESS","PSLM","QSPEC","RADSOL","SOLEGG","TAPP","TDEW","TEMP","UMID","UWND","VPD","VVENTO","VVENTOMAX","VWND"],"latest":{"CDD":0.0,"DVENTO":56.7,"ET0":1.12,"GDD":0.1,"HDD":8.7,"PREC":0.0,"PREC24":0.0,"PREC48":0.1,"PRESS":1013.2,"PSLM":1220.3,"QSPEC":5.13,"RADSOL":0.0,"SOLEGG":0.0,"TAPP":4.9,"TDEW":4.4,"TEMP":6.8,"UMID":84.4,"UWND":-0.75,"VPD":0.154,"VVENTO":0.9,"VVENTOMAX":2.0,"VWND":-0.49},"latest_time":"2026-10-10T23:00","series":"series/87300MS.csv"}},{"type":"Feature","geometry":{"type":"Point","coordinates":[12.3577,46.6915]},"properties":{"scode":"91510MS","name":"Sesto","variables":["CDD","DVENTO","ET0","GDD","HDD","PREC","PREC24","PREC48","PRESS","PSLM","QSPEC","RADSOL","TAPP","TDEW","TEMP","UMID","UWND","VPD","VVENTO","VVENTOMAX","VWND"],"latest":{"CDD":0.0,"DVENTO":203.0,"ET0":1.09,"GDD":0.0,"HDD":8.4,"PREC":0.0,"PREC24":-0.0,"PREC48":-0.0,"PRESS":1011.7,"PSLM":1186.3,"QSPEC":5.88,"RADSOL":0.0,"TAPP":5.0,"TDEW":6.3,"TEMP":6.3,"UMID":99.9,"UWND":0.23,"VPD":0.001,"VVENTO":0.6,"VVENTOMAX":1.2,"VWND":0.55},"latest_time":"2026-10-10T23:00","series":"series/91510MS.csv"}},{"type":"Feature","geometry":{"type":"Point","coordinates":[11.7029,46.8872]},"properties":{"scode":"66500MS","name":"Fundres","variables":["CDD","DVENTO","ET0","GDD","HDD","PREC","PREC24","PREC48","PRESS","PSLM","QSPEC","RADSOL","SOLEGG","TAPP","TDEW","TEMP","UMID","UWND","VPD","VVENTO","VVENTOMAX","VWND"],"latest":{"CDD":0.0,"DVENTO":252.5,"ET0":0.69,"GDD":0.0,"HDD":8.4,"PREC":0.0,"PREC24":0.9,"PREC48":0.9,"PRESS":1011.7,"PSLM":1164.2,"QSPEC":6.11,"RADSOL":0.0,"SOLEGG":0.0,"TAPP":6.1,"TDEW":6.8,"TEMP":7.4,"UMID":96.3,"UWND":0.76,"VPD":0.038,"VVENTO":0.8,"VVENTOMAX":2.2,"VWND":0.24},"latest_time":"2026-10-10T23:00","series":"series/66500MS.csv"}},{"type":"Feature","geometry":{"type":"Point","coordinates":[11.1762,46.8215]},"properties":{"scode":"20910MS","name":"Plata in Passiria","variables":["CDD","DVENTO","ET0","GDD","HDD","PREC","PREC24","PREC48","PRESS","PSLM","QSPEC","RADSOL","SOLEGG","TAPP","TDEW","TEMP","UMID","UWND","VPD","VVENTO","VVENTOMAX","VWND"],"latest":{"CDD":0.0,"DVENTO":202.4,"ET0":0.76,"GDD":0.2,"HDD":8.1,"PREC":0.0,"PREC24":0.5,"PREC48":0.5,"PRESS":1013.0,"PSLM":1162.1,"QSPEC":5.87,"RADSOL":0.0,"SOLEGG":0.0,"TAPP":6.1,"TDEW":6.3,"TEMP":8.0,"UMID":88.9,"UWND":0.57,"VPD":0.119,"VVENTO":1.5,"VVENTOMAX":2.3,"VWND":1.39},"latest_time":"2026-10-10T23:00","series":"series/20910MS.csv"}},{"type":"Feature","geometry":{"type":"Point","coordinates":[11.6017,46.4092]},"properties":{"scode":"78110MS","name":"Passo di Costalunga","variables":["CDD","DVENTO","ET0","GDD","HDD","LIVNEVE","PREC","PREC24","PREC48","PRESS","PSLM","QSPEC","RADSOL","SOLEGG","TAPP","TDEW","TEMP","UMID","UWND","VPD","VVENTO","VVENTOMAX","VWND"],"latest":{"CDD":0.0,"DVENTO":68.5,"ET0":1.0,"GDD":0.0,"HDD":10.3,"LIVNEVE":3.0,"PREC":0.0,"PREC24":0.0,"PREC48":1.2,"PRESS":1013.0,"PSLM":1245.4,"QSPEC":4.7,"RADSOL":0.0,"SOLEGG":0.0,"TAPP":2.5,"TDEW":3.1,"TEMP":5.0,"UMID":87.6,"UWND":-1.3,"VPD":0.108,"VVENTO":1.4,"VVENTOMAX":2.5,"VWND":-0.51},"latest_time":"2026-10-10T23:00","series":"series/78110MS.csv"}},{"type":"Feature","geometry":{"type":"Point","coordinates":[11.8122,46.6377]},"properties":{"scode":"62270SF","name":"Longiarù Passo Poma","variables":["CDD","DVENTO","ET0","GDD","HDD","LIVNEVE","TAPP","TDEW","TEMP","UMID","UWND","VPD","VVENTO","VVENTOMAX","VWND"],"latest":{"CDD":0.0,"DVENTO":324.0,"ET0":0.81,"GDD":0.0,"HDD":13.8,"LIVNEVE":12.6,"TAPP":-0.3,"TDEW":2.0,"TEMP":2.9,"UMID":93.6,"UWND":1.29,"VPD":0.048,"VVENTO":2.2,"VVENTOMAX":3.1,"VWND":-1.78},"latest_time":"2026-10-10T23:00","series":"series/62270SF.csv"}},{"type":"Feature","geometry":{"type":"Point","coordinates":[10.633,46.8365]},"properties":{"scode":"01110MS","name":"Vallelunga Grub","variables":["CDD","DVENTO","ET0","GDD","HDD","PREC","PREC24","PREC48","PRESS","PSLM","QSPEC","RADSOL","SOLEGG","TAPP","TDEW","TEMP","UMID","UWND","VPD","VVENTO","VVENTOMAX","VWND"],"latest":{"CDD":0.0,"DVENTO":31.9,"ET0":0.55,"GDD":0.0,"HDD":12.5,"PREC":0.0,"PREC24":1.9,"PREC48":1.9,"PRESS":1014.4,"PSLM":1266.8,"QSPEC":5.07,"RADSOL":0.0,"SOLEGG":0.0,"TAPP":2.2,"TDEW":4.2,"TEMP":4.2,"UMID":99.9,"UWND":-0.53,"VPD":0.001,"VVENTO":1.0,"VVENTOMAX":1.5,"VWND":-0.85},"latest_time":"2026-10-10T23:00","series":"series/01110MS.csv"}},{"type":"Feature","geometry":{"type":"Point","coordinates":[11.6894,46.6479]},"properties":{"scode":"71510MS","name":"Funes","variables":["CDD","DVENTO","ET0","GDD","HDD","PREC","PREC24","PREC48","PRESS","PSLM","QSPEC","RADSOL","SOLEGG","TAPP","TDEW","TEMP","UMID","UWND","VPD","VVENTO","VVENTOMAX","VWND"],"latest":{"CDD":0.0,"DVENTO":328.0,"ET0":0.95,"GDD":0.0,"HDD":8.2,"PREC":0.0,"PREC24":-0.0,"PREC48":-0.0,"PRESS":1012.5,"PSLM":1187.0,"QSPEC":5.51,"RADSOL":0.0,"SOLEGG":0.0,"TAPP":5.1,"TDEW":5.4,"TEMP":7.7,"UMID":85.2,"UWND":1.17,"VPD":0.156,"VVENTO":2.2,"VVENTOMAX":3.8,"VWND":-1.87},"latest_time":"2026-10-10T23:00","series":"series/71510MS.csv"}},{"type":"Feature","geometry":{"type":"Point","coordinates":[11.4638,46.529]},"properties":{"scode":"79300MS","name":"Renon Siffian","variables":["CDD","DVENTO","ET0","GDD","HDD","PREC","PREC24","PREC48","PRESS","PSLM","QSPEC","RADSOL","SOLEGG","TAPP","TDEW","TEMP","UMID","UWND","VPD","VVENTO","VVENTOMAX","VWND"],"latest":{"CDD":0.0,"DVENTO":316.0,"ET0":1.11,"GDD":2.4,"HDD":6.0,"PREC":0.0,"PREC24":0.0,"PREC48":0.3,"PRESS":1012.1,"PSLM":1138.8,"QSPEC":6.26,"RADSOL":0.0,"SOLEGG":0.0,"TAPP":8.5,"TDEW":7.2,"TEMP":9.6,"UMID":85.0,"UWND":0.42,"VPD":0.179,"VVENTO":0.6,"VVENTOMAX":1.5,"VWND":-0.43},"latest_time":"2026-10-10T23:00","series":"series/79300MS.csv"}},{"type":"Feature","geometry":{"type":"Point","coordinates":[11.8733,46.5504]},"properties":{"scode":"61300MS","name":"Corvara","variables":["CDD","DVENTO","ET0","GDD","HDD","PREC","PREC24","PREC48","PRESS","PSLM","QSPEC","RADSOL","SOLEGG","TAPP","TDEW","TEMP","UMID","UWND","VPD","VVENTO","VVENTOMAX","VWND"],"latest":{"CDD":0.0,"DVENTO":148.1,"ET0":0.93,"GDD":0.0,"HDD":9.5,"PREC":0.0,"PREC24":0.0,"PREC48":0.0,"PRESS":1013.9,"PSLM":1219.9,"QSPEC":5.18,"RADSOL":0.0,"SOLEGG":0.0,"TAPP":2.4,"TDEW":4.5,"TEMP":4.6,"UMID":99.3,"UWND":-0.74,"VPD":0.006,"VVENTO":1.4,"VVENTOMAX":2.5,"VWND":1.19},"latest_time":"2026-10-10T23:00","series":"series/61300MS.csv"}},{"type":"Feature","geometry":{"type":"Point","coordinates":[12.1069,46.9209]},"properties":{"scode":"54100SF","name":"Rein i.T. Tristenboden","variables":["CDD","DVENTO","ET0","GDD","HDD","LIVNEVE","TAPP","TDEW","TEMP","UMID","UWND","VPD","VVENTO","VVENTOMAX","VWND"],"latest":{"CDD":0.0,"DVENTO":199.0,"ET0":0.65,"GDD":0.0,"HDD":15.3,"LIVNEVE":1.9,"TAPP":-1.3,"TDEW":-1.1,"TEMP":1.3,"UMID":84.0,"UWND":0.2,"VPD":0.107,"VVENTO":0.6,"VVENTOMAX":1.1,"VWND":0.57},"latest_time":"2026-10-10T23:00","series":"series/54100SF.csv"}},{"type":"Feature","geometry":{"type":"Point","coordinates":[11.209,46.4939]},"properties":{"scode":"90200MS","name":"Macaion","variables":["CDD","DVENTO","ET0","GDD","HDD","LIVNEVE","PREC","PREC24","PREC48","PRESS","PSLM","QSPEC","RADSOL","SOLEGG","TAPP","TDEW","TEMP","UMID","UWND","VPD","VVENTO","VVENTOMAX","VWND"],"latest":{"CDD":0.0,"DVENTO":353.1,"ET0":0.78,"GDD":0.0,"HDD":11.0,"LIVNEVE":1.0,"PREC":0.0,"PREC24":0.0,"PREC48":0.0,"PRESS":1011.9,"PSLM":1264.2,"QSPEC":4.6,"RADSOL":0.0,"SOLEGG":0.0,"TAPP":4.0,"TDEW":2.8,"TEMP":6.4,"UMID":77.7,"UWND":0.14,"VPD":0.214,"VVENTO":1.2,"VVENTOMAX":2.7,"VWND":-1.19},"latest_time":"2026-10-10T23:00","series":"series/90200MS.csv"}},{"type":"Feature","geometry":{"type":"Point","coordinates":[11.4604,46.6156]},"properties":{"scode":"82500WS","name":"Corno del Renon","variables":["CDD","DVENTO","ET0","GDD","HDD","TAPP","TDEW","TEMP","UMID","UWND","VPD","VVENTO","VVENTOMAX","VWND"],"latest":{"CDD":0.0,"DVENTO":254.0,"ET0":0.53,"GDD":0.0,"HDD":13.7,"TAPP":2.4,"TDEW":1.4,"TEMP":4.3,"UMID":81.2,"UWND":0.19,"VPD":0.156,"VVENTO":0.2,"VVENTOMAX":1.0,"VWND":0.06},"latest_time":"2026-10-10T23:00","series":"series/82500WS.csv"}},{"type":"Feature","geometry":{"type":"Point","coordinates":[10.4878,46.7767]},"properties":{"scode":"00700WS","name":"Curon Cima Undici","variables":["CDD","DVENTO","ET0","GDD","HDD","TAPP","TDEW","TEMP","UMID","UWND","VPD","VVENTO","VVENTOMAX","VWND"],"latest":{"CDD":0.0,"DVENTO":276.0,"ET0":0.54,"GDD":0.0,"HDD":19.2,"TAPP":-7.9,"TDEW":-2.5,"TEMP":-2.5,"UMID":99.7,"UWND":4.38,"VPD":0.002,"VVENTO":4.4,"VVENTOMAX":5.3,"VWND":-0.46},"latest_time":"2026-10-10T23:00","series":"series/00700WS.csv"}},{"type":"Feature","geometry":{"type":"Point","coordinates":[10.4979,46.8064]},"properties":{"scode":"00390SF","name":"Curon Belpiano","variables":["CDD","DVENTO","ET0","GDD","HDD","LIVNEVE","TAPP","TDEW","TEMP","UMID","UWND","VPD","VVENTO","VVENTOMAX","VWND"],"latest":{"CDD":0.0,"DVENTO":261.0,"ET0":0.88,"GDD":0.0,"HDD":15.4,"LIVNEVE":1.6,"TAPP":-0.9,"TDEW":0.8,"TEMP":1.0,"UMID":98.3,"UWND":0.0,"VPD":0.011,"VVENTO":0.0,"VVENTOMAX":0.0,"VWND":0.0},"latest_time":"2026-10-10T23:00","series":"series/00390SF.csv"}},{"type":"Feature","geometry":{"type":"Point","coordinates":[10.6286,46.5029]},"properties":{"scode":"06040WS","name":"Solda Cima Beltovo","variables":["CDD","DVENTO","ET0","GDD","HDD","TAPP","TDEW","TEMP","UMID","UWND","VPD","VVENTO","VVENTOMAX","VWND"],"latest":{"CDD":0.0,"DVENTO":337.0,"ET0":0.54,"GDD":0.0,"HDD":21.5,"TAPP":-7.8,"TDEW":-5.2,"TEMP":-5.2,"UMID":99.7,"UWND":0.0,"VPD":0.001,"VVENTO":0.0,"VVENTOMAX":0.0,"VWND":-0.0},"latest_time":"2026-10-10T23:00","series":"series/06040WS.csv"}},{"type":"Feature","geometry":{"type":"Point","coordinates":[10.6144,46.4938]},"properties":{"scode":"06090SF","name":"Solda Madriccio","variables":["CDD","DVENTO","ET0","GDD","HDD","LIVNEVE","TAPP","TDEW","TEMP","UMID","UWND","VPD","VVENTO","VVENTOMAX","VWND"],"latest":{"CDD":0.0,"DVENTO":258.0,"ET0":0.58,"GDD":0.0,"HDD":17.1,"LIVNEVE":1.7,"TAPP":-3.5,"TDEW":-3.3,"TEMP":-0.5,"UMID":81.3,"UWND":0.78,"VPD":0.11,"VVENTO":0.8,"VVENTOMAX":2.0,"VWND":0.17},"latest_time":"2026-10-10T23:00","series":"series/06090SF.csv"}},{"type":"Feature","geometry":{"type":"Point","coordinates":[11.3184,46.8401]},"properties":{"scode":"35100WS","name":"Cresta del Giovo","variables":["CDD","DVENTO","ET0","GDD","HDD","TAPP","TDEW","TEMP","UMID","UWND","VPD","VVENTO","VVENTOMAX","VWND"],"latest":{"CDD":0.0,"DVENTO":44.0,"ET0":0.63,"GDD":0.0,"HDD":13.3,"TAPP":-1.4,"TDEW":2.8,"TEMP":3.9,"UMID":92.3,"UWND":-3.75,"VPD":0.062,"VVENTO":5.4,"VVENTOMAX":6.2,"VWND":-3.88},"latest_time":"2026-10-10T23:00","series":"series/35100WS.csv"}},{"type":"Feature","geometry":{"type":"Point","coordinates":[12.131,47.0159]},"properties":{"scode":"50400WS","name":"Predoi Pizzo Lungo","variables":["CDD","DVENTO","ET0","GDD","HDD","TAPP","TDEW","TEMP","UMID","UWND","VPD","VVENTO","VVENTOMAX","VWND"],"latest":{"CDD":0.0,"DVENTO":10.0,"ET0":0.57,"GDD":0.0,"HDD":19.7,"TAPP":-6.4,"TDEW":-3.9,"TEMP":-3.9,"UMID":100.4,"UWND":-0.0,"VPD":0.0,"VVENTO":0.0,"VVENTOMAX":0.0,"VWND":-0.0},"latest_time":"2026-10-10T23:00","series":"series/50400WS.csv"}},{"type":"Feature","geometry":{"type":"Point","coordinates":[12.1221,47.0362]},"properties":{"scode":"50360SF","name":"Predoi Malga Merbe","variables":["CDD","DVENTO","ET0","GDD","HDD","LIVNEVE","TAPP","TDEW","TEMP","UMID","UWND","VPD","VVENTO","VVENTOMAX","VWND"],"latest":{"CDD":0.0,"DVENTO":222.0,"ET0":0.93,"GDD":0.0,"HDD":12.9,"LIVNEVE":1.0,"TAPP":0.8,"TDEW":1.4,"TEMP":3.1,"UMID":88.6,"UWND":0.47,"VPD":0.087,"VVENTO":0.7,"VVENTOMAX":1.7,"VWND":0.52},"latest_time":"2026-10-10T23:00","series":"series/50360SF.csv"}},{"type":"Feature","geometry":{"type":"Point","coordinates":[11.9036,46.565]},"properties":{"scode":"61690SF","name":"Badia Piz La Ila","variables":["CDD","DVENTO","ET0","GDD","HDD","LIVNEVE","TAPP","TDEW","TEMP","UMID","UWND","VPD","VVENTO","VVENTOMAX","VWND"],"latest":{"CDD":0.0,"DVENTO":55.0,"ET0":0.94,"GDD":0.0,"HDD":12.2,"LIVNEVE":4.6,"TAPP":2.6,"TDEW":4.1,"TEMP":4.9,"UMID":94.3,"UWND":-1.15,"VPD":0.049,"VVENTO":1.4,"VVENTOMAX":2.5,"VWND":-0.8},"latest_time":"2026-10-10T23:00","series":"series/61690SF.csv"}},{"type":"Feature","geometry":{"type":"Point","coordinates":[11.825,46.5314]},"properties":{"scode":"61720WS","name":"Badia Cima Pisciadù","variables":["CDD","DVENTO","ET0","GDD","HDD","TAPP","TDEW","TEMP","UMID","UWND","VPD","VVENTO","VVENTOMAX","VWND"],"latest":{"CDD":0.0,"DVENTO":314.0,"ET0":0.67,"GDD":0.0,"HDD":17.5,"TAPP":-6.6,"TDEW":-3.7,"TEMP":-0.5,"UMID":79.0,"UWND":3.74,"VPD":0.124,"VVENTO":5.2,"VVENTOMAX":6.9,"VWND":-3.61},"latest_time":"2026-10-10T23:00","series":"series/61720WS.csv"}},{"type":"Feature","geometry":{"type":"Point","coordinates":[11.1146,46.8289]},"properties":{"scode":"20720WS","name":"Monte Scabro di Plan","variables":["CDD","DVENTO","ET0","GDD","HDD","TAPP","TDEW","TEMP","UMID","UWND","VPD","VVENTO","VVENTOMAX","VWND"],"latest":{"CDD":0.0,"DVENTO":315.0,"ET0":0.54,"GDD":0.0,"HDD":18.7,"TAPP":-6.8,"TDEW":-2.6,"TEMP":-2.4,"UMID":98.3,"UWND":2.05,"VPD":0.009,"VVENTO":2.9,"VVENTOMAX":4.5,"VWND":-2.05},"latest_time":"2026-10-10T23:00","series":"series/20720WS.csv"}},{"type":"Feature","geometry":{"type":"Point","coordinates":[11.1016,46.792]},"properties":{"scode":"20690SF","name":"Prati di Plan","variables":["CDD","DVENTO","ET0","GDD","HDD","LIVNEVE","TAPP","TDEW","TEMP","UMID","UWND","VPD","VVENTO","VVENTOMAX","VWND"],"latest":{"CDD":0.0,"DVENTO":108.0,"ET0":0.77,"GDD":0.0,"HDD":12.2,"LIVNEVE":-2.8,"TAPP":3.2,"TDEW":4.2,"TEMP":4.8,"UMID":95.6,"UWND":-0.48,"VPD":0.038,"VVENTO":0.5,"VVENTOMAX":0.9,"VWND":0.15},"latest_time":"2026-10-10T23:00","series":"series/20690SF.csv"}},{"type":"Feature","geometry":{"type":"Point","coordinates":[12.3704,46.6636]},"properties":{"scode":"91180SF","name":"Sesto Prati di Croda Rossa","variables":["CDD","DVENTO","ET0","GDD","HDD","LIVNEVE","TAPP","TDEW","TEMP","UMID","UWND","VPD","VVENTO","VVENTOMAX","VWND"],"latest":{"CDD":0.0,"DVENTO":130.6,"ET0":1.03,"GDD":0.0,"HDD":12.3,"LIVNEVE":0.4,"TAPP":2.9,"TDEW":4.4,"TEMP":4.5,"UMID":99.1,"UWND":-0.38,"VPD":0.008,"VVENTO":0.5,"VVENTOMAX":1.9,"VWND":0.33},"latest_time":"2026-10-10T23:00","series":"series/91180SF.csv"}},{"type":"Feature","geometry":{"type":"Point","coordinates":[10.8194,46.4693]},"properties":{"scode":"24300SF","name":"Ultimo Pian dei Cavalli","variables":["CDD","DVENTO","ET0","GDD","HDD","LIVNEVE","TAPP","TDEW","TEMP","UMID","UWND","VPD","VVENTO","VVENTOMAX","VWND"],"latest":{"CDD":0.0,"DVENTO":216.0,"ET0":0.89,"GDD":0.0,"HDD":14.7,"LIVNEVE":-1.2,"TAPP":-2.0,"TDEW":-2.4,"TEMP":1.7,"UMID":74.4,"UWND":1.18,"VPD":0.177,"VVENTO":2.0,"VVENTOMAX":2.7,"VWND":1.62},"latest_time":"2026-10-10T23:00","series":"series/24300SF.csv"}},{"type":"Feature","geometry":{"type":"Point","coordinates":[10.7966,46.7703]},"properties":{"scode":"15050WS","name":"Senales Croda d. Cornacchie","variables":["CDD","DVENTO","ET0","GDD","HDD","TAPP","TDEW","TEMP","UMID","UWND","VPD","VVENTO","VVENTOMAX","VWND"],"latest":{"CDD":0.0,"DVENTO":301.0,"ET0":0.58,"GDD":0.0,"HDD":19.9,"TAPP":-7.0,"TDEW":-3.5,"TEMP":-3.0,"UMID":96.3,"UWND":1.89,"VPD":0.018,"VVENTO":2.2,"VVENTOMAX":5.1,"VWND":-1.13},"latest_time":"2026-10-10T23:00","series":"series/15050WS.csv"}},{"type":"Feature","geometry":{"type":"Point","coordinates":[11.1929,46.9684]},"properties":{"scode":"34200WS","name":"Anticima Cima Libera","variables":["CDD","DVENTO","ET0","GDD","HDD","TAPP","TDEW","TEMP","UMID","UWND","VPD","VVENTO","VVENTOMAX","VWND"],"latest":{"CDD":0.0,"DVENTO":210.0,"ET0":0.49,"GDD":0.0,"HDD":21.6,"TAPP":-8.0,"TDEW":-5.6,"TEMP":-5.3,"UMID":97.8,"UWND":0.0,"VPD":0.009,"VVENTO":0.0,"VVENTOMAX":0.0,"VWND":0.0},"latest_time":"2026-10-10T23:00","series":"series/34200WS.csv"}},{"type":"Feature","geometry":{"type":"Point","coordinates":[11.3663,46.9348]},"properties":{"scode":"31810SF","name":"Ladurns","variables":["CDD","DVENTO","ET0","GDD","HDD","LIVNEVE","TAPP","TDEW","TEMP","UMID","UWND","VPD","VVENTO","VVENTOMAX","VWND"],"latest":{"CDD":0.0,"DVENTO":174.6,"ET0":0.77,"GDD":0.0,"HDD":12.2,"LIVNEVE":2.3,"TAPP":2.7,"TDEW":2.4,"TEMP":4.4,"UMID":86.9,"UWND":-0.01,"VPD":0.11,"VVENTO":0.1,"VVENTOMAX":1.0,"VWND":0.1},"latest_time":"2026-10-10T22:50","series":"series/31810SF.csv"}},{"type":"Feature","geometry":{"type":"Point","coordinates":[11.6871,46.9434]},"properties":{"scode":"66000WS","name":"Fundres Punta di Dan","variables":["CDD","DVENTO","ET0","GDD","HDD","TAPP","TDEW","TEMP","UMID","UWND","VPD","VVENTO","VVENTOMAX","VWND"],"latest":{"CDD":0.0,"DVENTO":349.0,"ET0":0.6,"GDD":0.0,"HDD":16.9,"TAPP":-3.4,"TDEW":-1.9,"TEMP":0.2,"UMID":85.8,"UWND":0.38,"VPD":0.088,"VVENTO":2.0,"VVENTOMAX":5.0,"VWND":-1.96},"latest_time":"2026-10-10T23:00","series":"series/66000WS.csv"}},{"type":"Feature","geometry":{"type":"Point","coordinates":[11.6882,46.9254]},"properties":{"scode":"66100SF","name":"Fundres Malga Stutzen","variables":["CDD","DVENTO","ET0","GDD","HDD","LIVNEVE","TAPP","TDEW","TEMP","UMID","UWND","VPD","VVENTO","VVENTOMAX","VWND"],"latest":{"CDD":0.0,"DVENTO":45.0,"ET0":0.66,"GDD":0.0,"HDD":12.2,"LIVNEVE":-0.7,"TAPP":3.3,"TDEW":0.9,"TEMP":5.6,"UMID":71.7,"UWND":-0.42,"VPD":0.257,"VVENTO":0.6,"VVENTOMAX":1.1,"VWND":-0.42},"latest_time":"2026-10-10T23:00","series":"series/66100SF.csv"}},{"type":"Feature","geometry":{"type":"Point","coordinates":[12.2096,46.8417]},"properties":{"scode":"45200SF","name":"Casies Malga Pfinn","variables":["CDD","DVENTO","ET0","GDD","HDD","LIVNEVE","TAPP","TDEW","TEMP","UMID","UWND","VPD","VVENTO","VVENTOMAX","VWND"],"latest":{"CDD":0.0,"DVENTO":304.0,"ET0":1.03,"GDD":0.0,"HDD":12.9,"LIVNEVE":10.5,"TAPP":0.8,"TDEW":-0.6,"TEMP":3.9,"UMID":72.7,"UWND":1.24,"VPD":0.22,"VVENTO":1.5,"VVENTOMAX":2.2,"VWND":-0.84},"latest_time":"2026-10-10T23:00","series":"series/45200SF.csv"}},{"type":"Feature","geometry":{"type":"Point","coordinates":[11.5467,46.3636]},"properties":{"scode":"78480SF","name":"Nova Ponente Obereggen","variables":["CDD","DVENTO","ET0","GDD","HDD","LIVNEVE","TAPP","TDEW","TEMP","UMID","UWND","VPD","VVENTO","VVENTOMAX","VWND"],"latest":{"CDD":0.0,"DVENTO":59.0,"ET0":0.94,"GDD":0.0,"HDD":12.5,"LIVNEVE":9.9,"TAPP":2.5,"TDEW":1.0,"TEMP":4.5,"UMID":78.1,"UWND":-0.17,"VPD":0.184,"VVENTO":0.2,"VVENTOMAX":0.8,"VWND":-0.1},"latest_time":"2026-10-10T23:00","series":"series/78480SF.csv"}},{"type":"Feature","geometry":{"type":"Point","coordinates":[10.9987,46.4956]},"properties":{"scode":"90005SF","name":"Proves Alpe di Brez","variables":["CDD","DVENTO","ET0","GDD","HDD","LIVNEVE","TAPP","TDEW","TEMP","UMID","UWND","VPD","VVENTO","VVENTOMAX","VWND"],"latest":{"CDD":0.0,"DVENTO":337.0,"ET0":0.9,"GDD":0.0,"HDD":12.1,"LIVNEVE":0.7,"TAPP":1.0,"TDEW":-1.7,"TEMP":5.8,"UMID":58.6,"UWND":1.45,"VPD":0.382,"VVENTO":3.7,"VVENTOMAX":6.1,"VWND":-3.41},"latest_time":"2026-10-10T23:00","series":"series/90005SF.csv"}},{"type":"Feature","geometry":{"type":"Point","coordinates":[11.8614,46.9256]},"properties":{"scode":"53200SF","name":"Rio Bianco Malga Fadner","variables":["CDD","DVENTO","ET0","GDD","HDD","LIVNEVE","TAPP","TDEW","TEMP","UMID","UWND","VPD","VVENTO","VVENTOMAX","VWND"],"latest":{"CDD":0.0,"DVENTO":180.0,"ET0":0.79,"GDD":0.0,"HDD":13.0,"LIVNEVE":2.6,"TAPP":1.2,"TDEW":1.3,"TEMP":4.0,"UMID":82.5,"UWND":-0.0,"VPD":0.142,"VVENTO":1.4,"VVENTOMAX":2.3,"VWND":1.4},"latest_time":"2026-10-10T23:00","series":"series/53200SF.csv"}},{"type":"Feature","geometry":{"type":"Point","coordinates":[12.1115,46.6712]},"properties":{"scode":"42830SF","name":"Braies Alpe Cavallo","variables":["CDD","DVENTO","ET0","GDD","HDD","LIVNEVE","TAPP","TDEW","TEMP","UMID","UWND","VPD","VVENTO","VVENTOMAX","VWND"],"latest":{"CDD":0.0,"DVENTO":280.0,"ET0":0.76,"GDD":0.0,"HDD":13.6,"LIVNEVE":1.5,"TAPP":-0.5,"TDEW":-0.2,"TEMP":3.3,"UMID":78.1,"UWND":2.46,"VPD":0.17,"VVENTO":2.5,"VVENTOMAX":3.5,"VWND":-0.43},"latest_time":"2026-10-10T23:00","series":"series/42830SF.csv"}},{"type":"Feature","geometry":{"type":"Point","coordinates":[11.4386,46.885]},"properties":{"scode":"37100MS","name":"Vipiteno","variables":["CDD","DVENTO","ET0","GDD","HDD","PREC","PREC24","PREC48","PRESS","PSLM","QSPEC","RADSOL","SOLEGG","TAPP","TDEW","TEMP","UMID","UWND","VPD","VVENTO","VVENTOMAX","VWND"],"latest":{"CDD":0.0,"DVENTO":274.2,"ET0":0.68,"GDD":0.2,"HDD":7.8,"PREC":0.0,"PREC24":0.5,"PREC48":0.5,"PRESS":1015.2,"PSLM":1137.0,"QSPEC":6.64,"RADSOL":0.0,"SOLEGG":0.0,"TAPP":7.0,"TDEW":8.1,"TEMP":8.1,"UMID":100.1,"UWND":0.9,"VPD":0.0,"VVENTO":0.9,"VVENTOMAX":1.4,"VWND":-0.07},"latest_time":"2026-10-10T23:00","series":"series/37100MS.csv"}},{"type":"Feature","geometry":{"type":"Point","coordinates":[11.3111,46.4065]},"properties":{"scode":"85700MS","name":"Bronzolo","variables":["CDD","DVENTO","ET0","GDD","HDD","PREC","PREC24","PREC48","PRESS","PSLM","QSPEC","RADSOL","SOLEGG","TAPP","TDEW","TEMP","UMID","UWND","VPD","VVENTO","VVENTOMAX","VWND"],"latest":{"CDD":0.0,"DVENTO":163.0,"ET0":1.62,"GDD":6.2,"HDD":1.8,"PREC":0.0,"PREC24":0.0,"PREC48":0.2,"PRESS":1011.2,"PSLM":1038.9,"QSPEC":8.45,"RADSOL":0.0,"SOLEGG":0.0,"TAPP":11.9,"TDEW":11.6,"TEMP":12.0,"UMID":97.6,"UWND":-0.23,"VPD":0.034,"VVENTO":0.8,"VVENTOMAX":1.6,"VWND":0.77},"latest_time":"2026-10-10T23:00","series":"series/85700MS.csv"}},{"type":"Feature","geometry":{"type":"Point","coordinates":[11.9315,46.8043]},"properties":{"scode":"59700MS","name":"Brunico","variables":["CDD","DVENTO","ET0","GDD","HDD","PREC","PREC24","PREC48","PRESS","PSLM","QSPEC","RADSOL","SOLEGG","TAPP","TDEW","TEMP","UMID","UWND","VPD","VVENTO","VVENTOMAX","VWND"],"latest":{"CDD":0.0,"DVENTO":101.9,"ET0":0.96,"GDD":1.0,"HDD":7.3,"PREC":0.0,"PREC24":0.1,"PREC48":0.1,"PRESS":1013.5,"PSLM":1119.5,"QSPEC":6.83,"RADSOL":0.0,"SOLEGG":0.0,"TAPP":7.7,"TDEW":8.5,"TEMP":8.5,"UMID":100.0,"UWND":-0.59,"VPD":0.0,"VVENTO":0.6,"VVENTOMAX":1.1,"VWND":0.12},"latest_time":"2026-10-10T23:00","series":"series/59700MS.csv"}},{"type":"Feature","geometry":{"type":"Point","coordinates":[11.4269,46.4205]},"properties":{"scode":"85120MS","name":"Nova Ponente","variables":["CDD","DVENTO","ET0","GDD","HDD","PREC","PREC24","PREC48","PRESS","PSLM","QSPEC","RADSOL","SOLEGG","TAPP","TDEW","TEMP","UMID","UWND","VPD","VVENTO","VVENTOMAX","VWND"],"latest":{"CDD":0.0,"DVENTO":1.4,"ET0":1.0,"GDD":0.1,"HDD":8.4,"PREC":0.0,"PREC24":0.0,"PREC48":0.8,"PRESS":1011.3,"PSLM":1205.8,"QSPEC":6.42,"RADSOL":0.0,"SOLEGG":0.0,"TAPP":5.1,"TDEW":7.6,"TEMP":7.7,"UMID":99.0,"UWND":-0.07,"VPD":0.011,"VVENTO":2.9,"VVENTOMAX":3.6,"VWND":-2.9},"latest_time":"2026-10-10T23:00","series":"series/85120MS.csv"}},{"type":"Feature","geometry":{"type":"Point","coordinates":[11.3128,46.4977]},"properties":{"scode":"83200MS","name":"Bolzano","variables":["CDD","DVENTO","ET0","GDD","HDD","PREC","PREC24","PREC48","PRESS","PSLM","QSPEC","RADSOL","SOLEGG","TAPP","TDEW","TEMP","UMID","UWND","VPD","VVENTO","VVENTOMAX","VWND"],"latest":{"CDD":0.0,"DVENTO":255.3,"ET0":1.35,"GDD":6.1,"HDD":2.3,"PREC":0.0,"PREC24":0.0,"PREC48":0.0,"PRESS":1011.0,"PSLM":1041.0,"QSPEC":8.07,"RADSOL":0.0,"SOLEGG":0.0,"TAPP":12.4,"TDEW":10.9,"TEMP":12.8,"UMID":88.5,"UWND":0.97,"VPD":0.17,"VVENTO":1.0,"VVENTOMAX":2.1,"VWND":0.25},"latest_time":"2026-10-10T23:00","series":"series/83200MS.csv"}},{"type":"Feature","geometry":{"type":"Point","coordinates":[11.6451,46.731]},"properties":{"scode":"39100MS","name":"Bressanone","variables":["CDD","DVENTO","ET0","GDD","HDD","PREC","PREC24","PREC48","PRESS","PSLM","QSPEC","RADSOL","SOLEGG","TAPP","TDEW","TEMP","UMID","UWND","VPD","VVENTO","VVENTOMAX","VWND"],"latest":{"CDD":0.0,"DVENTO":226.9,"ET0":0.96,"GDD":3.0,"HDD":4.8,"PREC":0.0,"PREC24":0.2,"PREC48":0.2,"PRESS":1012.6,"PSLM":1086.1,"QSPEC":7.2,"RADSOL":0.0,"SOLEGG":0.0,"TAPP":9.9,"TDEW":9.3,"TEMP":10.1,"UMID":94.5,"UWND":0.07,"VPD":0.068,"VVENTO":0.1,"VVENTOMAX":1.5,"VWND":0.07},"latest_time":"2026-10-10T23:00","series":"series/39100MS.csv"}},{"type":"Feature","geometry":{"type":"Point","coordinates":[10.6496,46.6249]},"properties":{"scode":"08200MS","name":"Lasa Oris","variables":["CDD","DVENTO","ET0","GDD","HDD","PREC","PREC24","PREC48","PRESS","PSLM","QSPEC","RADSOL","SOLEGG","TAPP","TDEW","TEMP","UMID","UWND","VPD","VVENTO","VVENTOMAX","VWND"],"latest":{"CDD":0.0,"DVENTO":309.7,"ET0":0.74,"GDD":0.5,"HDD":8.0,"PREC":0.0,"PREC24":0.5,"PREC48":0.5,"PRESS":1013.1,"PSLM":1124.7,"QSPEC":6.45,"RADSOL":0.0,"SOLEGG":0.0,"TAPP":8.2,"TDEW":7.7,"TEMP":9.8,"UMID":86.5,"UWND":1.15,"VPD":0.164,"VVENTO":1.5,"VVENTOMAX":2.8,"VWND":-0.96},"latest_time":"2026-10-10T23:00","series":"series/08200MS.csv"}},{"type":"Feature","geometry":{"type":"Point","coordinates":[11.1366,46.688]},"properties":{"scode":"23200MS","name":"Merano","variables":["CDD","DVENTO","ET0","GDD","HDD","PREC","PREC24","PREC48","PRESS","PSLM","QSPEC","RADSOL","SOLEGG","TAPP","TDEW","TEMP","UMID","UWND","VPD","VVENTO","VVENTOMAX","VWND"],"latest":{"CDD":0.0,"DVENTO":27.0,"ET0":1.25,"GDD":4.8,"HDD":3.0,"PREC":0.0,"PREC24":-0.0,"PREC48":-0.0,"PRESS":1012.1,"PSLM":1052.8,"QSPEC":7.7,"RADSOL":0.0,"SOLEGG":0.0,"TAPP":10.6,"TDEW":10.3,"TEMP":11.5,"UMID":92.1,"UWND":-0.64,"VPD":0.107,"VVENTO":1.4,"VVENTOMAX":3.1,"VWND":-1.25},"latest_time":"2026-10-10T23:00","series":"series/23200MS.csv"}},{"type":"Feature","geometry":{"type":"Point","coordinates":[12.1166,46.8704]},"properties":{"scode":"47400MS","name":"Anterselva di Sopra","variables":["CDD","DVENTO","ET0","GDD","HDD","PREC","PREC24","PREC48","PRESS","PSLM","QSPEC","RADSOL","SOLEGG","TAPP","TDEW","TEMP","UMID","UWND","VPD","VVENTO","VVENTOMAX","VWND"],"latest":{"CDD":0.0,"DVENTO":58.5,"ET0":1.02,"GDD":0.0,"HDD":8.9,"PREC":0.0,"PREC24":-0.0,"PREC48":-0.0,"PRESS":1013.7,"PSLM":1188.3,"QSPEC":5.49,"RADSOL":0.0,"SOLEGG":0.0,"TAPP":3.7,"TDEW":5.3,"TEMP":6.4,"UMID":92.9,"UWND":-2.05,"VPD":0.068,"VVENTO":2.4,"VVENTOMAX":3.6,"VWND":-1.25},"latest_time":"2026-10-10T23:00","series":"series/47400MS.csv"}},{"type":"Feature","geometry":{"type":"Point","coordinates":[11.2887,46.3825]},"properties":{"scode":"86600MS","name":"Laimburg","variables":["CDD","DVENTO","ET0","GDD","HDD","PREC","PREC24","PREC48","PRESS","PSLM","QSPEC","RADSOL","SOLEGG","TAPP","TDEW","TEMP","UMID","UWND","VPD","VVENTO","VVENTOMAX","VWND"],"latest":{"CDD":0.0,"DVENTO":180.4,"ET0":1.4,"GDD":5.9,"HDD":2.4,"PREC":0.0,"PREC24":0.0,"PREC48":0.1,"PRESS":1013.4,"PSLM":1041.0,"QSPEC":8.07,"RADSOL":0.0,"SOLEGG":0.0,"TAPP":11.1,"TDEW":11.0,"TEMP":11.0,"UMID":99.9,"UWND":0.0,"VPD":0.001,"VVENTO":0.3,"VVENTOMAX":1.1,"VWND":0.3},"latest_time":"2026-10-10T23:00","series":"series/86600MS.csv"}},{"type":"Feature","geometry":{"type":"Point","coordinates":[11.5488,46.8125]},"properties":{"scode":"37700MS","name":"Fortezza Le Cave","variables":["CDD","DVENTO","ET0","GDD","HDD","PREC","PREC24","PREC48","PRESS","PSLM","QSPEC","TAPP","TDEW","TEMP","UMID","UWND","VPD","VVENTO","VVENTOMAX","VWND"],"latest":{"CDD":0.0,"DVENTO":232.3,"ET0":1.16,"GDD":1.6,"HDD":6.7,"PREC":0.0,"PREC24":0.6,"PREC48":0.6,"PRESS":1011.3,"PSLM":1119.4,"QSPEC":6.79,"TAPP":5.7,"TDEW":8.4,"TEMP":10.1,"UMID":89.1,"UWND":4.51,"VPD":0.135,"VVENTO":5.7,"VVENTOMAX":7.8,"VWND":3.49},"latest_time":"2026-10-10T23:00","series":"series/37700MS.csv"}},{"type":"Feature","geometry":{"type":"Point","coordinates":[11.5291,46.5951]},"properties":{"scode":"74900MS","name":"Barbiano Colma","variables":["CDD","DVENTO","ET0","GDD","HDD","PREC","PREC24","PREC48","PRESS","PSLM","QSPEC","RADSOL","SOLEGG","TAPP","TDEW","TEMP","UMID","UWND","VPD","VVENTO","VVENTOMAX","VWND"],"latest":{"CDD":0.0,"DVENTO":337.2,"ET0":1.28,"GDD":4.7,"HDD":3.8,"PREC":0.0,"PREC24":-0.0,"PREC48":-0.0,"PRESS":1012.0,"PSLM":1073.0,"QSPEC":7.66,"RADSOL":0.0,"SOLEGG":0.0,"TAPP":10.2,"TDEW":10.2,"TEMP":11.4,"UMID":92.2,"UWND":0.7,"VPD":0.105,"VVENTO":1.8,"VVENTOMAX":2.7,"VWND":-1.66},"latest_time":"2026-10-10T23:00","series":"series/74900MS.csv"}},{"type":"Feature","geometry":{"type":"Point","coordinates":[11.0883,46.7965]},"properties":{"scode":"20500MS","name":"Plan","variables":["CDD","DVENTO","ET0","GDD","HDD","PREC","PREC24","PREC48","PRESS","PSLM","QSPEC","RADSOL","SOLEGG","TAPP","TDEW","TEMP","UMID","UWND","VPD","VVENTO","VVENTOMAX","VWND"],"latest":{"CDD":0.0,"DVENTO":237.5,"ET0":0.62,"GDD":0.0,"HDD":11.1,"PREC":0.0,"PREC24":0.1,"PREC48":0.2,"PRESS":1014.0,"PSLM":1235.7,"QSPEC":5.36,"RADSOL":0.0,"SOLEGG":0.0,"TAPP":3.7,"TDEW":5.0,"TEMP":5.0,"UMID":100.0,"UWND":0.25,"VPD":0.0,"VVENTO":0.3,"VVENTOMAX":1.1,"VWND":0.16},"latest_time":"2026-10-10T23:00","series":"series/20500MS.csv"}},{"type":"Feature","geometry":{"type":"Point","coordinates":[10.9912,46.6477]},"properties":{"scode":"19300MS","name":"Naturno","variables":["CDD","DVENTO","ET0","GDD","HDD","PREC","PREC24","PREC48","PRESS","PSLM","QSPEC","RADSOL","SOLEGG","TAPP","TDEW","TEMP","UMID","UWND","VPD","VVENTO","VVENTOMAX","VWND"],"latest":{"CDD":0.0,"DVENTO":288.8,"ET0":0.96,"GDD":1.9,"HDD":6.1,"PREC":0.0,"PREC24":0.1,"PREC48":0.1,"PRESS":1014.2,"PSLM":1082.5,"QSPEC":6.75,"RADSOL":0.0,"SOLEGG":0.0,"TAPP":8.0,"TDEW":8.3,"TEMP":8.9,"UMID":96.3,"UWND":0.76,"VPD":0.042,"VVENTO":0.8,"VVENTOMAX":2.4,"VWND":-0.26},"latest_time":"2026-10-10T23:00","series":"series/19300MS.csv"}},{"type":"Feature","geometry":{"type":"Point","coordinates":[12.0991,47.0366]},"properties":{"scode":"50500MS","name":"Predoi","variables":["CDD","DVENTO","ET0","GDD","HDD","PREC","PREC24","PREC48","PRESS","PSLM","QSPEC","RADSOL","SOLEGG","TAPP","TDEW","TEMP","UMID","UWND","VPD","VVENTO","VVENTOMAX","VWND"],"latest":{"CDD":0.0,"DVENTO":55.4,"ET0":0.67,"GDD":0.0,"HDD":10.8,"PREC":0.0,"PREC24":0.3,"PREC48":0.3,"PRESS":1013.4,"PSLM":1206.8,"QSPEC":5.23,"RADSOL":0.0,"SOLEGG":0.0,"TAPP":4.1,"TDEW":4.6,"TEMP":5.9,"UMID":91.6,"UWND":-0.74,"VPD":0.078,"VVENTO":0.9,"VVENTOMAX":2.0,"VWND":-0.51},"latest_time":"2026-10-10T23:00","series":"series/50500MS.csv"}},{"type":"Feature","geometry":{"type":"Point","coordinates":[11.9474,46.9003]},"properties":{"scode":"56900MS","name":"Campo Tures Molini","variables":["CDD","DVENTO","ET0","GDD","HDD","PREC","PREC24","PREC48","PRESS","PSLM","QSPEC","RADSOL","SOLEGG","TAPP","TDEW","TEMP","UMID","UWND","VPD","VVENTO","VVENTOMAX","VWND"],"latest":{"CDD":0.0,"DVENTO":321.0,"ET0":0.82,"GDD":0.4,"HDD":7.5,"PREC":0.0,"PREC24":0.0,"PREC48":0.0,"PRESS":1013.6,"PSLM":1122.7,"QSPEC":6.46,"RADSOL":0.0,"SOLEGG":0.0,"TAPP":7.1,"TDEW":7.7,"TEMP":8.5,"UMID":94.6,"UWND":0.76,"VPD":0.06,"VVENTO":1.2,"VVENTOMAX":2.6,"VWND":-0.93},"latest_time":"2026-10-10T23:00","series":"series/56900MS.csv"}},{"type":"Feature","geometry":{"type":"Point","coordinates":[12.0825,46.9428]},"properties":{"scode":"54500MS","name":"Riva di Tures","variables":["CDD","DVENTO","ET0","GDD","HDD","PREC","PREC24","PREC48","PRESS","PSLM","QSPEC","RADSOL","SOLEGG","TAPP","TDEW","TEMP","UMID","UWND","VPD","VVENTO","VVENTOMAX","VWND"],"latest":{"CDD":0.0,"DVENTO":100.5,"ET0":0.68,"GDD":0.0,"HDD":11.7,"PREC":0.0,"PREC24":0.2,"PREC48":0.2,"PRESS":1014.5,"PSLM":1226.0,"QSPEC":4.81,"RADSOL":0.0,"SOLEGG":0.0,"TAPP":1.8,"TDEW":3.5,"TEMP":3.7,"UMID":98.3,"UWND":-0.69,"VPD":0.014,"VVENTO":0.7,"VVENTOMAX":1.2,"VWND":0.13},"latest_time":"2026-10-10T23:00","series":"series/54500MS.csv"}},{"type":"Feature","geometry":{"type":"Point","coordinates":[11.7338,46.6986]},"properties":{"scode":"69900MS","name":"Plose","variables":["CDD","DVENTO","ET0","GDD","HDD","RADSOL","SOLEGG","TAPP","TDEW","TEMP","UMID","UWND","VPD","VVENTO","VVENTOMAX","VWND"],"latest":{"CDD":0.0,"DVENTO":335.6,"ET0":0.68,"GDD":0.0,"HDD":15.6,"RADSOL":0.0,"SOLEGG":0.0,"TAPP":-3.4,"TDEW":-3.2,"TEMP":2.1,"UMID":68.0,"UWND":1.82,"VPD":0.227,"VVENTO":4.4,"VVENTOMAX":5.4,"VWND":-4.01},"latest_time":"2026-10-10T23:00","series":"series/69900MS.csv"}},{"type":"Feature","geometry":{"type":"Point","coordinates":[10.7803,46.6238]},"properties":{"scode":"09700MS","name":"Silandro","variables":["CDD","DVENTO","ET0","GDD","HDD","PREC","PREC24","PREC48","PRESS","PSLM","QSPEC","RADSOL","SOLEGG","TAPP","TDEW","TEMP","UMID","UWND","VPD","VVENTO","VVENTOMAX","VWND"],"latest":{"CDD":0.0,"DVENTO":341.1,"ET0":0.67,"GDD":1.6,"HDD":6.3,"PREC":0.0,"PREC24":0.3,"PREC48":0.3,"PRESS":1013.9,"PSLM":1102.8,"QSPEC":6.77,"RADSOL":0.0,"SOLEGG":0.0,"TAPP":7.5,"TDEW":8.4,"TEMP":8.4,"UMID":99.9,"UWND":0.23,"VPD":0.001,"VVENTO":0.7,"VVENTOMAX":1.7,"VWND":-0.66},"latest_time":"2026-10-10T23:00","series":"series/09700MS.csv"}},{"type":"Feature","geometry":{"type":"Point","coordinates":[11.3551,46.6406]},"properties":{"scode":"82200MS","name":"Sarentino","variables":["CDD","DVENTO","ET0","GDD","HDD","PREC","PREC24","PREC48","PRESS","PSLM","QSPEC","RADSOL","SOLEGG","TAPP","TDEW","TEMP","UMID","UWND","VPD","VVENTO","VVENTOMAX","VWND"],"latest":{"CDD":0.0,"DVENTO":351.6,"ET0":0.85,"GDD":2.1,"HDD":6.1,"PREC":0.0,"PREC24":0.3,"PREC48":0.3,"PRESS":1012.8,"PSLM":1137.5,"QSPEC":7.17,"RADSOL":0.0,"SOLEGG":0.0,"TAPP":7.1,"TDEW":9.2,"TEMP":9.2,"UMID":100.0,"UWND":0.39,"VPD":0.0,"VVENTO":2.7,"VVENTOMAX":4.6,"VWND":-2.67},"latest_time":"2026-10-10T23:00","series":"series/82200MS.csv"}},{"type":"Feature","geometry":{"type":"Point","coordinates":[11.1855,46.2362]},"properties":{"scode":"88820MS","name":"Salorno","variables":["CDD","DVENTO","ET0","GDD","HDD","PREC","PREC24","PREC48","PRESS","PSLM","QSPEC","RADSOL","SOLEGG","TAPP","TDEW","TEMP","UMID","UWND","VPD","VVENTO","VVENTOMAX","VWND"],"latest":{"CDD":0.0,"DVENTO":103.0,"ET0":1.45,"GDD":6.6,"HDD":2.0,"PREC":0.0,"PREC24":0.0,"PREC48":0.0,"PRESS":1012.0,"PSLM":1037.7,"QSPEC":8.23,"RADSOL":0.0,"SOLEGG":0.0,"TAPP":12.7,"TDEW":11.3,"TEMP":15.0,"UMID":78.3,"UWND":-3.7,"VPD":0.37,"VVENTO":3.8,"VVENTOMAX":6.4,"VWND":0.85},"latest_time":"2026-10-10T23:00","series":"series/88820MS.csv"}},{"type":"Feature","geometry":{"type":"Point","coordinates":[10.9898,46.5417]},"properties":{"scode":"25900MS","name":"S. Valburga","variables":["CDD","DVENTO","ET0","GDD","HDD","PREC","PREC24","PREC48","PRESS","PSLM","QSPEC","RADSOL","SOLEGG","TAPP","TDEW","TEMP","UMID","UWND","VPD","VVENTO","VVENTOMAX","VWND"],"latest":{"CDD":0.0,"DVENTO":210.4,"ET0":0.81,"GDD":1.0,"HDD":7.3,"PREC":0.0,"PREC24":0.1,"PREC48":0.1,"PRESS":1012.8,"PSLM":1161.0,"QSPEC":7.02,"RADSOL":0.0,"SOLEGG":0.0,"TAPP":5.6,"TDEW":8.9,"TEMP":8.9,"UMID":100.0,"UWND":2.23,"VPD":0.0,"VVENTO":4.4,"VVENTOMAX":5.8,"VWND":3.8},"latest_time":"2026-10-10T23:00","series":"series/25900MS.csv"}},{"type":"Feature","geometry":{"type":"Point","coordinates":[11.6272,46.8483]},"properties":{"scode":"68600MS","name":"Valles","variables":["CDD","DVENTO","ET0","GDD","HDD","PREC","PREC24","PREC48","PRESS","PSLM","QSPEC","RADSOL","SOLEGG","TAPP","TDEW","TEMP","UMID","UWND","VPD","VVENTO","VVENTOMAX","VWND"],"latest":{"CDD":0.0,"DVENTO":112.3,"ET0":0.72,"GDD":0.0,"HDD":9.6,"PREC":0.0,"PREC24":1.0,"PREC48":1.0,"PRESS":1015.5,"PSLM":1204.5,"QSPEC":5.02,"RADSOL":0.0,"SOLEGG":0.0,"TAPP":3.2,"TDEW":4.1,"TEMP":4.6,"UMID":96.3,"UWND":-0.09,"VPD":0.031,"VVENTO":0.1,"VVENTOMAX":0.9,"VWND":0.04},"latest_time":"2026-10-10T23:00","series":"series/68600MS.csv"}},{"type":"Feature","geometry":{"type":"Point","coordinates":[10.5289,46.7759]},"properties":{"scode":"02200MS","name":"S. Valentino alla Muta","variables":["CDD","DVENTO","ET0","GDD","HDD","PREC","PREC24","PREC48","PRESS","PSLM","QSPEC","RADSOL","SOLEGG","TAPP","TDEW","TEMP","UMID","UWND","VPD","VVENTO","VVENTOMAX","VWND"],"latest":{"CDD":0.0,"DVENTO":24.2,"ET0":0.79,"GDD":0.0,"HDD":10.2,"PREC":0.0,"PREC24":1.2,"PREC48":1.2,"PRESS":1013.2,"PSLM":1212.2,"QSPEC":5.7,"RADSOL":0.0,"SOLEGG":0.0,"TAPP":2.0,"TDEW":5.9,"TEMP":7.7,"UMID":88.2,"UWND":-2.79,"VPD":0.124,"VVENTO":6.8,"VVENTOMAX":8.3,"VWND":-6.2},"latest_time":"2026-10-10T23:00","series":"series/02200MS.csv"}},{"type":"Feature","geometry":{"type":"Point","coordinates":[12.2191,46.7299]},"properties":{"scode":"41000MS","name":"Dobbiaco","variables":["CDD","DVENTO","ET0","GDD","HDD","PREC","PREC24","PREC48","PRESS","PSLM","QSPEC","SOLEGG","TAPP","TDEW","TEMP","UMID","UWND","VPD","VVENTO","VVENTOMAX","VWND"],"latest":{"CDD":0.0,"DVENTO":145.2,"ET0":1.62,"GDD":0.6,"HDD":8.5,"PREC":0.0,"PREC24":0.0,"PREC48":0.0,"PRESS":1014.1,"PSLM":1174.1,"QSPEC":6.09,"SOLEGG":0.0,"TAPP":5.8,"TDEW":6.8,"TEMP":7.3,"UMID":96.8,"UWND":-0.63,"VPD":0.033,"VVENTO":1.1,"VVENTOMAX":1.8,"VWND":0.9},"latest_time":"2026-10-10T23:00","series":"series/41000MS.csv"}},{"type":"Feature","geometry":{"type":"Point","coordinates":[11.506,46.5134]},"properties":{"scode":"75600MS","name":"Fie' allo Sciliar","variables":["CDD","DVENTO","ET0","GDD","HDD","PREC","PREC24","PREC48","PRESS","PSLM","QSPEC","RADSOL","SOLEGG","TAPP","TDEW","TEMP","UMID","UWND","VPD","VVENTO","VVENTOMAX","VWND"],"latest":{"CDD":0.0,"DVENTO":69.8,"ET0":1.14,"GDD":3.6,"HDD":4.9,"PREC":0.0,"PREC24":-0.0,"PREC48":0.1,"PRESS":1014.8,"PSLM":1121.4,"QSPEC":6.73,"RADSOL":0.0,"SOLEGG":0.0,"TAPP":10.2,"TDEW":8.3,"TEMP":11.4,"UMID":81.3,"UWND":-1.03,"VPD":0.252,"VVENTO":1.1,"VVENTOMAX":2.3,"VWND":-0.38},"latest_time":"2026-10-10T23:00","series":"series/75600MS.csv"}},{"type":"Feature","geometry":{"type":"Point","coordinates":[11.8979,46.6792]},"properties":{"scode":"62600MS","name":"S. Martino in Badia","variables":["CDD","DVENTO","ET0","GDD","HDD","PREC","PREC24","PREC48","PRESS","PSLM","QSPEC","RADSOL","SOLEGG","TAPP","TDEW","TEMP","UMID","UWND","VPD","VVENTO","VVENTOMAX","VWND"],"latest":{"CDD":0.0,"DVENTO":125.3,"ET0":1.21,"GDD":0.7,"HDD":8.2,"PREC":0.0,"PREC24":0.0,"PREC48":0.1,"PRESS":1017.2,"PSLM":1168.9,"QSPEC":5.52,"RADSOL":0.0,"SOLEGG":0.0,"TAPP":4.5,"TDEW":5.5,"TEMP":5.8,"UMID":97.7,"UWND":-0.33,"VPD":0.021,"VVENTO":0.4,"VVENTOMAX":0.9,"VWND":0.23},"latest_time":"2026-10-10T23:00","series":"series/62600MS.csv"}},{"type":"Feature","geometry":{"type":"Point","coordinates":[11.6888,46.5119]},"properties":{"scode":"74200MS","name":"Alpe di Siusi Zallinger","variables":["CDD","DVENTO","ET0","GDD","HDD","LIVNEVE","PREC","PREC24","PREC48","PRESS","PSLM","QSPEC","RADSOL","SOLEGG","TAPP","TDEW","TEMP","UMID","UWND","VPD","VVENTO","VVENTOMAX","VWND"],"latest":{"CDD":0.0,"DVENTO":79.1,"ET0":0.79,"GDD":0.0,"HDD":12.3,"LIVNEVE":7.0,"PREC":0.0,"PREC24":0.0,"PREC48":0.3,"PRESS":1012.8,"PSLM":1296.8,"QSPEC":4.57,"RADSOL":0.0,"SOLEGG":0.0,"TAPP":2.5,"TDEW":2.7,"TEMP":4.3,"UMID":89.3,"UWND":-0.39,"VPD":0.089,"VVENTO":0.4,"VVENTOMAX":1.1,"VWND":-0.08},"latest_time":"2026-10-10T23:00","series":"series/74200MS.csv"}},{"type":"Feature","geometry":{"type":"Point","coordinates":[10.7269,46.5169]},"properties":{"scode":"11400MS","name":"Alta Val Martello","variables":["CDD","DVENTO","ET0","GDD","HDD","PREC","PREC24","PREC48","PRESS","PSLM","QSPEC","RADSOL","SOLEGG","TAPP","TDEW","TEMP","UMID","UWND","VPD","VVENTO","VVENTOMAX","VWND"],"latest":{"CDD":0.0,"DVENTO":195.5,"ET0":0.78,"GDD":0.0,"HDD":11.3,"PREC":0.0,"PREC24":0.5,"PREC48":0.5,"PRESS":1017.3,"PSLM":1251.7,"QSPEC":4.33,"RADSOL":0.0,"SOLEGG":0.0,"TAPP":2.1,"TDEW":2.0,"TEMP":4.8,"UMID":82.1,"UWND":0.37,"VPD":0.154,"VVENTO":1.4,"VVENTOMAX":2.7,"VWND":1.35},"latest_time":"2026-10-10T23:00","series":"series/11400MS.csv"}},{"type":"Feature","geometry":{"type":"Point","coordinates":[11.5981,46.9656]},"properties":{"scode":"33500MS","name":"Val di Vizze San Giacomo","variables":["CDD","DVENTO","ET0","GDD","HDD","PREC","PREC24","PREC48","PRESS","PSLM","QSPEC","RADSOL","SOLEGG","TAPP","TDEW","TEMP","UMID","UWND","VPD","VVENTO","VVENTOMAX","VWND"],"latest":{"CDD":0.0,"DVENTO":134.3,"ET0":0.61,"GDD":0.0,"HDD":11.3,"PREC":0.0,"PREC24":1.0,"PREC48":1.0,"PRESS":1015.4,"PSLM":1209.0,"QSPEC":5.02,"RADSOL":0.0,"SOLEGG":0.0,"TAPP":2.6,"TDEW":4.1,"TEMP":4.1,"UMID":99.9,"UWND":-0.21,"VPD":0.001,"VVENTO":0.3,"VVENTOMAX":1.2,"VWND":0.21},"latest_time":"2026-10-10T23:00","series":"series/33500MS.csv"}},{"type":"Feature","geometry":{"type":"Point","coordinates":[12.2427,46.8353]},"properties":{"scode":"44500MS","name":"S. Maddalena in Casies","variables":["CDD","DVENTO","ET0","GDD","HDD","PREC","PREC24","PREC48","PRESS","PSLM","QSPEC","RADSOL","SOLEGG","TAPP","TDEW","TEMP","UMID","UWND","VPD","VVENTO","VVENTOMAX","VWND"],"latest":{"CDD":0.0,"DVENTO":34.1,"ET0":1.05,"GDD":0.0,"HDD":10.2,"PREC":0.0,"PREC24":0.0,"PREC48":0.1,"PRESS":1018.0,"PSLM":1207.2,"QSPEC":5.45,"RADSOL":0.0,"SOLEGG":0.0,"TAPP":2.3,"TDEW":5.3,"TEMP":5.3,"UMID":99.8,"UWND":-1.57,"VPD":0.002,"VVENTO":2.8,"VVENTOMAX":3.7,"VWND":-2.32},"latest_time":"2026-10-10T23:00","series":"series/44500MS.csv"}},{"type":"Feature","geometry":{"type":"Point","coordinates":[11.7856,46.8345]},"properties":{"scode":"65600MS","name":"Terento","variables":["CDD","DVENTO","ET0","GDD","HDD","PREC","PREC24","PREC48","PRESS","PSLM","QSPEC","RADSOL","SOLEGG","TAPP","TDEW","TEMP","UMID","UWND","VPD","VVENTO","VVENTOMAX","VWND"],"latest":{"CDD":0.0,"DVENTO":32.7,"ET0":0.83,"GDD":0.0,"HDD":8.9,"PREC":0.0,"PREC24":0.4,"PREC48":0.4,"PRESS":1012.6,"PSLM":1190.4,"QSPEC":5.87,"RADSOL":0.0,"SOLEGG":0.0,"TAPP":6.2,"TDEW":6.3,"TEMP":7.5,"UMID":91.9,"UWND":-0.32,"VPD":0.084,"VVENTO":0.6,"VVENTOMAX":1.3,"VWND":-0.5},"latest_time":"2026-10-10T23:00","series":"series/65600MS.csv"}},{"type":"Feature","geometry":{"type":"Point","coordinates":[12.1289,46.7431]},"properties":{"scode":"43200MS","name":"Monguelfo","variables":["CDD","DVENTO","ET0","GDD","HDD","PREC","PREC24","PREC48","PRESS","PSLM","QSPEC","RADSOL","SOLEGG","TAPP","TDEW","TEMP","UMID","UWND","VPD","VVENTO","VVENTOMAX","VWND"],"latest":{"CDD":0.0,"DVENTO":121.3,"ET0":1.16,"GDD":0.0,"HDD":8.8,"PREC":0.0,"PREC24":-0.0,"PREC48":-0.0,"PRESS":1013.9,"PSLM":1161.5,"QSPEC":6.06,"RADSOL":0.0,"SOLEGG":0.0,"TAPP":6.1,"TDEW":6.8,"TEMP":7.5,"UMID":95.1,"UWND":-0.77,"VPD":0.051,"VVENTO":0.9,"VVENTOMAX":2.0,"VWND":0.47},"latest_time":"2026-10-10T23:00","series":"series/43200MS.csv"}},{"type":"Feature","geometry":{"type":"Point","coordinates":[11.2525,46.4423]},"properties":{"scode":"89190MS","name":"Caldaro Pianizza di Sopra","variables":["CDD","DVENTO","ET0","GDD","HDD","PREC","PREC24","PREC48","PRESS","PSLM","QSPEC","RADSOL","SOLEGG","TAPP","TDEW","TEMP","UMID","UWND","VPD","VVENTO","VVENTOMAX","VWND"],"latest":{"CDD":0.0,"DVENTO":359.2,"ET0":1.45,"GDD":5.4,"HDD":3.1,"PREC":0.0,"PREC24":-0.0,"PREC48":-0.0,"PRESS":1012.3,"PSLM":1073.7,"QSPEC":7.56,"RADSOL":0.0,"SOLEGG":0.0,"TAPP":11.2,"TDEW":10.0,"TEMP":12.6,"UMID":84.1,"UWND":0.03,"VPD":0.232,"VVENTO":2.1,"VVENTOMAX":3.6,"VWND":-2.1},"latest_time":"2026-10-10T23:00","series":"series/89190MS.csv"}},{"type":"Feature","geometry":{"type":"Point","coordinates":[11.2294,46.7822]},"properties":{"scode":"22210MS","name":"S. Martino in Passiria","variables":["CDD","DVENTO","ET0","GDD","HDD","PREC","PREC24","PREC48","PRESS","PSLM","QSPEC","RADSOL","SOLEGG","TAPP","TDEW","TEMP","UMID","UWND","VPD","VVENTO","VVENTOMAX","VWND"],"latest":{"CDD":0.0,"DVENTO":10.0,"ET0":0.75,"GDD":3.2,"HDD":4.9,"PREC":0.0,"PREC24":0.1,"PREC48":0.1,"PRESS":1013.7,"PSLM":1087.6,"QSPEC":7.76,"RADSOL":0.0,"SOLEGG":0.0,"TAPP":9.9,"TDEW":10.4,"TEMP":10.4,"UMID":99.9,"UWND":-0.17,"VPD":0.001,"VVENTO":1.0,"VVENTOMAX":1.6,"VWND":-0.98},"latest_time":"2026-10-10T23:00","series":"series/22210MS.csv"}},{"type":"Feature","geometry":{"type":"Point","coordinates":[11.4774,46.795]},"properties":{"scode":"80100SF","name":"Pennes Val Tramin","variables":["CDD","DVENTO","ET0","GDD","HDD","LIVNEVE","TAPP","TDEW","TEMP","UMID","UWND","VPD","VVENTO","VVENTOMAX","VWND"],"latest":{"CDD":0.0,"DVENTO":92.0,"ET0":0.78,"GDD":0.0,"HDD":13.3,"LIVNEVE":-2.2,"TAPP":1.9,"TDEW":3.4,"TEMP":3.5,"UMID":99.0,"UWND":-0.3,"VPD":0.008,"VVENTO":0.3,"VVENTOMAX":1.0,"VWND":0.01},"latest_time":"2026-10-10T23:00","series":"series/80100SF.csv"}},{"type":"Feature","geometry":{"type":"Point","coordinates":[10.774,46.494]},"properties":{"scode":"24170WS","name":"Ultimo Cima di Fontana Bianca","variables":["CDD","DVENTO","ET0","GDD","HDD","TAPP","TDEW","TEMP","UMID","UWND","VPD","VVENTO","VVENTOMAX","VWND"],"latest":{"CDD":0.0,"DVENTO":274.0,"ET0":0.54,"GDD":0.0,"HDD":20.9,"TAPP":-9.6,"TDEW":-5.0,"TEMP":-4.0,"UMID":92.6,"UWND":4.19,"VPD":0.034,"VVENTO":4.2,"VVENTOMAX":6.5,"VWND":-0.29},"latest_time":"2026-10-10T23:00","series":"series/24170WS.csv"}},{"type":"Feature","geometry":{"type":"Point","coordinates":[10.4324,46.7004]},"properties":{"scode":"02700SF","name":"Clusio Kloangruebes","variables":["CDD","DVENTO","ET0","GDD","HDD","LIVNEVE","PREC","PREC24","PREC48","TAPP","TDEW","TEMP","UMID","UWND","VPD","VVENTO","VVENTOMAX","VWND"],"latest":{"CDD":0.0,"DVENTO":341.0,"ET0":0.64,"GDD":0.0,"HDD":15.4,"LIVNEVE":1.9,"PREC":0.0,"PREC24":2.3,"PREC48":2.3,"TAPP":-2.5,"TDEW":-0.8,"TEMP":0.7,"UMID":89.4,"UWND":0.49,"VPD":0.068,"VVENTO":1.5,"VVENTOMAX":2.2,"VWND":-1.42},"latest_time":"2026-10-10T22:50","series":"series/02700SF.csv"}},{"type":"Feature","geometry":{"type":"Point","coordinates":[12.2573,46.6802]},"properties":{"scode":"91210WS","name":"Dobbiaco Cima Piatta Alta","variables":["CDD","DVENTO","ET0","GDD","HDD","TAPP","TDEW","TEMP","UMID","UWND","VPD","VVENTO","VVENTOMAX","VWND"],"latest":{"CDD":0.0,"DVENTO":285.3,"ET0":0.68,"GDD":0.0,"HDD":17.6,"TAPP":-5.1,"TDEW":-2.0,"TEMP":-1.1,"UMID":93.5,"UWND":2.41,"VPD":0.037,"VVENTO":2.5,"VVENTOMAX":6.9,"VWND":-0.66},"latest_time":"2026-10-10T23:00","series":"series/91210WS.csv"}},{"type":"Feature","geometry":{"type":"Point","coordinates":[12.2005,46.8561]},"properties":{"scode":"45100WS","name":"Casies Cima Regola","variables":["CDD","DVENTO","ET0","GDD","HDD","TAPP","TDEW","TEMP","UMID","UWND","VPD","VVENTO","VVENTOMAX","VWND"],"latest":{"CDD":0.0,"DVENTO":282.0,"ET0":0.33,"GDD":0.0,"HDD":16.4,"TAPP":-2.2,"TDEW":-1.7,"TEMP":1.4,"UMID":79.6,"UWND":1.96,"VPD":0.138,"VVENTO":2.0,"VVENTOMAX":3.6,"VWND":-0.42},"latest_time":"2026-10-10T20:30","series":"series/45100WS.csv"}},{"type":"Feature","geometry":{"type":"Point","coordinates":[11.2554369,46.3446974]},"properties":{"scode":"89560GW","name":"Termeno Lido","variables":["FREATICA","TEMPACQUA"],"latest":{"FREATICA":6.85,"TEMPACQUA":12.0},"latest_time":"2026-10-10T01:00","series":"series/89560GW.csv"}},{"type":"Feature","geometry":{"type":"Point","coordinates":[11.2381144,46.3095949]},"properties":{"scode":"89725GW","name":"Cortaccia Egna 4","variables":["FREATICA","TEMPACQUA"],"latest":{"FREATICA":2.52,"TEMPACQUA":12.4},"latest_time":"2026-10-10T01:00","series":"series/89725GW.csv"}},{"type":"Feature","geometry":{"type":"Point","coordinates":[11.2218714,46.2722646]},"properties":{"scode":"89750GW","name":"Cortaccia Egna 7","variables":["FREATICA","TEMPACQUA"],"latest":{"FREATICA":1.64,"TEMPACQUA":13.3},"latest_time":"2026-10-10T01:00","series":"series/89750GW.csv"}},{"type":"Feature","geometry":{"type":"Point","coordinates":[11.293839,46.346989]},"properties":{"scode":"86315GW","name":"Ora incrocio","variables":["FREATICA"],"latest":{"FREATICA":24.6},"latest_time":"2026-10-10T01:00","series":"series/86315GW.csv"}},{"type":"Feature","geometry":{"type":"Point","coordinates":[11.326769,46.468322]},"properties":{"scode":"83310GW","name":"Bolzano via Einstein 1","variables":["FREATICA","TEMPACQUA"],"latest":{"FREATICA":4.83,"TEMPACQUA":14.6},"latest_time":"2026-10-10T01:00","series":"series/83310GW.csv"}},{"type":"Feature","geometry":{"type":"Point","coordinates":[11.33072,46.468]},"properties":{"scode":"83360GW","name":"Bolzano via Einstein 2","variables":["FREATICA","TEMPACQUA"],"latest":{"FREATICA":5.18,"TEMPACQUA":14.6},"latest_time":"2026-10-10T01:00","series":"series/83360GW.csv"}},{"type":"Feature","geometry":{"type":"Point","coordinates":[11.365063,46.49501]},"properties":{"scode":"79865GW","name":"Bolzano ferrovia","variables":["FREATICA","TEMPACQUA"],"latest":{"FREATICA":23.86,"TEMPACQUA":10.8},"latest_time":"2026-10-10T01:00","series":"series/79865GW.csv"}},{"type":"Feature","geometry":{"type":"Point","coordinates":[11.3057975,46.488388]},"properties":{"scode":"83250GW","name":"Bolzano centro lungodegenti","variables":["FREATICA","TEMPACQUA"],"latest":{"FREATICA":3.71,"TEMPACQUA":16.6},"latest_time":"2026-10-10T13:00","series":"series/83250GW.csv"}},{"type":"Feature","geometry":{"type":"Point","coordinates":[11.33493,46.4975]},"properties":{"scode":"83025GW","name":"Bolzano via Roen","variables":["FREATICA","TEMPACQUA"],"latest":{"FREATICA":20.74,"TEMPACQUA":13.0},"latest_time":"2026-10-10T13:00","series":"series/83025GW.csv"}},{"type":"Feature","geometry":{"type":"Point","coordinates":[11.295332,46.504285]},"properties":{"scode":"83070GW","name":"Bolzano Bagni di Zolfo","variables":["FREATICA","TEMPACQUA"],"latest":{"FREATICA":1.21,"TEMPACQUA":16.3},"latest_time":"2026-10-10T01:00","series":"series/83070GW.csv"}},{"type":"Feature","geometry":{"type":"Point","coordinates":[11.31086,46.417448]},"properties":{"scode":"84435GW","name":"Branzoll Sgarbossa","variables":["FREATICA"],"latest":{"FREATICA":3.09},"latest_time":"2026-10-10T13:00","series":"series/84435GW.csv"}},{"type":"Feature","geometry":{"type":"Point","coordinates":[11.188362,46.601248]},"properties":{"scode":"27020GW","name":"Postal","variables":["FREATICA","TEMPACQUA"],"latest":{"FREATICA":1.28,"TEMPACQUA":13.3},"latest_time":"2026-10-10T13:00","series":"series/27020GW.csv"}},{"type":"Feature","geometry":{"type":"Point","coordinates":[11.200755,46.576898]},"properties":{"scode":"27025GW","name":"Gargazzone campo sportivo","variables":["FREATICA","TEMPACQUA"],"latest":{"FREATICA":0.97,"TEMPACQUA":12.8},"latest_time":"2026-10-10T13:00","series":"series/27025GW.csv"}},{"type":"Feature","geometry":{"type":"Point","coordinates":[11.231609,46.294089]},"properties":{"scode":"89740GW","name":"Cortaccia Egna 6","variables":["FREATICA","TEMPACQUA"],"latest":{"FREATICA":3.11,"TEMPACQUA":12.7},"latest_time":"2026-10-10T13:00","series":"series/89740GW.csv"}},{"type":"Feature","geometry":{"type":"Point","coordinates":[11.149748,46.618612]},"properties":{"scode":"27001GW","name":"Lana Lorenzenweg","variables":["FREATICA","TEMPACQUA"],"latest":{"FREATICA":35.69,"TEMPACQUA":10.6},"latest_time":"2026-10-10T13:00","series":"series/27001GW.csv"}},{"type":"Feature","geometry":{"type":"Point","coordinates":[11.175919,46.608731]},"properties":{"scode":"27010GW","name":"Lana campo sportivo","variables":["FREATICA","TEMPACQUA"],"latest":{"FREATICA":1.79,"TEMPACQUA":13.0},"latest_time":"2026-10-10T01:00","series":"series/27010GW.csv"}},{"type":"Feature","geometry":{"type":"Point","coordinates":[11.33893,46.4297]},"properties":{"scode":"84415GW","name":"Leifers Sportplatz","variables":["FREATICA","TEMPACQUA"],"latest":{"FREATICA":7.54,"TEMPACQUA":14.5},"latest_time":"2026-10-10T13:00","series":"series/84415GW.csv"}},{"type":"Feature","geometry":{"type":"Point","coordinates":[11.149046,46.670283]},"properties":{"scode":"23250GW","name":"Merano foro boario","variables":["FREATICA"],"latest":{"FREATICA":24.08},"latest_time":"2026-10-10T01:00","series":"series/23250GW.csv"}},{"type":"Feature","geometry":{"type":"Point","coordinates":[11.1529158,46.663578]},"properties":{"scode":"23350GW","name":"Merano ippodromo","variables":["FREATICA","TEMPACQUA"],"latest":{"FREATICA":22.29,"TEMPACQUA":11.5},"latest_time":"2026-10-10T01:00","series":"series/23350GW.csv"}},{"type":"Feature","geometry":{"type":"Point","coordinates":[11.219198,46.546421]},"properties":{"scode":"27930GW","name":"Nalles nord segheria","variables":["FREATICA","TEMPACQUA"],"latest":{"FREATICA":3.52,"TEMPACQUA":12.6},"latest_time":"2026-10-10T13:00","series":"series/27930GW.csv"}},{"type":"Feature","geometry":{"type":"Point","coordinates":[11.219197,46.546403]},"properties":{"scode":"27935GW","name":"Nalles sud-segheria","variables":["FREATICA","TEMPACQUA"],"latest":{"FREATICA":2.14,"TEMPACQUA":12.5},"latest_time":"2026-10-10T01:00","series":"series/27935GW.csv"}},{"type":"Feature","geometry":{"type":"Point","coordinates":[10.9912,46.6478]},"properties":{"scode":"19350GW","name":"Naturno","variables":["FREATICA","TEMPACQUA"],"latest":{"FREATICA":7.46,"TEMPACQUA":10.1},"latest_time":"2026-10-10T01:00","series":"series/19350GW.csv"}},{"type":"Feature","geometry":{"type":"Point","coordinates":[11.259151,46.30538]},"properties":{"scode":"87940GW","name":"Egna Stiermoos-bis","variables":["FREATICA","TEMPACQUA"],"latest":{"FREATICA":1.4,"TEMPACQUA":14.1},"latest_time":"2026-10-10T13:00","series":"series/87940GW.csv"}},{"type":"Feature","geometry":{"type":"Point","coordinates":[10.6108,46.6199]},"properties":{"scode":"08105GW","name":"Prato allo Stelvio","variables":["FREATICA","TEMPACQUA"],"latest":{"FREATICA":2.31,"TEMPACQUA":9.7},"latest_time":"2026-10-10T13:00","series":"series/08105GW.csv"}},{"type":"Feature","geometry":{"type":"Point","coordinates":[11.199431,46.243394]},"properties":{"scode":"89935GW","name":"Salorno stazione","variables":["FREATICA","TEMPACQUA"],"latest":{"FREATICA":3.69,"TEMPACQUA":13.2},"latest_time":"2026-10-10T13:00","series":"series/89935GW.csv"}},{"type":"Feature","geometry":{"type":"Point","coordinates":[11.1774175,46.64772]},"properties":{"scode":"23605GW","name":"Sinigo","variables":["FREATICA","TEMPACQUA"],"latest":{"FREATICA":10.09,"TEMPACQUA":13.3},"latest_time":"2026-10-10T01:00","series":"series/23605GW.csv"}},{"type":"Feature","geometry":{"type":"Point","coordinates":[11.4292,46.897715]},"properties":{"scode":"32615GW","name":"Vipiteno","variables":["FREATICA","TEMPACQUA"],"latest":{"FREATICA":5.95,"TEMPACQUA":10.1},"latest_time":"2026-10-10T13:00","series":"series/32615GW.csv"}},{"type":"Feature","geometry":{"type":"Point","coordinates":[11.24897,46.524159]},"properties":{"scode":"28620GW","name":"Terlano Kuhmoos","variables":["FREATICA"],"latest":{"FREATICA":2.84},"latest_time":"2026-10-10T01:00","series":"series/28620GW.csv"}},{"type":"Feature","geometry":{"type":"Point","coordinates":[11.2278767,46.559284]},"properties":{"scode":"27890GW","name":"Vilpiano vigili del fuoco","variables":["FREATICA","TEMPACQUA"],"latest":{"FREATICA":28.47,"TEMPACQUA":11.1},"latest_time":"2026-10-10T13:00","series":"series/27890GW.csv"}},{"type":"Feature","geometry":{"type":"Point","coordinates":[11.20262,46.24333]},"properties":{"scode":"89940GW","name":"Adige - Salorno","variables":["FREATICA","TEMPACQUA"],"latest":{"FREATICA":6.73,"TEMPACQUA":13.9},"latest_time":"2026-10-10T23:00","series":"series/89940GW.csv"}},{"type":"Feature","geometry":{"type":"Point","coordinates":[11.291736,46.350329]},"properties":{"scode":"86310GW","name":"Ora Termeno","variables":["FREATICA"],"latest":{"FREATICA":10.88},"latest_time":"2026-10-10T01:00","series":"series/86310GW.csv"}},{"type":"Feature","geometry":{"type":"Point","coordinates":[11.345164,46.484357]},"properties":{"scode":"83314GW","name":"Bolzano Parco Mignone","variables":["FREATICA","TEMPACQUA"],"latest":{"FREATICA":16.2,"TEMPACQUA":10.9},"latest_time":"2026-10-10T01:00","series":"series/83314GW.csv"}},{"type":"Feature","geometry":{"type":"Point","coordinates":[11.2035234,46.552675]},"properties":{"scode":"27920GW","name":"Nalles boschetto","variables":["FREATICA","TEMPACQUA"],"latest":{"FREATICA":17.34,"TEMPACQUA":10.4},"latest_time":"2026-10-10T01:00","series":"series/27920GW.csv"}},{"type":"Feature","geometry":{"type":"Point","coordinates":[11.2358845,46.5242805]},"properties":{"scode":"29180GW","name":"Andriano Laghetto","variables":["FREATICA","TEMPACQUA"],"latest":{"FREATICA":7.92,"TEMPACQUA":11.4},"latest_time":"2026-10-10T01:00","series":"series/29180GW.csv"}},{"type":"Feature","geometry":{"type":"Point","coordinates":[11.2273447,46.5191912]},"properties":{"scode":"29190GW","name":"Andriano campo pattinaggio","variables":["FREATICA","TEMPACQUA"],"latest":{"FREATICA":59.01,"TEMPACQUA":10.0},"latest_time":"2026-10-10T01:00","series":"series/29190GW.csv"}},{"type":"Feature","geometry":{"type":"Point","coordinates":[11.2712842,46.4685842]},"properties":{"scode":"29310GW","name":"Appiano Gamberoni","variables":["FREATICA","TEMPACQUA"],"latest":{"FREATICA":49.22,"TEMPACQUA":11.1},"latest_time":"2026-10-10T01:00","series":"series/29310GW.csv"}},{"type":"Feature","geometry":{"type":"Point","coordinates":[11.3282595,46.4913184]},"properties":{"scode":"83042GW","name":"Bolzano Passaggio Nazim Hikmet","variables":["FREATICA","TEMPACQUA"],"latest":{"FREATICA":12.61,"TEMPACQUA":12.4},"latest_time":"2026-10-10T01:00","series":"series/83042GW.csv"}},{"type":"Feature","geometry":{"type":"Point","coordinates":[11.370407,46.4970171]},"properties":{"scode":"79862GW","name":"Bolzano Parco Premstaller","variables":["FREATICA","TEMPACQUA"],"latest":{"FREATICA":22.67,"TEMPACQUA":10.7},"latest_time":"2026-10-10T01:00","series":"series/79862GW.csv"}},{"type":"Feature","geometry":{"type":"Point","coordinates":[11.3488228,46.5072568]},"properties":{"scode":"83005GW","name":"Bolzano Talvera","variables":["FREATICA","TEMPACQUA"],"latest":{"FREATICA":41.4,"TEMPACQUA":10.6},"latest_time":"2026-10-10T01:00","series":"series/83005GW.csv"}},{"type":"Feature","geometry":{"type":"Point","coordinates":[11.3367518,46.4931096]},"properties":{"scode":"83030GW","name":"Bolzano Scuola Ugo Foscolo","variables":["FREATICA","TEMPACQUA"],"latest":{"FREATICA":17.21,"TEMPACQUA":11.5},"latest_time":"2026-10-10T01:00","series":"series/83030GW.csv"}},{"type":"Feature","geometry":{"type":"Point","coordinates":[11.318466,46.4944209]},"properties":{"scode":"83045GW","name":"Bolzano Protezione Civile","variables":["FREATICA","TEMPACQUA"],"latest":{"FREATICA":9.27,"TEMPACQUA":16.2},"latest_time":"2026-10-10T01:00","series":"series/83045GW.csv"}},{"type":"Feature","geometry":{"type":"Point","coordinates":[11.3112646,46.4937759]},"properties":{"scode":"83050GW","name":"Bolzano incrocio Merano","variables":["FREATICA","TEMPACQUA"],"latest":{"FREATICA":5.52,"TEMPACQUA":16.2},"latest_time":"2026-10-10T01:00","series":"series/83050GW.csv"}},{"type":"Feature","geometry":{"type":"Point","coordinates":[11.31737,46.482856]},"properties":{"scode":"83060GW","name":"Bolzano Casanova","variables":["FREATICA","TEMPACQUA"],"latest":{"FREATICA":8.57,"TEMPACQUA":14.8},"latest_time":"2026-10-10T01:00","series":"series/83060GW.csv"}},{"type":"Feature","geometry":{"type":"Point","coordinates":[11.2841418,46.4985868]},"properties":{"scode":"83075GW","name":"Bolzano Mondscheingraben","variables":["FREATICA","TEMPACQUA"],"latest":{"FREATICA":1.84,"TEMPACQUA":19.7},"latest_time":"2026-10-10T13:00","series":"series/83075GW.csv"}},{"type":"Feature","geometry":{"type":"Point","coordinates":[11.329542,46.4308921]},"properties":{"scode":"84405GW","name":"Laives Lido 1","variables":["FREATICA","TEMPACQUA"],"latest":{"FREATICA":1.83,"TEMPACQUA":14.1},"latest_time":"2026-10-10T01:00","series":"series/84405GW.csv"}},{"type":"Feature","geometry":{"type":"Point","coordinates":[11.3155471,46.4052957]},"properties":{"scode":"84445GW","name":"Bronzolo Carli","variables":["FREATICA","TEMPACQUA"],"latest":{"FREATICA":1.48,"TEMPACQUA":13.0},"latest_time":"2026-10-10T13:00","series":"series/84445GW.csv"}},{"type":"Feature","geometry":{"type":"Point","coordinates":[11.3162795,46.3728839]},"properties":{"scode":"85900GW","name":"Ora coca cola","variables":["FREATICA","TEMPACQUA"],"latest":{"FREATICA":6.75,"TEMPACQUA":12.8},"latest_time":"2026-10-10T01:00","series":"series/85900GW.csv"}},{"type":"Feature","geometry":{"type":"Point","coordinates":[11.2728674,46.3156147]},"properties":{"scode":"87925GW","name":"Egna scuola","variables":["FREATICA","TEMPACQUA"],"latest":{"FREATICA":8.33,"TEMPACQUA":14.2},"latest_time":"2026-10-10T13:00","series":"series/87925GW.csv"}},{"type":"Feature","geometry":{"type":"Point","coordinates":[11.2649016,46.3048286]},"properties":{"scode":"87935GW","name":"Egna Stiermoos","variables":["FREATICA","TEMPACQUA"],"latest":{"FREATICA":1.84,"TEMPACQUA":15.6},"latest_time":"2026-10-10T01:00","series":"series/87935GW.csv"}},{"type":"Feature","geometry":{"type":"Point","coordinates":[11.382872,46.493952]},"properties":{"scode":"79770GW","name":"Bolzano Mila","variables":["FREATICA","TEMPACQUA"],"latest":{"FREATICA":11.34,"TEMPACQUA":12.9},"latest_time":"2026-10-10T01:00","series":"series/79770GW.csv"}},{"type":"Feature","geometry":{"type":"Point","coordinates":[11.354633,46.501316]},"properties":{"scode":"79870GW","name":"Bolzano Scuola Parco Madonna","variables":["FREATICA","TEMPACQUA"],"latest":{"FREATICA":30.94,"TEMPACQUA":10.6},"latest_time":"2026-10-10T13:00","series":"series/79870GW.csv"}},{"type":"Feature","geometry":{"type":"Point","coordinates":[11.3380963,46.5047935]},"properties":{"scode":"83015GW","name":"Bolzano Palazzo ducale","variables":["FREATICA","TEMPACQUA"],"latest":{"FREATICA":29.85,"TEMPACQUA":12.1},"latest_time":"2026-10-10T13:00","series":"series/83015GW.csv"}},{"type":"Feature","geometry":{"type":"Point","coordinates":[11.329156,46.4743597]},"properties":{"scode":"83330GW","name":"Bolzano Luis Braille","variables":["FREATICA","TEMPACQUA"],"latest":{"FREATICA":8.24,"TEMPACQUA":14.7},"latest_time":"2026-10-10T01:00","series":"series/83330GW.csv"}},{"type":"Feature","geometry":{"type":"Point","coordinates":[11.3344923,46.4599578]},"properties":{"scode":"83370GW","name":"Laives chiesa S.Giacomo","variables":["FREATICA","TEMPACQUA"],"latest":{"FREATICA":3.46,"TEMPACQUA":11.7},"latest_time":"2026-10-10T20:00","series":"series/83370GW.csv"}},{"type":"Feature","geometry":{"type":"Point","coordinates":[11.2014219,46.2380365]},"properties":{"scode":"88815GW","name":"Salorno depuratore","variables":["FREATICA","TEMPACQUA"],"latest":{"FREATICA":3.0,"TEMPACQUA":12.5},"latest_time":"2026-10-10T13:00","series":"series/88815GW.csv"}},{"type":"Feature","geometry":{"type":"Point","coordinates":[11.2445373,46.3079664]},"properties":{"scode":"89730GW","name":"Cortaccia Egna 3","variables":["FREATICA","TEMPACQUA"],"latest":{"FREATICA":2.05,"TEMPACQUA":13.4},"latest_time":"2026-10-10T19:00","series":"series/89730GW.csv"}},{"type":"Feature","geometry":{"type":"Point","coordinates":[11.35032,46.49525]},"properties":{"scode":"79875GW","name":"Bolzano via Marconi-via Dante","variables":["FREATICA","TEMPACQUA"],"latest":{"FREATICA":21.2,"TEMPACQUA":10.7},"latest_time":"2026-10-10T20:00","series":"series/79875GW.csv"}},{"type":"Feature","geometry":{"type":"Point","coordinates":[11.3111,46.45127]},"properties":{"scode":"83380GW","name":"Bozen Gruzzen Tomasini","variables":["FREATICA","TEMPACQUA"],"latest":{"FREATICA":1.28,"TEMPACQUA":10.3},"latest_time":"2026-10-10T13:00","series":"series/83380GW.csv"}},{"type":"Feature","geometry":{"type":"Point","coordinates":[11.3306,46.4828]},"properties":{"scode":"83320GW","name":"Bolzano via Siemens","variables":["FREATICA","TEMPACQUA"],"latest":{"FREATICA":12.52,"TEMPACQUA":13.5},"latest_time":"2026-10-10T01:00","series":"series/83320GW.csv"}},{"type":"Feature","geometry":{"type":"Point","coordinates":[11.940887,46.808022]},"properties":{"scode":"59500GW","name":"S.Giorgio Brunico","variables":["FREATICA","TEMPACQUA"],"latest":{"FREATICA":7.67,"TEMPACQUA":12.0},"latest_time":"2026-10-09T13:00","series":"series/59500GW.csv"}},{"type":"Feature","geometry":{"type":"Point","coordinates":[11.3232708,46.475472]},"properties":{"scode":"83325GW","name":"Bolzano Giovanni di Vittorio","variables":["FREATICA","TEMPACQUA"],"latest":{"FREATICA":9.75,"TEMPACQUA":9.4},"latest_time":"2026-10-10T13:00","series":"series/83325GW.csv"}},{"type":"Feature","geometry":{"type":"Point","coordinates":[11.2856585,46.4771536]},"properties":{"scode":"29320GW","name":"Eppan Frangart Pillhof","variables":["FREATICA","TEMPACQUA"],"latest":{"FREATICA":17.46,"TEMPACQUA":11.6},"latest_time":"2026-10-10T13:00","series":"series/29320GW.csv"}},{"type":"Feature","geometry":{"type":"Point","coordinates":[11.2643147,46.517205]},"properties":{"scode":"28630GW","name":"Terlano Chiusa","variables":["FREATICA","TEMPACQUA"],"latest":{"FREATICA":22.49,"TEMPACQUA":13.3},"latest_time":"2026-10-10T13:00","series":"series/28630GW.csv"}},{"type":"Feature","geometry":{"type":"Point","coordinates":[11.3361275,46.4226192]},"properties":{"scode":"84430GW","name":"Laives via Vigneto","variables":["FREATICA","TEMPACQUA"],"latest":{"FREATICA":24.5,"TEMPACQUA":11.7},"latest_time":"2026-10-10T13:00","series":"series/84430GW.csv"}},{"type":"Feature","geometry":{"type":"Point","coordinates":[11.65283,46.714083]},"properties":{"scode":"69420GW","name":"Bressanone giardino universitá","variables":["FREATICA","TEMPACQUA"],"latest":{"FREATICA":5.41,"TEMPACQUA":13.1},"latest_time":"2026-10-10T15:00","series":"series/69420GW.csv"}},{"type":"Feature","geometry":{"type":"Point","coordinates":[11.3300229,46.4649853]},"properties":{"scode":"83365GW","name":"Bolzano aeroporto","variables":["FREATICA","TEMPACQUA"],"latest":{"FREATICA":5.26,"TEMPACQUA":14.9},"latest_time":"2026-10-10T12:00","series":"series/83365GW.csv"}},{"type":"Feature","geometry":{"type":"Point","coordinates":[12.070879,46.9595391]},"properties":{"scode":"54650PG","name":"Rio Dossi - Riva di Tures","variables":["LIVIDRO"],"latest":{"LIVIDRO":11.0},"latest_time":"2026-10-10T23:00","series":"series/54650PG.csv"}},{"type":"Feature","geometry":{"type":"Point","coordinates":[11.2625418,46.3165756]},"properties":{"scode":"87910PG","name":"Adige - Egna","variables":["LIVIDRO","TEMPACQUA"],"latest":{"LIVIDRO":72.0,"TEMPACQUA":12.9},"latest_time":"2026-10-10T23:00","series":"series/87910PG.csv"}},{"type":"Feature","geometry":{"type":"Point","coordinates":[11.07961,46.67202]},"properties":{"scode":"19850PG","name":"ADIGE A TEL","variables":["LIVIDRO","PORTATA","TEMPACQUA"],"latest":{"LIVIDRO":151.0,"PORTATA":34.1,"TEMPACQUA":9.8},"latest_time":"2026-10-10T23:00","series":"series/19850PG.csv"}},{"type":"Feature","geometry":{"type":"Point","coordinates":[11.30381,46.48316]},"properties":{"scode":"29850PG","name":"ADIGE A PONTE ADIGE","variables":["LIVIDRO","PORTATA","SOLIDI","TEMPACQUA"],"latest":{"LIVIDRO":174.0,"PORTATA":34.4,"SOLIDI":58.5,"TEMPACQUA":12.8},"latest_time":"2026-10-10T23:00","series":"series/29850PG.csv"}},{"type":"Feature","geometry":{"type":"Point","coordinates":[12.11496,46.7514]},"properties":{"scode":"43350PG","name":"RIENZA A  MONGUELFO (tratto derivato)","variables":["LIVIDRO","TEMPACQUA"],"latest":{"LIVIDRO":74.0,"TEMPACQUA":8.1},"latest_time":"2026-10-10T23:00","series":"series/43350PG.csv"}},{"type":"Feature","geometry":{"type":"Point","coordinates":[11.93472,46.81704]},"properties":{"scode":"59450PG","name":"AURINO A S. GIORGIO","variables":["LIVIDRO","PORTATA","SOLIDI","TEMPACQUA"],"latest":{"LIVIDRO":94.0,"PORTATA":10.5,"SOLIDI":3.0,"TEMPACQUA":9.8},"latest_time":"2026-10-10T23:00","series":"series/59450PG.csv"}},{"type":"Feature","geometry":{"type":"Point","coordinates":[11.87967,46.7761]},"properties":{"scode":"64550PG","name":"GADERA A MANTANA","variables":["LIVIDRO","PORTATA","SOLIDI","TEMPACQUA"],"latest":{"LIVIDRO":101.0,"PORTATA":4.26,"SOLIDI":28.0,"TEMPACQUA":9.1},"latest_time":"2026-10-10T23:00","series":"series/64550PG.csv"}},{"type":"Feature","geometry":{"type":"Point","coordinates":[11.70816,46.81555]},"properties":{"scode":"67350PG","name":"RIENZA A VANDOIES","variables":["LIVIDRO","PORTATA","SOLIDI","TEMPACQUA"],"latest":{"LIVIDRO":38.0,"PORTATA":17.8,"SOLIDI":7.0,"TEMPACQUA":9.9},"latest_time":"2026-10-10T23:00","series":"series/67350PG.csv"}},{"type":"Feature","geometry":{"type":"Point","coordinates":[11.6572,46.70738]},"properties":{"scode":"69790PG","name":"ISARCO A BRESSANONE","variables":["LIVIDRO","PORTATA","TEMPACQUA"],"latest":{"LIVIDRO":122.0,"PORTATA":36.1,"TEMPACQUA":10.6},"latest_time":"2026-10-10T23:00","series":"series/69790PG.csv"}},{"type":"Feature","geometry":{"type":"Point","coordinates":[11.31525,46.41368]},"properties":{"scode":"85550PG","name":"ADIGE A BRONZOLO","variables":["LIVIDRO","PORTATA","TEMPACQUA"],"latest":{"LIVIDRO":121.6,"PORTATA":75.34,"TEMPACQUA":11.8},"latest_time":"2026-10-10T23:00","series":"series/85550PG.csv"}},{"type":"Feature","geometry":{"type":"Point","coordinates":[10.60352,46.63648]},"properties":{"scode":"05950PG","name":"ADIGE A SPONDIGNA","variables":["LIVIDRO","PORTATA","TEMPACQUA"],"latest":{"LIVIDRO":51.0,"PORTATA":7.87,"TEMPACQUA":10.6},"latest_time":"2026-10-10T23:00","series":"series/05950PG.csv"}},{"type":"Feature","geometry":{"type":"Point","coordinates":[11.63623,46.58271]},"properties":{"scode":"73950PG","name":"RIO GARDENA A PONTIVES","variables":["LIVIDRO","PORTATA","TEMPACQUA"],"latest":{"LIVIDRO":25.0,"PORTATA":1.65,"TEMPACQUA":7.5},"latest_time":"2026-10-10T23:00","series":"series/73950PG.csv"}},{"type":"Feature","geometry":{"type":"Point","coordinates":[11.47787,46.8707]},"properties":{"scode":"37230PG","name":"ISARCO A CAMPO DI TRENS","variables":["LIVIDRO","PORTATA","SOLIDI","TEMPACQUA"],"latest":{"LIVIDRO":97.0,"PORTATA":6.37,"SOLIDI":8.7,"TEMPACQUA":8.4},"latest_time":"2026-10-10T23:00","series":"series/37230PG.csv"}},{"type":"Feature","geometry":{"type":"Point","coordinates":[11.92169,46.79152]},"properties":{"scode":"61050PG","name":"RIENZA A STEGONA","variables":["LIVIDRO","PORTATA","TEMPACQUA"],"latest":{"LIVIDRO":126.0,"PORTATA":12.1,"TEMPACQUA":9.5},"latest_time":"2026-10-10T23:00","series":"series/61050PG.csv"}},{"type":"Feature","geometry":{"type":"Point","coordinates":[11.35018,46.50977]},"properties":{"scode":"82910PG","name":"TALVERA A BOLZANO","variables":["LIVIDRO","PORTATA","TEMPACQUA"],"latest":{"LIVIDRO":20.0,"PORTATA":2.39,"TEMPACQUA":11.3},"latest_time":"2026-10-10T23:00","series":"series/82910PG.csv"}},{"type":"Feature","geometry":{"type":"Point","coordinates":[11.30278,46.45877]},"properties":{"scode":"83450PG","name":"ISARCO A BOLZANO SUD","variables":["LIVIDRO","PORTATA","SOLIDI","TEMPACQUA"],"latest":{"LIVIDRO":145.0,"PORTATA":54.08,"SOLIDI":10.0,"TEMPACQUA":11.6},"latest_time":"2026-10-10T23:00","series":"series/83450PG.csv"}},{"type":"Feature","geometry":{"type":"Point","coordinates":[11.17721,46.68396]},"properties":{"scode":"22950PG","name":"PASSIRIO A MERANO","variables":["LIVIDRO","PORTATA","TEMPACQUA"],"latest":{"LIVIDRO":22.0,"PORTATA":3.274,"TEMPACQUA":11.5},"latest_time":"2026-10-10T23:00","series":"series/22950PG.csv"}},{"type":"Feature","geometry":{"type":"Point","coordinates":[10.5239,46.67082]},"properties":{"scode":"03750PG","name":"RIO RAM A LAUDES","variables":["LIVIDRO","PORTATA","TEMPACQUA"],"latest":{"LIVIDRO":19.0,"PORTATA":2.53,"TEMPACQUA":8.2},"latest_time":"2026-10-10T23:00","series":"series/03750PG.csv"}},{"type":"Feature","geometry":{"type":"Point","coordinates":[12.13444,46.73912]},"properties":{"scode":"42850PG","name":"RIO BRAIES A BRAIES DI FUORI","variables":["LIVIDRO","PORTATA","TEMPACQUA"],"latest":{"LIVIDRO":15.0,"PORTATA":0.855,"TEMPACQUA":7.8},"latest_time":"2026-10-10T23:00","series":"series/42850PG.csv"}},{"type":"Feature","geometry":{"type":"Point","coordinates":[11.10271,46.80145]},"properties":{"scode":"20750PG","name":"RIO PLAN A ESCHBAUM","variables":["LIVIDRO","PORTATA","TEMPACQUA"],"latest":{"LIVIDRO":35.0,"PORTATA":0.67,"TEMPACQUA":7.2},"latest_time":"2026-10-10T23:00","series":"series/20750PG.csv"}},{"type":"Feature","geometry":{"type":"Point","coordinates":[11.16523,46.62764]},"properties":{"scode":"26950PG","name":"VALSURA A LANA","variables":["LIVIDRO","PORTATA","TEMPACQUA"],"latest":{"LIVIDRO":42.0,"PORTATA":0.71,"TEMPACQUA":13.2},"latest_time":"2026-10-10T23:00","series":"series/26950PG.csv"}},{"type":"Feature","geometry":{"type":"Point","coordinates":[12.1702072,46.7670221]},"properties":{"scode":"45750PG","name":"Rio Casies - Colle","variables":["LIVIDRO","TEMPACQUA"],"latest":{"LIVIDRO":62.0,"TEMPACQUA":3.6},"latest_time":"2026-10-10T23:00","series":"series/45750PG.csv"}},{"type":"Feature","geometry":{"type":"Point","coordinates":[11.4383143,46.9382492]},"properties":{"scode":"31950PG","name":"Rio Fleres - Colle Isarco","variables":["LIVIDRO"],"latest":{"LIVIDRO":17.0},"latest_time":"2026-10-10T23:00","series":"series/31950PG.csv"}},{"type":"Feature","geometry":{"type":"Point","coordinates":[11.6776653,46.6403087]},"properties":{"scode":"71550PG","name":"Rio Funes - S.Pietro","variables":["LIVIDRO","TEMPACQUA"],"latest":{"LIVIDRO":4.6,"TEMPACQUA":8.0},"latest_time":"2026-10-10T23:00","series":"series/71550PG.csv"}},{"type":"Feature","geometry":{"type":"Point","coordinates":[11.3820476,46.883035]},"properties":{"scode":"35850PG","name":"Rio Racines - Stanghe","variables":["LIVIDRO"],"latest":{"LIVIDRO":13.0},"latest_time":"2026-10-10T23:00","series":"series/35850PG.csv"}},{"type":"Feature","geometry":{"type":"Point","coordinates":[11.4128063,46.8819855]},"properties":{"scode":"36250PG","name":"Rio Giovo - Casateia","variables":["LIVIDRO","TEMPACQUA"],"latest":{"LIVIDRO":15.0,"TEMPACQUA":7.8},"latest_time":"2026-10-10T23:00","series":"series/36250PG.csv"}},{"type":"Feature","geometry":{"type":"Point","coordinates":[11.442841,46.892976]},"properties":{"scode":"32470PG","name":"ISARCO A VIPITENO","variables":["LIVIDRO","PORTATA","TEMPACQUA"],"latest":{"LIVIDRO":52.0,"PORTATA":1.9,"TEMPACQUA":9.2},"latest_time":"2026-10-10T23:00","series":"series/32470PG.csv"}},{"type":"Feature","geometry":{"type":"Point","coordinates":[12.082725,46.8227027]},"properties":{"scode":"48750PG","name":"Rio Anterselva - Bagni Salomone","variables":["LIVIDRO","TEMPACQUA"],"latest":{"LIVIDRO":28.0,"TEMPACQUA":9.2},"latest_time":"2026-10-10T23:00","series":"series/48750PG.csv"}},{"type":"Feature","geometry":{"type":"Point","coordinates":[11.9654319,46.914128]},"properties":{"scode":"54970PG","name":"Rio Riva - Caminata","variables":["LIVIDRO","TEMPACQUA"],"latest":{"LIVIDRO":22.0,"TEMPACQUA":8.5},"latest_time":"2026-10-10T23:00","series":"series/54970PG.csv"}},{"type":"Feature","geometry":{"type":"Point","coordinates":[11.3929643,46.4913737]},"properties":{"scode":"78970PG","name":"Rio Ega - Cardano","variables":["LIVIDRO"],"latest":{"LIVIDRO":10.1},"latest_time":"2026-10-10T23:00","series":"series/78970PG.csv"}},{"type":"Feature","geometry":{"type":"Point","coordinates":[10.55062,46.59298]},"properties":{"scode":"07770PG","name":"RIO SOLDA - PONTE STELVIO","variables":["LIVIDRO","PORTATA","SOLIDI","TEMPACQUA"],"latest":{"LIVIDRO":94.0,"PORTATA":3.0,"SOLIDI":47.3,"TEMPACQUA":6.0},"latest_time":"2026-10-10T23:00","series":"series/07770PG.csv"}},{"type":"Feature","geometry":{"type":"Point","coordinates":[11.3702848,46.3342461]},"properties":{"scode":"87550PG","name":"Rio Nero - Fontanefredde","variables":["LIVIDRO","TEMPACQUA"],"latest":{"LIVIDRO":41.0,"TEMPACQUA":9.6},"latest_time":"2026-10-10T23:00","series":"series/87550PG.csv"}},{"type":"Feature","geometry":{"type":"Point","coordinates":[11.9561,46.9035]},"properties":{"scode":"57150PG","name":"AURINO A CAMINATA","variables":["LIVIDRO","PORTATA","TEMPACQUA"],"latest":{"LIVIDRO":76.0,"PORTATA":6.24,"TEMPACQUA":8.7},"latest_time":"2026-10-10T23:00","series":"series/57150PG.csv"}},{"type":"Feature","geometry":{"type":"Point","coordinates":[11.1457138,46.657323]},"properties":{"scode":"23570PG","name":"Adige - Marlengo","variables":["LIVIDRO","TEMPACQUA"],"latest":{"LIVIDRO":46.0,"TEMPACQUA":10.3},"latest_time":"2026-10-10T23:00","series":"series/23570PG.csv"}},{"type":"Feature","geometry":{"type":"Point","coordinates":[11.20262,46.243333]},"properties":{"scode":"89940PG","name":"ADIGE A SALORNO","variables":["LIVIDRO","PORTATA","SOLIDI","TEMPACQUA"],"latest":{"LIVIDRO":145.0,"PORTATA":65.466,"SOLIDI":36.0,"TEMPACQUA":13.0},"latest_time":"2026-10-10T23:00","series":"series/89940PG.csv"}},{"type":"Feature","geometry":{"type":"Point","coordinates":[10.64963,46.621876]},"properties":{"scode":"08155PG","name":"ADIGE A ORIS","variables":["LIVIDRO","PORTATA","TEMPACQUA"],"latest":{"LIVIDRO":89.0,"PORTATA":14.3,"TEMPACQUA":9.9},"latest_time":"2026-10-10T23:00","series":"series/08155PG.csv"}},{"type":"Feature","geometry":{"type":"Point","coordinates":[12.3602,46.7386]},"properties":{"scode":"91950PG","name":"DRAVA A PRATO ALLA DRAVA","variables":["LIVIDRO","PORTATA","TEMPACQUA"],"latest":{"LIVIDRO":31.0,"PORTATA":1.67,"TEMPACQUA":8.4},"latest_time":"2026-10-10T23:00","series":"series/91950PG.csv"}},{"type":"Feature","geometry":{"type":"Point","coordinates":[11.44785,46.88123]},"properties":{"scode":"36770PG","name":"RIO RIDANNA - PRUNO","variables":["LIVIDRO","PORTATA","TEMPACQUA"],"latest":{"LIVIDRO":172.0,"PORTATA":2.84,"TEMPACQUA":9.0},"latest_time":"2026-10-10T23:00","series":"series/36770PG.csv"}},{"type":"Feature","geometry":{"type":"Point","coordinates":[11.525939,46.9337745]},"properties":{"scode":"33550PG","name":"Rio Vizze - Novale","variables":["LIVIDRO","TEMPACQUA"],"latest":{"LIVIDRO":60.0,"TEMPACQUA":7.8},"latest_time":"2026-10-10T23:00","series":"series/33550PG.csv"}},{"type":"Feature","geometry":{"type":"Point","coordinates":[11.291037,46.3544385]},"properties":{"scode":"86550PG","name":"Fossa grande di Bornzolo","variables":["LIVIDRO","TEMPACQUA"],"latest":{"LIVIDRO":3.0,"TEMPACQUA":14.1},"latest_time":"2026-10-10T23:00","series":"series/86550PG.csv"}},{"type":"Feature","geometry":{"type":"Point","coordinates":[11.98027,46.99459]},"properties":{"scode":"51450PG","name":"AURINO A CADIPIETRA","variables":["LIVIDRO","PORTATA","TEMPACQUA"],"latest":{"LIVIDRO":56.9,"PORTATA":2.52,"TEMPACQUA":8.0},"latest_time":"2026-10-10T23:00","series":"series/51450PG.csv"}},{"type":"Feature","geometry":{"type":"Point","coordinates":[11.896249,46.6070351]},"properties":{"scode":"61750PG","name":"Gadera - Pedraces","variables":["LIVIDRO","TEMPACQUA"],"latest":{"LIVIDRO":38.0,"TEMPACQUA":6.8},"latest_time":"2026-10-10T23:00","series":"series/61750PG.csv"}},{"type":"Feature","geometry":{"type":"Point","coordinates":[12.3536345,46.6983197]},"properties":{"scode":"91350PG","name":"Rio Sesto - Sesto","variables":["LIVIDRO","TEMPACQUA"],"latest":{"LIVIDRO":30.8,"TEMPACQUA":5.9},"latest_time":"2026-10-10T23:00","series":"series/91350PG.csv"}},{"type":"Feature","geometry":{"type":"Point","coordinates":[11.8926748,46.721218]},"properties":{"scode":"63870PG","name":"Rio S.Vigilio - Longega","variables":["LIVIDRO","TEMPACQUA"],"latest":{"LIVIDRO":26.0,"TEMPACQUA":6.8},"latest_time":"2026-10-10T23:00","series":"series/63870PG.csv"}},{"type":"Feature","geometry":{"type":"Point","coordinates":[11.4638144,46.9636572]},"properties":{"scode":"30350PG","name":"Isarco - Terme di Brennero","variables":["LIVIDRO","TEMPACQUA"],"latest":{"LIVIDRO":27.8,"TEMPACQUA":9.6},"latest_time":"2026-10-10T23:00","series":"series/30350PG.csv"}},{"type":"Feature","geometry":{"type":"Point","coordinates":[12.162387,46.883812]},"properties":{"scode":"47150SE","name":"Lago di Anterselva","variables":["LIVIDRO","TEMPACQUA"],"latest":{"LIVIDRO":55.4,"TEMPACQUA":10.5},"latest_time":"2026-10-10T13:00","series":"series/47150SE.csv"}},{"type":"Feature","geometry":{"type":"Point","coordinates":[11.575478,46.40997]},"properties":{"scode":"78150SE","name":"Lago di Carezza","variables":["LIVIDRO","TEMPACQUA"],"latest":{"LIVIDRO":664.0,"TEMPACQUA":6.1},"latest_time":"2026-10-10T13:00","series":"series/78150SE.csv"}},{"type":"Feature","geometry":{"type":"Point","coordinates":[11.257464,46.36426]},"properties":{"scode":"89357PG","name":"Grosser Kalterergraben","variables":["LIVIDRO","TEMPACQUA"],"latest":{"LIVIDRO":489.8,"TEMPACQUA":19.0},"latest_time":"2026-10-10T23:00","series":"series/89357PG.csv"}},{"type":"Feature","geometry":{"type":"Point","coordinates":[10.67675,46.47625]},"properties":{"scode":"10750PG","name":"Plimabach - Zufallhütte","variables":["LIVIDRO","PORTATA","TEMPACQUA"],"latest":{"LIVIDRO":65.1,"PORTATA":1.16,"TEMPACQUA":2.7},"latest_time":"2026-10-10T23:00","series":"series/10750PG.csv"}},{"type":"Feature","geometry":{"type":"Point","coordinates":[10.80693,46.73321]},"properties":{"scode":"15570PG","name":"Rio Senales - Gerstgras","variables":["LIVIDRO","TEMPACQUA"],"latest":{"LIVIDRO":29.0,"TEMPACQUA":5.3},"latest_time":"2026-10-10T23:00","series":"series/15570PG.csv"}},{"type":"Feature","geometry":{"type":"Point","coordinates":[11.164403,46.495892]},"properties":{"scode":"90150SE","name":"Lago di Tret","variables":["LIVIDRO","TEMPACQUA"],"latest":{"LIVIDRO":401.0,"TEMPACQUA":11.6},"latest_time":"2026-10-10T23:00","series":"series/90150SE.csv"}},{"type":"Feature","geometry":{"type":"Point","coordinates":[10.96585,46.64555]},"properties":{"scode":"14750PG","name":"Adige – Stava","variables":["LIVIDRO","TEMPACQUA"],"latest":{"LIVIDRO":165.3,"TEMPACQUA":10.3},"latest_time":"2026-10-10T23:00","series":"series/14750PG.csv"}},{"type":"Feature","geometry":{"type":"Point","coordinates":[10.6476305,46.7118043]},"properties":{"scode":"04450PG","name":"Rio Saldura - Mazia","variables":["LIVIDRO","TEMPACQUA"],"latest":{"LIVIDRO":29.3,"TEMPACQUA":5.3},"latest_time":"2026-10-10T23:00","series":"series/04450PG.csv"}},{"type":"Feature","geometry":{"type":"Point","coordinates":[11.2331331,46.9495827]},"properties":{"scode":"34150PG","name":"Rio Piana - Rifugio Vedretta Piana","variables":["LIVIDRO","TEMPACQUA"],"latest":{"LIVIDRO":11.2,"TEMPACQUA":3.2},"latest_time":"2026-10-10T23:00","series":"series/34150PG.csv"}},{"type":"Feature","geometry":{"type":"Point","coordinates":[11.1800848,46.6370453]},"properties":{"scode":"23750PG","name":"Torrente Sinigo - Sinigo","variables":["LIVIDRO","TEMPACQUA"],"latest":{"LIVIDRO":12.0,"TEMPACQUA":12.6},"latest_time":"2026-10-10T23:00","series":"series/23750PG.csv"}},{"type":"Feature","geometry":{"type":"Point","coordinates":[11.524364,46.524058]},"properties":{"scode":"75510SE","name":"Laghetto di Fiè","variables":["LIVIDRO","TEMPACQUA"],"latest":{"LIVIDRO":0.0,"TEMPACQUA":15.2},"latest_time":"2026-10-10T23:00","series":"series/75510SE.csv"}},{"type":"Feature","geometry":{"type":"Point","coordinates":[11.427694,46.521128]},"properties":{"scode":"79450SE","name":"Lago di Costalovara","variables":["LIVIDRO","TEMPACQUA"],"latest":{"LIVIDRO":193.4,"TEMPACQUA":15.8},"latest_time":"2026-10-04T08:00","series":"series/79450SE.csv"}},{"type":"Feature","geometry":{"type":"Point","coordinates":[10.534527,46.74954]},"properties":{"scode":"02250SE","name":"Lago di S.Valentino alla Muta","variables":["LIVIDRO","TEMPACQUA"],"latest":{"LIVIDRO":69.6,"TEMPACQUA":14.5},"latest_time":"2026-10-05T09:00","series":"series/02250SE.csv"}},{"type":"Feature","geometry":{"type":"Point","coordinates":[11.259267,46.385859]},"properties":{"scode":"89355SE","name":"Lago di Caldaro","variables":["LIVIDRO","TEMPACQUA"],"latest":{"LIVIDRO":65.5,"TEMPACQUA":18.5},"latest_time":"2026-10-05T10:00","series":"series/89355SE.csv"}},{"type":"Feature","geometry":{"type":"Point","coordinates":[11.184085,46.27422]},"properties":{"scode":"89950SE","name":"Lago di Favogna","variables":["LIVIDRO","TEMPACQUA"],"latest":{"LIVIDRO":207.0,"TEMPACQUA":17.1},"latest_time":"2026-10-04T10:00","series":"series/89950SE.csv"}},{"type":"Feature","geometry":{"type":"Point","coordinates":[11.294289,46.430474]},"properties":{"scode":"89055SE","name":"Lago Piccolo di Monticolo","variables":["LIVIDRO","TEMPACQUA"],"latest":{"LIVIDRO":71.0,"TEMPACQUA":19.3},"latest_time":"2026-10-10T19:00","series":"series/89055SE.csv"}},{"type":"Feature","geometry":{"type":"Point","coordinates":[11.634545,46.766315]},"properties":{"scode":"39050SE","name":"Lago di Varna","variables":["LIVIDRO","TEMPACQUA"],"latest":{"LIVIDRO":89.0,"TEMPACQUA":16.0},"latest_time":"2026-10-08T20:00","series":"series/39050SE.csv"}},{"type":"Feature","geometry":{"type":"Point","coordinates":[12.083374,46.69598]},"properties":{"scode":"42150SE","name":"Lago di Braies","variables":["LIVIDRO","TEMPACQUA"],"latest":{"LIVIDRO":-3.2,"TEMPACQUA":11.1},"latest_time":"2026-10-10T13:00","series":"series/42150SE.csv"}},{"type":"Feature","geometry":{"type":"Point","coordinates":[10.7647,46.7847]},"properties":{"scode":"15000SF","name":"Senales Teufelsegg","variables":["CDD","ET0","GDD","HDD","LIVNEVE","TDEW","TEMP","UMID","VPD"],"latest":{"CDD":0.0,"ET0":0.52,"GDD":0.0,"HDD":18.8,"LIVNEVE":4.7,"TDEW":-3.8,"TEMP":-1.8,"UMID":86.0,"VPD":0.075},"latest_time":"2026-10-10T23:00","series":"series/15000SF.csv"}},{"type":"Feature","geometry":{"type":"Point","coordinates":[10.8224,46.7412]},"properties":{"scode":"15590SF","name":"Senales Finale","variables":["CDD","ET0","GDD","HDD","LIVNEVE","TDEW","TEMP","UMID","VPD"],"latest":{"CDD":0.0,"ET0":0.76,"GDD":0.0,"HDD":12.4,"LIVNEVE":5.6,"TDEW":2.6,"TEMP":5.1,"UMID":83.7,"VPD":0.143},"latest_time":"2026-10-10T23:00","series":"series/15590SF.csv"}},{"type":"Feature","geometry":{"type":"Point","coordinates":[11.305,46.3469]},"properties":{"scode":"86900MS","name":"Ora","variables":["CDD","ET0","GDD","HDD","PREC","PREC24","PREC48","PRESS","PSLM","QSPEC","RADSOL","SOLEGG","TDEW","TEMP","UMID","VPD"],"latest":{"CDD":0.0,"ET0":1.99,"GDD":8.0,"HDD":1.6,"PREC":0.0,"PREC24":-0.0,"PREC48":-0.0,"PRESS":1011.5,"PSLM":1042.0,"QSPEC":8.93,"RADSOL":0.0,"SOLEGG":0.0,"TDEW":12.5,"TEMP":13.3,"UMID":94.8,"VPD":0.079},"latest_time":"2026-10-10T23:00","series":"series/86900MS.csv"}},{"type":"Feature","geometry":{"type":"Point","coordinates":[11.4166,46.78078]},"properties":{"scode":"80300MS","name":"Pennes","variables":["CDD","ET0","GDD","HDD","PREC","PREC24","PREC48","PRESS","PSLM","QSPEC","TDEW","TEMP","UMID","VPD"],"latest":{"CDD":0.0,"ET0":1.32,"GDD":0.0,"HDD":10.1,"PREC":0.0,"PREC24":0.5,"PREC48":0.5,"PRESS":1014.4,"PSLM":1208.9,"QSPEC":5.44,"TDEW":5.2,"TEMP":5.2,"UMID":100.0,"VPD":0.0},"latest_time":"2026-10-10T23:00","series":"series/80300MS.csv"}},{"type":"Feature","geometry":{"type":"Point","coordinates":[11.3068,46.9091]},"properties":{"scode":"34500MS","name":"Ridanna","variables":["CDD","ET0","GDD","HDD","PREC","PREC24","PREC48","PRESS","PSLM","QSPEC","TDEW","TEMP","UMID","VPD"],"latest":{"CDD":0.0,"ET0":0.97,"GDD":0.0,"HDD":9.6,"PREC":0.0,"PREC24":0.6,"PREC48":0.7,"PRESS":1016.8,"PSLM":1197.9,"QSPEC":6.06,"TDEW":6.8,"TEMP":6.8,"UMID":100.1,"VPD":0.0},"latest_time":"2026-10-10T23:00","series":"series/34500MS.csv"}},{"type":"Feature","geometry":{"type":"Point","coordinates":[11.7684,46.5456]},"properties":{"scode":"73500MS","name":"Selva di V. Gardena","variables":["CDD","ET0","GDD","HDD","PREC","PREC24","PREC48","PRESS","PSLM","QSPEC","TDEW","TEMP","UMID","VPD"],"latest":{"CDD":0.0,"ET0":1.3,"GDD":0.0,"HDD":10.3,"PREC":0.0,"PREC24":0.0,"PREC48":0.2,"PRESS":1014.1,"PSLM":1229.3,"QSPEC":5.07,"TDEW":4.2,"TEMP":4.7,"UMID":96.6,"VPD":0.029},"latest_time":"2026-10-10T23:00","series":"series/73500MS.csv"}},{"type":"Feature","geometry":{"type":"Point","coordinates":[10.5213,46.7057]},"properties":{"scode":"02500MS","name":"Monte Maria","variables":["CDD","ET0","GDD","HDD","PREC","PREC24","PREC48","PRESS","PSLM","QSPEC","RADSOL","SOLEGG","TDEW","TEMP","UMID","VPD"],"latest":{"CDD":0.0,"ET0":0.98,"GDD":0.0,"HDD":8.5,"PREC":0.0,"PREC24":1.3,"PREC48":1.3,"PRESS":1013.3,"PSLM":1185.2,"QSPEC":4.5,"RADSOL":0.0,"SOLEGG":0.0,"TDEW":2.5,"TEMP":8.3,"UMID":66.9,"VPD":0.362},"latest_time":"2026-10-10T23:00","series":"series/02500MS.csv"}},{"type":"Feature","geometry":{"type":"Point","coordinates":[10.5953,46.5159]},"properties":{"scode":"06400MS","name":"Solda","variables":["CDD","ET0","GDD","HDD","PREC","PREC24","PREC48","PRESS","PSLM","QSPEC","RADSOL","SOLEGG","TDEW","TEMP","UMID","VPD"],"latest":{"CDD":0.0,"ET0":1.05,"GDD":0.0,"HDD":12.9,"PREC":0.0,"PREC24":0.7,"PREC48":0.7,"PRESS":1015.1,"PSLM":1279.3,"QSPEC":4.31,"RADSOL":0.0,"SOLEGG":0.0,"TDEW":1.9,"TEMP":2.4,"UMID":96.7,"VPD":0.024},"latest_time":"2026-10-10T23:00","series":"series/06400MS.csv"}},{"type":"Feature","geometry":{"type":"Point","coordinates":[10.8318,46.4868]},"properties":{"scode":"24400MS","name":"Ultimo Fontana Bianca","variables":["CDD","ET0","GDD","HDD","PREC","PREC24","PREC48","PRESS","PSLM","QSPEC","RADSOL","SOLEGG","TDEW","TEMP","UMID","VPD"],"latest":{"CDD":0.0,"ET0":1.13,"GDD":0.0,"HDD":11.7,"PREC":0.0,"PREC24":0.4,"PREC48":0.4,"PRESS":1014.2,"PSLM":1275.4,"QSPEC":3.95,"RADSOL":0.0,"SOLEGG":0.0,"TDEW":0.7,"TEMP":4.0,"UMID":79.0,"VPD":0.171},"latest_time":"2026-10-10T23:00","series":"series/24400MS.csv"}},{"type":"Feature","geometry":{"type":"Point","coordinates":[11.5366,46.4289]},"properties":{"scode":"78305MS","name":"Nova Levante","variables":["CDD","ET0","GDD","HDD","PREC","PREC24","PREC48","PRESS","PSLM","QSPEC","RADSOL","SOLEGG","TDEW","TEMP","UMID","VPD"],"latest":{"CDD":0.0,"ET0":1.58,"GDD":1.0,"HDD":7.0,"PREC":0.0,"PREC24":0.0,"PREC48":0.7,"PRESS":1014.9,"PSLM":1162.6,"QSPEC":5.74,"RADSOL":0.0,"SOLEGG":0.0,"TDEW":6.0,"TEMP":6.8,"UMID":94.5,"VPD":0.054},"latest_time":"2026-10-10T23:00","series":"series/78305MS.csv"}},{"type":"Feature","geometry":{"type":"Point","coordinates":[11.8744,46.8901]},"properties":{"scode":"56500MS","name":"Selva dei Molini","variables":["CDD","ET0","GDD","HDD","PREC","PREC24","PREC48","PRESS","PSLM","QSPEC","TDEW","TEMP","UMID","VPD"],"latest":{"CDD":0.0,"ET0":1.26,"GDD":0.0,"HDD":9.0,"PREC":0.0,"PREC24":0.1,"PREC48":0.1,"PRESS":1014.5,"PSLM":1164.1,"QSPEC":5.69,"TDEW":5.9,"TEMP":6.6,"UMID":95.0,"VPD":0.049},"latest_time":"2026-10-10T23:00","series":"series/56500MS.csv"}},{"type":"Feature","geometry":{"type":"Point","coordinates":[12.1,46.7119]},"properties":{"scode":"42700MS","name":"S. Vito di Braies","variables":["CDD","ET0","GDD","HDD","PREC","PREC24","PREC48","PRESS","PSLM","QSPEC","TDEW","TEMP","UMID","VPD"],"latest":{"CDD":0.0,"ET0":1.46,"GDD":0.0,"HDD":10.2,"PREC":0.0,"PREC24":-0.0,"PREC48":0.1,"PRESS":1016.5,"PSLM":1187.5,"QSPEC":5.39,"TDEW":5.1,"TEMP":5.1,"UMID":100.0,"VPD":0.0},"latest_time":"2026-10-10T23:00","series":"series/42700MS.csv"}},{"type":"Feature","geometry":{"type":"Point","coordinates":[10.8493,46.7357]},"properties":{"scode":"15800MS","name":"Senales Vernago","variables":["CDD","ET0","GDD","HDD","PREC","PREC24","PREC48","PRESS","PSLM","QSPEC","TDEW","TEMP","UMID","VPD"],"latest":{"CDD":0.0,"ET0":1.0,"GDD":0.0,"HDD":10.8,"PREC":0.0,"PREC24":0.8,"PREC48":0.8,"PRESS":1014.5,"PSLM":1244.5,"QSPEC":5.59,"TDEW":5.6,"TEMP":5.6,"UMID":100.1,"VPD":0.0},"latest_time":"2026-10-10T23:00","series":"series/15800MS.csv"}},{"type":"Feature","geometry":{"type":"Point","coordinates":[11.3793,46.9557]},"properties":{"scode":"31410MS","name":"Fleres","variables":["CDD","ET0","GDD","HDD","PREC","PREC24","PREC48","PRESS","PSLM","QSPEC","RADSOL","SOLEGG","TDEW","TEMP","UMID","VPD"],"latest":{"CDD":0.0,"ET0":1.18,"GDD":0.0,"HDD":9.1,"PREC":0.0,"PREC24":0.5,"PREC48":0.5,"PRESS":1013.6,"PSLM":1164.2,"QSPEC":6.27,"RADSOL":0.0,"SOLEGG":0.0,"TDEW":7.3,"TEMP":7.7,"UMID":97.0,"VPD":0.032},"latest_time":"2026-10-10T23:00","series":"series/31410MS.csv"}}]}