{"type":"FeatureCollection","name":"MAR_VEN","features":[{"type":"Feature","geometry":{"type":"Point","coordinates":[12.5147,45.3231]},"properties":{"scode":"1021","name":"Piattaforma Acqua Alta Siap","variables":["CDD","DVENTO","ET0","GDD","HDD","MAREA","ONDE","PRESS","QSPEC","RADSOL","TAPP","TDEW","TEMP","UMID","UWND","VPD","VVENTO","VVENTOMAX","VWND"],"latest":{"CDD":0.0,"DVENTO":33.0,"ET0":1.65,"GDD":9.1,"HDD":0.0,"MAREA":0.45,"ONDE":0.32,"PRESS":1026.6,"QSPEC":9.18,"RADSOL":15.0,"TAPP":17.7,"TDEW":13.1,"TEMP":18.7,"UMID":70.0,"UWND":-1.52,"VPD":0.647,"VVENTO":2.8,"VVENTOMAX":4.0,"VWND":-2.35},"latest_time":"2026-10-04T06:25","series":"series/1021.csv"}},{"type":"Feature","geometry":{"type":"Point","coordinates":[12.3125,45.2283]},"properties":{"scode":"1024","name":"Diga sud Chioggia","variables":["DVENTO","MAREA","UWND","VVENTO","VVENTOMAX","VWND"],"latest":{"DVENTO":351.0,"MAREA":0.45,"UWND":0.5,"VVENTO":3.2,"VVENTOMAX":3.7,"VWND":-3.16},"latest_time":"2026-10-04T06:25","series":"series/1024.csv"}},{"type":"Feature","geometry":{"type":"Point","coordinates":[12.4719,45.4956]},"properties":{"scode":"1028","name":"Laguna nord Saline","variables":["DVENTO","MAREA","UWND","VVENTO","VVENTOMAX","VWND"],"latest":{"DVENTO":2.0,"MAREA":0.39,"UWND":-0.1,"VVENTO":2.8,"VVENTOMAX":4.0,"VWND":-2.8},"latest_time":"2026-10-04T06:25","series":"series/1028.csv"}},{"type":"Feature","geometry":{"type":"Point","coordinates":[12.3361,45.4453]},"properties":{"scode":"1029","name":"Venezia Misericordia","variables":["DVENTO","MAREA","ONDE","UWND","VVENTO","VVENTOMAX","VWND"],"latest":{"DVENTO":358.0,"MAREA":0.46,"ONDE":0.21,"UWND":0.09,"VVENTO":2.7,"VVENTOMAX":3.4,"VWND":-2.7},"latest_time":"2026-10-04T06:25","series":"series/1029.csv"}},{"type":"Feature","geometry":{"type":"Point","coordinates":[12.2919,45.3397]},"properties":{"scode":"1032","name":"Malamocco Porto","variables":["DVENTO","MAREA","UWND","VVENTO","VVENTOMAX","VWND"],"latest":{"DVENTO":17.0,"MAREA":0.43,"UWND":-1.14,"VVENTO":3.9,"VVENTOMAX":4.5,"VWND":-3.73},"latest_time":"2026-10-04T06:25","series":"series/1032.csv"}},{"type":"Feature","geometry":{"type":"Point","coordinates":[12.2806,45.2325]},"properties":{"scode":"1033","name":"Chioggia porto","variables":["DVENTO","MAREA","UWND","VVENTO","VVENTOMAX","VWND"],"latest":{"DVENTO":21.0,"MAREA":0.46,"UWND":-0.97,"VVENTO":2.7,"VVENTOMAX":3.4,"VWND":-2.52},"latest_time":"2026-10-04T06:25","series":"series/1033.csv"}},{"type":"Feature","geometry":{"type":"Point","coordinates":[12.2615,45.412]},"properties":{"scode":"1037","name":"Fusina","variables":["DVENTO","MAREA","ONDE","UWND","VVENTO","VVENTOMAX","VWND"],"latest":{"DVENTO":18.0,"MAREA":0.46,"ONDE":0.06,"UWND":-1.45,"VVENTO":4.7,"VVENTOMAX":5.6,"VWND":-4.47},"latest_time":"2026-10-04T06:25","series":"series/1037.csv"}},{"type":"Feature","geometry":{"type":"Point","coordinates":[12.3461,45.4283]},"properties":{"scode":"1039","name":"San Giorgio Isola","variables":["DVENTO","RADSOL","UMID","UWND","VVENTO","VVENTOMAX","VWND"],"latest":{"DVENTO":356.0,"RADSOL":14.0,"UMID":65.0,"UWND":0.39,"VVENTO":5.6,"VVENTOMAX":5.7,"VWND":-5.59},"latest_time":"2026-10-04T06:25","series":"series/1039.csv"}},{"type":"Feature","geometry":{"type":"Point","coordinates":[12.3364,45.4311]},"properties":{"scode":"1025","name":"Punta Salute Canal Grande","variables":["MAREA","ONDE","TEMPACQUA"],"latest":{"MAREA":0.45,"ONDE":0.13,"TEMPACQUA":21.8},"latest_time":"2026-10-04T06:25","series":"series/1025.csv"}},{"type":"Feature","geometry":{"type":"Point","coordinates":[12.4155,45.4875]},"properties":{"scode":"1030","name":"Burano","variables":["MAREA"],"latest":{"MAREA":0.41},"latest_time":"2026-10-04T06:25","series":"series/1030.csv"}},{"type":"Feature","geometry":{"type":"Point","coordinates":[12.2804,45.2236]},"properties":{"scode":"1036","name":"Chioggia Vigo","variables":["MAREA"],"latest":{"MAREA":0.46},"latest_time":"2026-10-04T06:25","series":"series/1036.csv"}},{"type":"Feature","geometry":{"type":"Point","coordinates":[12.3414,45.3344]},"properties":{"scode":"1023","name":"Diga nord Malamocco","variables":["MAREA"],"latest":{"MAREA":0.46},"latest_time":"2026-10-04T06:25","series":"series/1023.csv"}},{"type":"Feature","geometry":{"type":"Point","coordinates":[12.424,45.42]},"properties":{"scode":"1022","name":"Diga sud Lido","variables":["MAREA"],"latest":{"MAREA":0.46},"latest_time":"2026-10-04T06:25","series":"series/1022.csv"}},{"type":"Feature","geometry":{"type":"Point","coordinates":[12.3364,45.4306]},"properties":{"scode":"1045","name":"Punta Salute Canale Giudecca","variables":["MAREA","ONDE"],"latest":{"MAREA":0.45,"ONDE":0.27},"latest_time":"2026-10-04T06:25","series":"series/1045.csv"}},{"type":"Feature","geometry":{"type":"Point","coordinates":[12.326,45.4425]},"properties":{"scode":"1001","name":"Venezia San Geremia","variables":["MAREA"],"latest":{"MAREA":0.45},"latest_time":"2026-10-04T06:25","series":"series/1001.csv"}},{"type":"Feature","geometry":{"type":"Point","coordinates":[12.3336,45.4364]},"properties":{"scode":"1026","name":"Palazzo Cavalli","variables":["CDD","ET0","GDD","HDD","ONDE","PRESS","QSPEC","RADSOL","TDEW","TEMP","UMID","VPD"],"latest":{"CDD":0.0,"ET0":0.83,"GDD":5.6,"HDD":2.5,"ONDE":0.05,"PRESS":1026.7,"QSPEC":7.14,"RADSOL":9.0,"TDEW":9.4,"TEMP":15.0,"UMID":69.0,"VPD":0.529},"latest_time":"2026-10-04T06:25","series":"series/1026.csv"}}]}