{"type":"FeatureCollection","name":"AQ_BZ","features":[{"type":"Feature","geometry":{"type":"Point","coordinates":[11.339972222222222,46.495472222222226]},"properties":{"scode":"BZ5","name":"Bolzano 5 - Piazza Adriano","variables":["CO","EAQI","NO2","PM10","PM25"],"latest":{"CO":0.2049,"EAQI":1,"NO2":15.1446,"PM10":12.1167,"PM25":9.555},"latest_time":"2026-10-04T05:00","series":"series/BZ5.csv"}},{"type":"Feature","geometry":{"type":"Point","coordinates":[11.158447222222222,46.666980555555554]},"properties":{"scode":"ME3","name":"Merano - via Piave","variables":["CO","EAQI","NO2","O3","O3_8H","PM10","PM25"],"latest":{"CO":0.2204,"EAQI":2,"NO2":15.369,"O3":24.54,"O3_8H":21.6,"PM10":20.4667,"PM25":14.1},"latest_time":"2026-10-04T05:00","series":"series/ME3.csv"}},{"type":"Feature","geometry":{"type":"Point","coordinates":[11.158447222222222,46.666980555555554]},"properties":{"scode":"AU","name":"Ora","variables":["GAMMA"],"latest":{"GAMMA":0.1},"latest_time":"2026-10-04T05:00","series":"series/AU.csv"}},{"type":"Feature","geometry":{"type":"Point","coordinates":[11.944027777777778,46.79734722222222]},"properties":{"scode":"BX","name":"Bressanone","variables":["GAMMA"],"latest":{"GAMMA":0.14},"latest_time":"2026-10-04T05:00","series":"series/BX.csv"}},{"type":"Feature","geometry":{"type":"Point","coordinates":[11.22711111111111,46.26733333333333]},"properties":{"scode":"BZ","name":"Bolzano","variables":["GAMMA"],"latest":{"GAMMA":0.12},"latest_time":"2026-10-04T05:00","series":"series/BZ.csv"}},{"type":"Feature","geometry":{"type":"Point","coordinates":[11.339972222222222,46.495472222222226]},"properties":{"scode":"RE","name":"Renon","variables":["GAMMA"],"latest":{"GAMMA":0.14},"latest_time":"2026-10-04T05:00","series":"series/RE.csv"}},{"type":"Feature","geometry":{"type":"Point","coordinates":[11.279333333333334,46.34365277777778]},"properties":{"scode":"AB2","name":"A22 Sud - Binnenland, Ora","variables":["EAQI","NO2","O3","O3_8H","PM10","PM25"],"latest":{"EAQI":1,"NO2":20.2619,"O3":8.7667,"O3_8H":28.5,"PM10":15.45,"PM25":9.9017},"latest_time":"2026-10-04T05:00","series":"series/AB2.csv"}},{"type":"Feature","geometry":{"type":"Point","coordinates":[11.633305555555555,46.687555555555555]},"properties":{"scode":"AB3","name":"A22 Nord-Bx sud - Depuratore, Bx","variables":["EAQI","NO2","O3","O3_8H","PM10","PM25"],"latest":{"EAQI":1,"NO2":27.9681,"O3":1.13,"O3_8H":2.5,"PM10":11.355,"PM25":8.125},"latest_time":"2026-10-04T05:00","series":"series/AB3.csv"}},{"type":"Feature","geometry":{"type":"Point","coordinates":[11.944027777777778,46.79734722222222]},"properties":{"scode":"BR1","name":"Brunico - Parcheggio Goethe","variables":["EAQI","NO2","O3","O3_8H","PM10"],"latest":{"EAQI":1,"NO2":14.0669,"O3":11.7067,"O3_8H":18.9,"PM10":11.2383},"latest_time":"2026-10-04T05:00","series":"series/BR1.csv"}},{"type":"Feature","geometry":{"type":"Point","coordinates":[11.654083333333334,46.71491666666667]},"properties":{"scode":"BX1","name":"Bressanone - Villa Adele - Viale Ratisbona","variables":["EAQI","NO2","O3","O3_8H","PM10"],"latest":{"EAQI":1,"NO2":23.0357,"O3":8.8067,"O3_8H":14.2,"PM10":12.2783},"latest_time":"2026-10-04T05:00","series":"series/BX1.csv"}},{"type":"Feature","geometry":{"type":"Point","coordinates":[11.341833333333334,46.482305555555556]},"properties":{"scode":"BZ4","name":"Bolzano 4 - Via C.Augusta","variables":["EAQI","NO2","PM10","PM25"],"latest":{"EAQI":2,"NO2":23.5873,"PM10":18.275,"PM25":10.4367},"latest_time":"2026-10-04T05:00","series":"series/BZ4.csv"}},{"type":"Feature","geometry":{"type":"Point","coordinates":[11.341972222222223,46.49916666666667]},"properties":{"scode":"BZ6","name":"Bolzano 6 - Via Amba Alagi giardino","variables":["EAQI","NO2","O3","O3_8H","SO2"],"latest":{"EAQI":1,"NO2":11.5418,"O3":43.316,"O3_8H":51.6,"SO2":0.5497},"latest_time":"2026-10-04T05:00","series":"series/BZ6.csv"}},{"type":"Feature","geometry":{"type":"Point","coordinates":[11.22324,46.26406]},"properties":{"scode":"CR2","name":"Cortina ssdV - Via Paludi","variables":["EAQI","NO2","O3","O3_8H","PM10"],"latest":{"EAQI":1,"NO2":10.2314,"O3":18.8867,"O3_8H":43.8,"PM10":15.4383},"latest_time":"2026-10-04T05:00","series":"series/CR2.csv"}},{"type":"Feature","geometry":{"type":"Point","coordinates":[10.859055555555555,46.61947222222222]},"properties":{"scode":"LA1","name":"Laces - Via Stazione","variables":["EAQI","NO2","O3","O3_8H","PM10","PM25"],"latest":{"EAQI":2,"NO2":7.1387,"O3":5.06,"O3_8H":5.8,"PM10":13.535,"PM25":11.24},"latest_time":"2026-10-04T05:00","series":"series/LA1.csv"}},{"type":"Feature","geometry":{"type":"Point","coordinates":[11.34013888888889,46.43483333333333]},"properties":{"scode":"LS1","name":"Laives - Via Galizia","variables":["EAQI","NO2","O3","O3_8H","PM10","PM25"],"latest":{"EAQI":2,"NO2":14.1594,"O3":15.2767,"O3_8H":22.5,"PM10":15.465,"PM25":10.0267},"latest_time":"2026-10-04T05:00","series":"series/LS1.csv"}},{"type":"Feature","geometry":{"type":"Point","coordinates":[11.237528,46.288889]},"properties":{"scode":"ML2","name":"Vipiteno - Via S. Margherita","variables":["EAQI","NO2","O3","O3_8H","PM10","PM25"],"latest":{"EAQI":1,"NO2":13.9394,"O3":22.7933,"O3_8H":24.3,"PM10":13.8517,"PM25":9.6233},"latest_time":"2026-10-04T05:00","series":"series/ML2.csv"}},{"type":"Feature","geometry":{"type":"Point","coordinates":[11.266944,46.320972]},"properties":{"scode":"ML5","name":"A22 Egna - A22, corsia sud km 103","variables":["EAQI","NO2","O3","O3_8H","PM10","PM25"],"latest":{"EAQI":2,"NO2":23.3067,"O3":10.792,"O3_8H":31.1,"PM10":14.7333,"PM25":12.1167},"latest_time":"2026-10-04T05:00","series":"series/ML5.csv"}},{"type":"Feature","geometry":{"type":"Point","coordinates":[11.344167,46.487917]},"properties":{"scode":"ML6","name":"Bolzano - Via Roma, c/o Ex Saetta","variables":["EAQI","NO2","O3","O3_8H","PM10"],"latest":{"EAQI":1,"NO2":17.1564,"O3":33.232,"O3_8H":40.3,"PM10":16.6583},"latest_time":"2026-10-04T05:00","series":"series/ML6.csv"}},{"type":"Feature","geometry":{"type":"Point","coordinates":[11.433166666666667,46.589666666666666]},"properties":{"scode":"RE1","name":"Renon - Corno di Renon / Via Tann, Grünwald","variables":["EAQI","NO2","O3","O3_8H","PM10"],"latest":{"EAQI":3,"NO2":3.0736,"O3":107.008,"O3_8H":106.4,"PM10":9.7567},"latest_time":"2026-10-04T05:00","series":"series/RE1.csv"}},{"type":"Feature","geometry":{"type":"Point","coordinates":[11.161625,46.662]},"properties":{"scode":"ME1","name":"Merano - Via Trogmann","variables":["EAQI","PM10"],"latest":{"EAQI":1,"PM10":19.6},"latest_time":"2026-10-04T05:00","series":"series/ME1.csv"}}]}