{"type":"FeatureCollection","name":"AQ_ER","features":[{"type":"Feature","geometry":{"type":"Point","coordinates":[12.574738159887808,44.05114356891117]},"properties":{"scode":"10000001","name":"FLAMINIA","variables":["C6H6","EAQI","NO2","PM10"],"latest":{"C6H6":1.1,"EAQI":1,"NO2":25.0,"PM10":14.0},"latest_time":"2026-09-17T00:00","series":"series/10000001.csv"}},{"type":"Feature","geometry":{"type":"Point","coordinates":[10.621766750217366,44.69860031331685]},"properties":{"scode":"3000025","name":"TIMAVO","variables":["C6H6","CO","EAQI","NO2","PM10"],"latest":{"C6H6":1.0,"CO":0.5,"EAQI":2,"NO2":44.0,"PM10":16.0},"latest_time":"2026-09-17T00:00","series":"series/3000025.csv"}},{"type":"Feature","geometry":{"type":"Point","coordinates":[12.185540505062633,44.42682989035764]},"properties":{"scode":"9000014","name":"ZALAMELLA","variables":["C6H6","CO","EAQI","NO2","PM10"],"latest":{"C6H6":0.2,"CO":0.3,"EAQI":1,"NO2":9.0,"PM10":7.0},"latest_time":"2026-09-17T00:00","series":"series/9000014.csv"}},{"type":"Feature","geometry":{"type":"Point","coordinates":[12.056546690819825,44.21501344111538]},"properties":{"scode":"6000011","name":"ROMA","variables":["C6H6","EAQI","NO2","PM10"],"latest":{"C6H6":0.3,"EAQI":1,"NO2":7.0,"PM10":11.0},"latest_time":"2026-09-17T00:00","series":"series/6000011.csv"}},{"type":"Feature","geometry":{"type":"Point","coordinates":[11.327526717440112,44.49905998333452]},"properties":{"scode":"7000015","name":"PORTA SAN FELICE","variables":["C6H6","CO","EAQI","NO2","PM10","PM25"],"latest":{"C6H6":0.2,"CO":0.4,"EAQI":1,"NO2":8.0,"PM10":11.0,"PM25":4.0},"latest_time":"2026-09-17T00:00","series":"series/7000015.csv"}},{"type":"Feature","geometry":{"type":"Point","coordinates":[10.335477673094585,44.78568905412552]},"properties":{"scode":"2000004","name":"MONTEBELLO","variables":["C6H6","EAQI","NO2","PM10"],"latest":{"C6H6":0.3,"EAQI":1,"NO2":12.0,"PM10":15.0},"latest_time":"2026-09-17T00:00","series":"series/2000004.csv"}},{"type":"Feature","geometry":{"type":"Point","coordinates":[11.612172986420699,44.84154333177718]},"properties":{"scode":"8000002","name":"ISONZO","variables":["C6H6","EAQI","NO2","PM10"],"latest":{"C6H6":0.3,"EAQI":1,"NO2":5.0,"PM10":12.0},"latest_time":"2026-09-17T00:00","series":"series/8000002.csv"}},{"type":"Feature","geometry":{"type":"Point","coordinates":[9.692249067302894,45.04789860335775]},"properties":{"scode":"5000033","name":"GIORDANI-FARNESE","variables":["C6H6","CO","EAQI","NO2","PM10"],"latest":{"C6H6":0.2,"CO":0.2,"EAQI":1,"NO2":18.0,"PM10":16.0},"latest_time":"2026-09-17T00:00","series":"series/5000033.csv"}},{"type":"Feature","geometry":{"type":"Point","coordinates":[10.904739406479576,44.636027129237114]},"properties":{"scode":"4000002","name":"GIARDINI","variables":["C6H6","EAQI","NO2","PM10"],"latest":{"C6H6":0.4,"EAQI":1,"NO2":26.0,"PM10":20.0},"latest_time":"2026-09-15T00:00","series":"series/4000002.csv"}},{"type":"Feature","geometry":{"type":"Point","coordinates":[12.331294446351963,44.282902717372124]},"properties":{"scode":"9000070","name":"DELTA CERVIA","variables":["EAQI","NO2","O3","O3_8H","PM10"],"latest":{"EAQI":1,"NO2":13.0,"O3":22.0,"O3_8H":83.6,"PM10":14.0},"latest_time":"2026-09-15T00:00","series":"series/9000070.csv"}},{"type":"Feature","geometry":{"type":"Point","coordinates":[11.71971103897877,44.35446681194461]},"properties":{"scode":"7000002","name":"DE AMICIS","variables":["EAQI","NO2","PM10"],"latest":{"EAQI":2,"NO2":4.0,"PM10":22.0},"latest_time":"2026-09-15T00:00","series":"series/7000002.csv"}},{"type":"Feature","geometry":{"type":"Point","coordinates":[10.329985440788905,44.7914696910312]},"properties":{"scode":"2000003","name":"CITTADELLA","variables":["EAQI","NO2","O3","O3_8H","PM10"],"latest":{"EAQI":2,"NO2":18.0,"O3":44.0,"O3_8H":93.2,"PM10":25.0},"latest_time":"2026-09-15T00:00","series":"series/2000003.csv"}},{"type":"Feature","geometry":{"type":"Point","coordinates":[11.298683230587722,44.73206179430421]},"properties":{"scode":"8000038","name":"CENTO","variables":["EAQI","NO2","O3","O3_8H","PM10"],"latest":{"EAQI":1,"NO2":10.0,"O3":40.0,"O3_8H":78.0,"PM10":16.0},"latest_time":"2026-09-15T00:00","series":"series/8000038.csv"}},{"type":"Feature","geometry":{"type":"Point","coordinates":[10.916190994558958,44.13947164825515]},"properties":{"scode":"7000042","name":"CASTELLUCCIO","variables":["EAQI","NO2","O3","O3_8H","PM10","PM25"],"latest":{"EAQI":2,"NO2":5.0,"O3":51.0,"O3_8H":52.2,"PM10":9.0,"PM25":8.0},"latest_time":"2026-09-15T00:00","series":"series/7000042.csv"}},{"type":"Feature","geometry":{"type":"Point","coordinates":[10.732918212810619,44.515287337133834]},"properties":{"scode":"3000001","name":"CASTELLARANO","variables":["EAQI","NO2","O3","O3_8H","PM10","PM25"],"latest":{"EAQI":2,"NO2":9.0,"O3":77.0,"O3_8H":101.7,"PM10":18.0,"PM25":9.0},"latest_time":"2026-09-15T00:00","series":"series/3000001.csv"}},{"type":"Feature","geometry":{"type":"Point","coordinates":[12.224430371864216,44.41831032703281]},"properties":{"scode":"9000021","name":"CAORLE","variables":["EAQI","NO2","O3","O3_8H","PM10","PM25","SO2"],"latest":{"EAQI":2,"NO2":5.0,"O3":59.0,"O3_8H":81.6,"PM10":11.0,"PM25":7.0,"SO2":12.0},"latest_time":"2026-09-15T00:00","series":"series/9000021.csv"}},{"type":"Feature","geometry":{"type":"Point","coordinates":[10.018195275084834,44.98855540426126]},"properties":{"scode":"5000062","name":"BESENZONE","variables":["EAQI","NO2","O3","O3_8H","PM25"],"latest":{"EAQI":2,"NO2":13.0,"O3":58.0,"O3_8H":98.8,"PM25":15.0},"latest_time":"2026-09-15T00:00","series":"series/5000062.csv"}},{"type":"Feature","geometry":{"type":"Point","coordinates":[11.981396163112384,44.526486831598426]},"properties":{"scode":"9000068","name":"BALLIRANA","variables":["EAQI","NO2","O3","O3_8H","PM25"],"latest":{"EAQI":1,"NO2":17.0,"O3":4.0,"O3_8H":47.4,"PM25":8.0},"latest_time":"2026-09-14T00:00","series":"series/9000068.csv"}},{"type":"Feature","geometry":{"type":"Point","coordinates":[10.288366311688733,44.657269466707035]},"properties":{"scode":"2000214","name":"BADIA","variables":["EAQI","NO2","O3","O3_8H","PM10","PM25"],"latest":{"EAQI":2,"NO2":9.0,"O3":60.0,"O3_8H":81.8,"PM10":14.0,"PM25":7.0},"latest_time":"2026-09-14T00:00","series":"series/2000214.csv"}},{"type":"Feature","geometry":{"type":"Point","coordinates":[12.223844778717641,43.92644331643528]},"properties":{"scode":"6000036","name":"SAVIGNANO DI RIGO","variables":["EAQI","NO2","O3","O3_8H","PM10"],"latest":{"EAQI":2,"NO2":1.0,"O3":97.0,"O3_8H":103.0,"PM10":7.0},"latest_time":"2026-09-17T00:00","series":"series/6000036.csv"}},{"type":"Feature","geometry":{"type":"Point","coordinates":[11.648651264570564,44.82331892130918]},"properties":{"scode":"8000040","name":"VILLA FULVIA","variables":["EAQI","NO2","O3","O3_8H","PM25"],"latest":{"EAQI":2,"NO2":6.0,"O3":53.0,"O3_8H":87.2,"PM25":5.0},"latest_time":"2026-09-17T00:00","series":"series/8000040.csv"}},{"type":"Feature","geometry":{"type":"Point","coordinates":[12.402375318803843,44.09590808309935]},"properties":{"scode":"6000031","name":"SAVIGNANO","variables":["EAQI","NO2","O3","O3_8H","PM10","PM25"],"latest":{"EAQI":1,"NO2":15.0,"O3":43.0,"O3_8H":72.3,"PM10":10.0,"PM25":5.0},"latest_time":"2026-09-17T00:00","series":"series/6000031.csv"}},{"type":"Feature","geometry":{"type":"Point","coordinates":[11.285089594971216,44.49913433517029]},"properties":{"scode":"7000041","name":"VIA CHIARINI","variables":["EAQI","NO2","O3","O3_8H","PM10"],"latest":{"EAQI":2,"NO2":8.0,"O3":80.0,"O3_8H":92.6,"PM10":5.0},"latest_time":"2026-09-17T00:00","series":"series/7000041.csv"}},{"type":"Feature","geometry":{"type":"Point","coordinates":[12.42001204597882,44.01291507094706]},"properties":{"scode":"10000059","name":"VERUCCHIO","variables":["EAQI","NO2","O3","O3_8H","PM10"],"latest":{"EAQI":1,"NO2":9.0,"O3":46.0,"O3_8H":64.6,"PM10":7.0},"latest_time":"2026-09-17T00:00","series":"series/10000059.csv"}},{"type":"Feature","geometry":{"type":"Point","coordinates":[10.3709154501087,44.92502046411058]},"properties":{"scode":"2000219","name":"SARAGAT","variables":["EAQI","NO2","O3","O3_8H","PM10","PM25"],"latest":{"EAQI":2,"NO2":8.0,"O3":60.0,"O3_8H":93.4,"PM10":20.0,"PM25":12.0},"latest_time":"2026-09-17T00:00","series":"series/2000219.csv"}},{"type":"Feature","geometry":{"type":"Point","coordinates":[11.623854093048257,44.65328018947086]},"properties":{"scode":"7000027","name":"SAN PIETRO CAPOFIUME","variables":["EAQI","NO2","O3","O3_8H","PM10","PM25"],"latest":{"EAQI":2,"NO2":4.0,"O3":51.0,"O3_8H":87.0,"PM10":14.0,"PM25":7.0},"latest_time":"2026-09-17T00:00","series":"series/7000027.csv"}},{"type":"Feature","geometry":{"type":"Point","coordinates":[10.663785437645098,44.87278520548371]},"properties":{"scode":"3000022","name":"S. ROCCO","variables":["EAQI","NO2","O3","O3_8H","PM10","PM25"],"latest":{"EAQI":2,"NO2":13.0,"O3":48.0,"O3_8H":95.8,"PM10":21.0,"PM25":7.0},"latest_time":"2026-09-17T00:00","series":"series/3000022.csv"}},{"type":"Feature","geometry":{"type":"Point","coordinates":[12.400282672449055,43.90625307987227]},"properties":{"scode":"10000074","name":"SAN LEO","variables":["EAQI","NO2","O3","O3_8H","PM10"],"latest":{"EAQI":2,"NO2":1.0,"O3":93.0,"O3_8H":103.4,"PM10":5.0},"latest_time":"2026-09-17T00:00","series":"series/10000074.csv"}},{"type":"Feature","geometry":{"type":"Point","coordinates":[10.662600361181374,44.68809200188603]},"properties":{"scode":"3000007","name":"S. LAZZARO","variables":["EAQI","NO2","O3","O3_8H","PM10","PM25"],"latest":{"EAQI":1,"NO2":14.0,"O3":45.0,"O3_8H":84.4,"PM10":19.0,"PM25":10.0},"latest_time":"2026-09-17T00:00","series":"series/3000007.csv"}},{"type":"Feature","geometry":{"type":"Point","coordinates":[11.415629343017233,44.466232977185605]},"properties":{"scode":"7000024","name":"SAN LAZZARO","variables":["EAQI","NO2","PM10"],"latest":{"EAQI":1,"NO2":12.0,"PM10":11.0},"latest_time":"2026-09-17T00:00","series":"series/7000024.csv"}},{"type":"Feature","geometry":{"type":"Point","coordinates":[10.8188926493122,44.54119146442797]},"properties":{"scode":"4000110","name":"SAN FRANCESCO","variables":["EAQI","NO2","PM10"],"latest":{"EAQI":2,"NO2":23.0,"PM10":22.0},"latest_time":"2026-09-17T00:00","series":"series/4000110.csv"}},{"type":"Feature","geometry":{"type":"Point","coordinates":[10.88326841859053,44.79942646080965]},"properties":{"scode":"4000012","name":"REMESINA","variables":["EAQI","NO2","O3","O3_8H","PM10"],"latest":{"EAQI":1,"NO2":13.0,"O3":37.0,"O3_8H":66.9,"PM10":18.0},"latest_time":"2026-09-17T00:00","series":"series/4000012.csv"}},{"type":"Feature","geometry":{"type":"Point","coordinates":[12.626339131514655,43.930866886665214]},"properties":{"scode":"10000060","name":"SAN CLEMENTE","variables":["EAQI","NO2","O3","O3_8H","PM25"],"latest":{"EAQI":2,"NO2":25.0,"O3":96.0,"O3_8H":97.1,"PM25":4.0},"latest_time":"2026-09-17T00:00","series":"series/10000060.csv"}},{"type":"Feature","geometry":{"type":"Point","coordinates":[11.872664,44.284601]},"properties":{"scode":"9000083","name":"PARCO BERTOZZI","variables":["EAQI","NO2","O3","O3_8H","PM10","PM25"],"latest":{"EAQI":2,"NO2":10.0,"O3":65.0,"O3_8H":67.0,"PM10":10.0,"PM25":5.0},"latest_time":"2026-09-17T00:00","series":"series/9000083.csv"}},{"type":"Feature","geometry":{"type":"Point","coordinates":[11.94097876124348,44.73995385648027]},"properties":{"scode":"8000041","name":"OSTELLATO","variables":["EAQI","NO2","O3","O3_8H","PM25"],"latest":{"EAQI":2,"NO2":7.0,"O3":52.0,"O3_8H":77.1,"PM25":2.0},"latest_time":"2026-09-17T00:00","series":"series/8000041.csv"}},{"type":"Feature","geometry":{"type":"Point","coordinates":[12.551539643389923,44.06334655810907]},"properties":{"scode":"10000002","name":"MARECCHIA","variables":["EAQI","NO2","O3","O3_8H","PM10","PM25"],"latest":{"EAQI":1,"NO2":23.0,"O3":31.0,"O3_8H":76.2,"PM10":8.0,"PM25":0.0},"latest_time":"2026-09-17T00:00","series":"series/10000002.csv"}},{"type":"Feature","geometry":{"type":"Point","coordinates":[9.829360661244547,44.822937666464675]},"properties":{"scode":"5000007","name":"LUGAGNANO","variables":["EAQI","NO2","O3","O3_8H","PM10"],"latest":{"EAQI":2,"NO2":0.0,"O3":99.0,"O3_8H":100.0,"PM10":6.0},"latest_time":"2026-09-17T00:00","series":"series/5000007.csv"}},{"type":"Feature","geometry":{"type":"Point","coordinates":[11.35406170088398,44.48267113876953]},"properties":{"scode":"7000014","name":"GIARDINI MARGHERITA","variables":["EAQI","NO2","O3","O3_8H","PM10","PM25"],"latest":{"EAQI":1,"NO2":12.0,"O3":43.0,"O3_8H":79.8,"PM10":14.0,"PM25":5.0},"latest_time":"2026-09-15T00:00","series":"series/7000014.csv"}},{"type":"Feature","geometry":{"type":"Point","coordinates":[12.047203857220106,44.214192060885615]},"properties":{"scode":"6000010","name":"PARCO RESISTENZA","variables":["EAQI","NO2","O3","O3_8H","PM10","PM25"],"latest":{"EAQI":2,"NO2":7.0,"O3":63.0,"O3_8H":77.6,"PM10":7.0,"PM25":5.0},"latest_time":"2026-09-17T00:00","series":"series/6000010.csv"}},{"type":"Feature","geometry":{"type":"Point","coordinates":[9.66833225209482,45.037598683584235]},"properties":{"scode":"5000065","name":"PARCO MONTECUCCO","variables":["EAQI","NO2","O3","O3_8H","PM10","PM25"],"latest":{"EAQI":2,"NO2":10.0,"O3":55.0,"O3_8H":98.4,"PM10":20.0,"PM25":13.0},"latest_time":"2026-09-17T00:00","series":"series/5000065.csv"}},{"type":"Feature","geometry":{"type":"Point","coordinates":[10.906326763451641,44.65061168416453]},"properties":{"scode":"4000022","name":"PARCO FERRARI","variables":["EAQI","NO2","O3","O3_8H","PM10","PM25"],"latest":{"EAQI":1,"NO2":23.0,"O3":35.0,"O3_8H":87.7,"PM10":17.0,"PM25":10.0},"latest_time":"2026-09-17T00:00","series":"series/4000022.csv"}},{"type":"Feature","geometry":{"type":"Point","coordinates":[10.791372046408874,44.53942105479787]},"properties":{"scode":"4000155","name":"PARCO EDILCARANI","variables":["EAQI","NO2","O3","O3_8H","PM10","PM25"],"latest":{"EAQI":2,"NO2":12.0,"O3":56.0,"O3_8H":81.9,"PM10":16.0,"PM25":7.0},"latest_time":"2026-09-17T00:00","series":"series/4000155.csv"}}]}