{"type":"FeatureCollection","name":"TN","features":[{"type":"Feature","geometry":{"type":"Point","coordinates":[10.699111,46.422585]},"properties":{"scode":"T0065","name":"Careser (Diga)","variables":["CDD","DVENTO","GDD","HDD","PREC","PREC24","PREC48","TEMP","UWND","VVENTO","VWND"],"latest":{"CDD":0.0,"DVENTO":"89","GDD":0.0,"HDD":13.9,"PREC":"0","PREC24":0.0,"PREC48":0.0,"TEMP":"3.8","UWND":-0.9,"VVENTO":"0.9","VWND":-0.02},"latest_time":"2026-10-04T07:15","series":"series/T0065.csv"}},{"type":"Feature","geometry":{"type":"Point","coordinates":[10.795904,46.313313]},"properties":{"scode":"T0071","name":"Mezzana","variables":["CDD","DVENTO","GDD","HDD","PREC","PREC24","PREC48","RADSOL","TAPP","TDEW","TEMP","UMID","UWND","VPD","VVENTO","VWND"],"latest":{"CDD":0.0,"DVENTO":"238","GDD":0.0,"HDD":10.4,"PREC":"0","PREC24":0.0,"PREC48":0.0,"RADSOL":"0","TAPP":5.1,"TDEW":6.3,"TEMP":"6.7","UMID":"97","UWND":0.85,"VPD":0.029,"VVENTO":"1","VWND":0.53},"latest_time":"2026-10-04T07:15","series":"series/T0071.csv"}},{"type":"Feature","geometry":{"type":"Point","coordinates":[10.918411,46.351598]},"properties":{"scode":"T0074","name":"Male'","variables":["CDD","DVENTO","GDD","HDD","PREC","PREC24","PREC48","RADSOL","TAPP","TDEW","TEMP","UMID","UWND","VPD","VVENTO","VWND"],"latest":{"CDD":0.0,"DVENTO":"214","GDD":0.0,"HDD":10.1,"PREC":"0","PREC24":0.0,"PREC48":0.0,"RADSOL":"0","TAPP":4.4,"TDEW":5.8,"TEMP":"6.4","UMID":"96","UWND":0.84,"VPD":0.038,"VVENTO":"1.5","VWND":1.24},"latest_time":"2026-10-04T07:15","series":"series/T0074.csv"}},{"type":"Feature","geometry":{"type":"Point","coordinates":[10.849515,46.401374]},"properties":{"scode":"T0076","name":"Rabbi (San Bernardo)","variables":["CDD","DVENTO","GDD","HDD","PREC","PREC24","PREC48","RADSOL","TAPP","TDEW","TEMP","UMID","UWND","VPD","VVENTO","VWND"],"latest":{"CDD":0.0,"DVENTO":"27","GDD":0.0,"HDD":9.1,"PREC":"0","PREC24":0.0,"PREC48":0.0,"RADSOL":"0","TAPP":6.5,"TDEW":4.1,"TEMP":"7.9","UMID":"77","UWND":-0.09,"VPD":0.245,"VVENTO":"0.2","VWND":-0.18},"latest_time":"2026-10-04T07:15","series":"series/T0076.csv"}},{"type":"Feature","geometry":{"type":"Point","coordinates":[11.787124,46.297919]},"properties":{"scode":"T0103","name":"Passo Rolle","variables":["CDD","DVENTO","GDD","HDD","PREC","PREC24","PREC48","RADSOL","TAPP","TDEW","TEMP","UMID","UWND","VPD","VVENTO","VWND"],"latest":{"CDD":0.0,"DVENTO":"6","GDD":0.0,"HDD":11.2,"PREC":"0","PREC24":0.0,"PREC48":0.0,"RADSOL":"0","TAPP":4.9,"TDEW":2.7,"TEMP":"7.2","UMID":"73","UWND":-0.11,"VPD":0.274,"VVENTO":"1.1","VWND":-1.09},"latest_time":"2026-10-04T07:15","series":"series/T0103.csv"}},{"type":"Feature","geometry":{"type":"Point","coordinates":[11.217711,46.170372]},"properties":{"scode":"T0118","name":"Cembra","variables":["CDD","DVENTO","GDD","HDD","PREC","PREC24","PREC48","RADSOL","TAPP","TDEW","TEMP","UMID","UWND","VPD","VVENTO","VWND"],"latest":{"CDD":0.0,"DVENTO":"2","GDD":0.4,"HDD":7.7,"PREC":"0","PREC24":0.0,"PREC48":0.0,"RADSOL":"0","TAPP":8.0,"TDEW":7.2,"TEMP":"9.1","UMID":"88","UWND":-0.02,"VPD":0.139,"VVENTO":"0.7","VWND":-0.7},"latest_time":"2026-10-04T07:15","series":"series/T0118.csv"}},{"type":"Feature","geometry":{"type":"Point","coordinates":[11.135703,46.071801]},"properties":{"scode":"T0129","name":"Trento (Laste)","variables":["CDD","DVENTO","GDD","HDD","PREC","PREC24","PREC48","RADSOL","TAPP","TDEW","TEMP","UMID","UWND","VPD","VVENTO","VWND"],"latest":{"CDD":0.0,"DVENTO":"40","GDD":3.1,"HDD":5.2,"PREC":"0","PREC24":0.0,"PREC48":0.0,"RADSOL":"0","TAPP":10.4,"TDEW":8.3,"TEMP":"11.8","UMID":"79","UWND":-0.9,"VPD":0.291,"VVENTO":"1.4","VWND":-1.07},"latest_time":"2026-10-04T07:15","series":"series/T0129.csv"}},{"type":"Feature","geometry":{"type":"Point","coordinates":[11.091231,45.968006]},"properties":{"scode":"T0146","name":"Aldeno (San Zeno)","variables":["CDD","DVENTO","GDD","HDD","PREC","PREC24","PREC48","RADSOL","TAPP","TDEW","TEMP","UMID","UWND","VPD","VVENTO","VWND"],"latest":{"CDD":0.0,"DVENTO":"299","GDD":0.0,"HDD":9.2,"PREC":"0","PREC24":0.0,"PREC48":0.0,"RADSOL":"0","TAPP":8.1,"TDEW":7.8,"TEMP":"9.7","UMID":"88","UWND":1.4,"VPD":0.144,"VVENTO":"1.6","VWND":-0.78},"latest_time":"2026-10-04T07:15","series":"series/T0146.csv"}},{"type":"Feature","geometry":{"type":"Point","coordinates":[11.043987,45.896325]},"properties":{"scode":"T0147","name":"Rovereto","variables":["CDD","DVENTO","GDD","HDD","PREC","PREC24","PREC48","RADSOL","TAPP","TDEW","TEMP","UMID","UWND","VPD","VVENTO","VWND"],"latest":{"CDD":0.0,"DVENTO":"7","GDD":2.4,"HDD":5.9,"PREC":"0","PREC24":0.0,"PREC48":0.0,"RADSOL":"0","TAPP":10.7,"TDEW":9.3,"TEMP":"11","UMID":"89","UWND":-0.02,"VPD":0.144,"VVENTO":"0.2","VWND":-0.2},"latest_time":"2026-10-04T07:15","series":"series/T0147.csv"}},{"type":"Feature","geometry":{"type":"Point","coordinates":[10.757484,46.156507]},"properties":{"scode":"T0175","name":"Pinzolo","variables":["CDD","DVENTO","GDD","HDD","PREC","PREC24","PREC48","RADSOL","TAPP","TDEW","TEMP","UMID","UWND","VPD","VVENTO","VWND"],"latest":{"CDD":0.0,"DVENTO":"320","GDD":0.0,"HDD":9.9,"PREC":"0","PREC24":0.2,"PREC48":0.2,"RADSOL":"0","TAPP":5.7,"TDEW":7.1,"TEMP":"7.1","UMID":"100","UWND":0.71,"VPD":0.0,"VVENTO":"1.1","VWND":-0.84},"latest_time":"2026-10-04T07:15","series":"series/T0175.csv"}},{"type":"Feature","geometry":{"type":"Point","coordinates":[10.877355,45.870095]},"properties":{"scode":"T0193","name":"Torbole (Belvedere)","variables":["CDD","DVENTO","GDD","HDD","PREC","PREC24","PREC48","RADSOL","TAPP","TDEW","TEMP","UMID","UWND","VPD","VVENTO","VWND"],"latest":{"CDD":0.0,"DVENTO":"56","GDD":6.9,"HDD":1.1,"PREC":"0","PREC24":0.0,"PREC48":0.0,"RADSOL":"0","TAPP":11.4,"TDEW":9.0,"TEMP":"16.3","UMID":"62","UWND":-5.55,"VPD":0.704,"VVENTO":"6.7","VWND":-3.75},"latest_time":"2026-10-04T07:15","series":"series/T0193.csv"}},{"type":"Feature","geometry":{"type":"Point","coordinates":[10.684142,45.841658]},"properties":{"scode":"T0354","name":"Tremalzo","variables":["CDD","DVENTO","GDD","HDD","PREC","PREC24","PREC48","RADSOL","TAPP","TDEW","TEMP","UMID","UWND","VPD","VVENTO","VWND"],"latest":{"CDD":0.0,"DVENTO":"73","GDD":0.0,"HDD":10.3,"PREC":"0","PREC24":0.0,"PREC48":0.0,"RADSOL":"0","TAPP":5.5,"TDEW":6.0,"TEMP":"6.9","UMID":"94","UWND":-0.67,"VPD":0.06,"VVENTO":"0.7","VWND":-0.2},"latest_time":"2026-10-04T07:15","series":"series/T0354.csv"}},{"type":"Feature","geometry":{"type":"Point","coordinates":[11.663267,46.116677]},"properties":{"scode":"T0355","name":"Passo Brocon","variables":["CDD","DVENTO","GDD","HDD","PREC","PREC24","PREC48","RADSOL","TAPP","TDEW","TEMP","UMID","UWND","VPD","VVENTO","VWND"],"latest":{"CDD":0.0,"DVENTO":"357","GDD":0.0,"HDD":9.6,"PREC":"0","PREC24":0.0,"PREC48":0.0,"RADSOL":"0","TAPP":5.9,"TDEW":1.4,"TEMP":"8.3","UMID":"62","UWND":0.05,"VPD":0.416,"VVENTO":"0.9","VWND":-0.9},"latest_time":"2026-10-04T07:15","series":"series/T0355.csv"}},{"type":"Feature","geometry":{"type":"Point","coordinates":[10.860666,46.356279]},"properties":{"scode":"T0357","name":"Male' (Bivacco Marinelli)","variables":["CDD","DVENTO","GDD","HDD","TEMP","UWND","VVENTO","VWND"],"latest":{"CDD":0.0,"DVENTO":"315","GDD":0.0,"HDD":11.0,"TEMP":"6.8","UWND":0.42,"VVENTO":"0.6","VWND":-0.42},"latest_time":"2026-10-04T07:00","series":"series/T0357.csv"}},{"type":"Feature","geometry":{"type":"Point","coordinates":[10.596825,46.262564]},"properties":{"scode":"T0360","name":"Passo Tonale","variables":["CDD","DVENTO","GDD","HDD","PREC","PREC24","PREC48","RADSOL","TAPP","TDEW","TEMP","UMID","UWND","VPD","VVENTO","VWND"],"latest":{"CDD":0.0,"DVENTO":"326","GDD":0.0,"HDD":11.6,"PREC":"0","PREC24":0.2,"PREC48":0.2,"RADSOL":"0","TAPP":3.6,"TDEW":1.3,"TEMP":"6.4","UMID":"70","UWND":0.84,"VPD":0.288,"VVENTO":"1.5","VWND":-1.24},"latest_time":"2026-10-04T07:15","series":"series/T0360.csv"}},{"type":"Feature","geometry":{"type":"Point","coordinates":[10.67783,46.364364]},"properties":{"scode":"T0366","name":"Peio","variables":["CDD","DVENTO","GDD","HDD","PREC","PREC24","PREC48","RADSOL","TAPP","TDEW","TEMP","UMID","UWND","VPD","VVENTO","VWND"],"latest":{"CDD":0.0,"DVENTO":"353","GDD":0.0,"HDD":9.5,"PREC":"0","PREC24":0.0,"PREC48":0.0,"RADSOL":"0","TAPP":6.5,"TDEW":3.7,"TEMP":"8.1","UMID":"74","UWND":0.04,"VPD":0.281,"VVENTO":"0.3","VWND":-0.3},"latest_time":"2026-10-04T07:15","series":"series/T0366.csv"}},{"type":"Feature","geometry":{"type":"Point","coordinates":[11.451713,46.284782]},"properties":{"scode":"T0367","name":"Cavalese","variables":["CDD","DVENTO","GDD","HDD","PREC","PREC24","PREC48","RADSOL","TAPP","TDEW","TEMP","UMID","UWND","VPD","VVENTO","VWND"],"latest":{"CDD":0.0,"DVENTO":"64","GDD":0.0,"HDD":10.9,"PREC":"0","PREC24":0.0,"PREC48":0.0,"RADSOL":"0","TAPP":4.7,"TDEW":5.3,"TEMP":"6.2","UMID":"94","UWND":-0.54,"VPD":0.057,"VVENTO":"0.6","VWND":-0.26},"latest_time":"2026-10-04T07:15","series":"series/T0367.csv"}},{"type":"Feature","geometry":{"type":"Point","coordinates":[11.054869,46.013651]},"properties":{"scode":"T0368","name":"Monte Bondone (Viote)","variables":["CDD","DVENTO","GDD","HDD","PREC","PREC24","PREC48","RADSOL","TAPP","TDEW","TEMP","UMID","UWND","VPD","VVENTO","VWND"],"latest":{"CDD":0.0,"DVENTO":"302","GDD":0.0,"HDD":12.0,"PREC":"0","PREC24":0.0,"PREC48":0.0,"RADSOL":"0","TAPP":4.8,"TDEW":5.1,"TEMP":"6.6","UMID":"90","UWND":0.85,"VPD":0.097,"VVENTO":"1","VWND":-0.53},"latest_time":"2026-10-04T07:15","series":"series/T0368.csv"}},{"type":"Feature","geometry":{"type":"Point","coordinates":[11.206083,45.918646]},"properties":{"scode":"T0369","name":"Passo Sommo","variables":["CDD","DVENTO","GDD","HDD","PREC","PREC24","PREC48","RADSOL","TAPP","TDEW","TEMP","UMID","UWND","VPD","VVENTO","VWND"],"latest":{"CDD":0.0,"DVENTO":"239","GDD":0.0,"HDD":8.9,"PREC":"0","PREC24":0.0,"PREC48":0.0,"RADSOL":"0","TAPP":6.7,"TDEW":4.4,"TEMP":"8.6","UMID":"75","UWND":0.86,"VPD":0.279,"VVENTO":"1","VWND":0.52},"latest_time":"2026-10-04T07:15","series":"series/T0369.csv"}},{"type":"Feature","geometry":{"type":"Point","coordinates":[10.631957,46.384176]},"properties":{"scode":"T0372","name":"Peio (Crozzi Taviela)","variables":["CDD","DVENTO","GDD","HDD","TEMP","UWND","VVENTO","VWND"],"latest":{"CDD":0.0,"DVENTO":"190","GDD":0.0,"HDD":16.1,"TEMP":"1.4","UWND":0.12,"VVENTO":"0.7","VWND":0.69},"latest_time":"2026-10-04T07:15","series":"series/T0372.csv"}},{"type":"Feature","geometry":{"type":"Point","coordinates":[10.514122,46.052903]},"properties":{"scode":"T0373","name":"Daone (Malga Bissina)","variables":["CDD","DVENTO","GDD","HDD","PREC","PREC24","PREC48","RADSOL","TAPP","TDEW","TEMP","UMID","UWND","VPD","VVENTO","VWND"],"latest":{"CDD":0.0,"DVENTO":"358","GDD":0.0,"HDD":11.6,"PREC":"0","PREC24":0.0,"PREC48":0.0,"RADSOL":"0","TAPP":2.5,"TDEW":2.3,"TEMP":"5.7","UMID":"79","UWND":0.08,"VPD":0.192,"VVENTO":"2.3","VWND":-2.3},"latest_time":"2026-10-04T07:15","series":"series/T0373.csv"}},{"type":"Feature","geometry":{"type":"Point","coordinates":[11.058163,45.807557]},"properties":{"scode":"T0374","name":"Rovereto (Malga Zugna)","variables":["CDD","DVENTO","GDD","HDD","PREC","PREC24","PREC48","RADSOL","TAPP","TDEW","TEMP","UMID","UWND","VPD","VVENTO","VWND"],"latest":{"CDD":0.0,"DVENTO":"73","GDD":0.0,"HDD":11.0,"PREC":"0","PREC24":0.0,"PREC48":0.0,"RADSOL":"0","TAPP":5.2,"TDEW":5.1,"TEMP":"7.6","UMID":"84","UWND":-1.72,"VPD":0.167,"VVENTO":"1.8","VWND":-0.53},"latest_time":"2026-10-04T07:00","series":"series/T0374.csv"}},{"type":"Feature","geometry":{"type":"Point","coordinates":[10.94125,45.983947]},"properties":{"scode":"T0379","name":"Dro (Marocche)","variables":["CDD","DVENTO","GDD","HDD","PREC","PREC24","PREC48","RADSOL","TAPP","TDEW","TEMP","UMID","UWND","VPD","VVENTO","VWND"],"latest":{"CDD":0.0,"DVENTO":"51","GDD":2.8,"HDD":5.1,"PREC":"0","PREC24":0.0,"PREC48":0.0,"RADSOL":"0","TAPP":11.0,"TDEW":8.8,"TEMP":"12.3","UMID":"79","UWND":-1.17,"VPD":0.3,"VVENTO":"1.5","VWND":-0.94},"latest_time":"2026-10-04T07:00","series":"series/T0379.csv"}},{"type":"Feature","geometry":{"type":"Point","coordinates":[10.81181345,46.17225481]},"properties":{"scode":"T0382","name":"Dos Del Sabion (Monte Grual)","variables":["CDD","DVENTO","GDD","HDD","PREC","PREC24","PREC48","RADSOL","TAPP","TDEW","TEMP","UMID","UWND","VPD","VVENTO","VWND"],"latest":{"CDD":0.0,"DVENTO":"30","GDD":0.0,"HDD":13.0,"PREC":"0","PREC24":0.2,"PREC48":0.2,"RADSOL":"0","TAPP":2.7,"TDEW":3.1,"TEMP":"4.8","UMID":"89","UWND":-0.45,"VPD":0.095,"VVENTO":"0.9","VWND":-0.78},"latest_time":"2026-10-04T07:15","series":"series/T0382.csv"}},{"type":"Feature","geometry":{"type":"Point","coordinates":[11.769081,46.445989]},"properties":{"scode":"T0403","name":"Canazei (Ciampac)","variables":["CDD","DVENTO","GDD","HDD","PREC","PREC24","PREC48","RADSOL","TAPP","TDEW","TEMP","UMID","UWND","VPD","VVENTO","VWND"],"latest":{"CDD":0.0,"DVENTO":"197","GDD":0.0,"HDD":14.8,"PREC":"0","PREC24":0.0,"PREC48":0.0,"RADSOL":"0","TAPP":-0.2,"TDEW":-1.0,"TEMP":"2.8","UMID":"76","UWND":0.38,"VPD":0.179,"VVENTO":"1.3","VWND":1.24},"latest_time":"2026-10-04T07:15","series":"series/T0403.csv"}},{"type":"Feature","geometry":{"type":"Point","coordinates":[11.880813,46.443614]},"properties":{"scode":"T0404","name":"Marmolada (Sas Del Mul)","variables":["CDD","DVENTO","GDD","HDD","PREC","PREC24","PREC48","RADSOL","TAPP","TDEW","TEMP","UMID","UWND","VPD","VVENTO","VWND"],"latest":{"CDD":0.0,"DVENTO":"175","GDD":0.0,"HDD":13.4,"PREC":"0","PREC24":0.0,"PREC48":0.0,"RADSOL":"0","TAPP":0.1,"TDEW":-10.3,"TEMP":"4.2","UMID":"34","UWND":-0.12,"VPD":0.544,"VVENTO":"1.4","VWND":1.39},"latest_time":"2026-10-04T07:15","series":"series/T0404.csv"}},{"type":"Feature","geometry":{"type":"Point","coordinates":[11.021504,46.143008]},"properties":{"scode":"T0406","name":"Paganella (Malga Terlago)","variables":["CDD","DVENTO","GDD","HDD","PREC","PREC24","PREC48","RADSOL","TAPP","TDEW","TEMP","UMID","UWND","VPD","VVENTO","VWND"],"latest":{"CDD":0.0,"DVENTO":"87","GDD":0.0,"HDD":13.3,"PREC":"0","PREC24":0.0,"PREC48":0.0,"RADSOL":"0","TAPP":1.9,"TDEW":2.5,"TEMP":"4.3","UMID":"88","UWND":-1.2,"VPD":0.1,"VVENTO":"1.2","VWND":-0.06},"latest_time":"2026-10-04T07:15","series":"series/T0406.csv"}},{"type":"Feature","geometry":{"type":"Point","coordinates":[10.9113,46.066311]},"properties":{"scode":"T0414","name":"San Lorenzo In Banale (Pergoletti)","variables":["CDD","DVENTO","GDD","HDD","PREC","PREC24","PREC48","RADSOL","TAPP","TDEW","TEMP","UMID","UWND","VPD","VVENTO","VWND"],"latest":{"CDD":0.0,"DVENTO":"241","GDD":0.7,"HDD":7.4,"PREC":"0","PREC24":0.0,"PREC48":0.0,"RADSOL":"0","TAPP":7.8,"TDEW":7.0,"TEMP":"9.2","UMID":"86","UWND":0.87,"VPD":0.163,"VVENTO":"1","VWND":0.48},"latest_time":"2026-10-04T07:15","series":"series/T0414.csv"}},{"type":"Feature","geometry":{"type":"Point","coordinates":[11.008531,46.45391]},"properties":{"scode":"T0417","name":"Rumo (Lanza)","variables":["CDD","DVENTO","GDD","HDD","PREC","PREC24","PREC48","RADSOL","TAPP","TDEW","TEMP","UMID","UWND","VPD","VVENTO","VWND"],"latest":{"CDD":0.0,"DVENTO":"317","GDD":0.0,"HDD":9.2,"PREC":"0","PREC24":0.0,"PREC48":0.0,"RADSOL":"0","TAPP":6.0,"TDEW":5.5,"TEMP":"8","UMID":"84","UWND":0.95,"VPD":0.172,"VVENTO":"1.4","VWND":-1.02},"latest_time":"2026-10-04T07:15","series":"series/T0417.csv"}},{"type":"Feature","geometry":{"type":"Point","coordinates":[11.865668,46.198934]},"properties":{"scode":"T0419","name":"Tonadico (Castelpietra)","variables":["CDD","DVENTO","GDD","HDD","PREC","PREC24","PREC48","TEMP","UWND","VVENTO","VWND"],"latest":{"CDD":0.0,"DVENTO":"37","GDD":0.0,"HDD":12.7,"PREC":"0","PREC24":0.0,"PREC48":0.0,"TEMP":"4.7","UWND":-0.66,"VVENTO":"1.1","VWND":-0.88},"latest_time":"2026-10-04T07:15","series":"series/T0419.csv"}},{"type":"Feature","geometry":{"type":"Point","coordinates":[11.812625,46.154673]},"properties":{"scode":"T0420","name":"Mezzano","variables":["CDD","DVENTO","GDD","HDD","PREC","PREC24","PREC48","RADSOL","TAPP","TDEW","TEMP","UMID","UWND","VPD","VVENTO","VWND"],"latest":{"CDD":0.0,"DVENTO":"63","GDD":0.0,"HDD":11.0,"PREC":"0","PREC24":0.0,"PREC48":0.0,"RADSOL":"0","TAPP":3.8,"TDEW":5.8,"TEMP":"6.2","UMID":"97","UWND":-1.78,"VPD":0.028,"VVENTO":"2","VWND":-0.91},"latest_time":"2026-10-04T07:15","series":"series/T0420.csv"}},{"type":"Feature","geometry":{"type":"Point","coordinates":[11.683911,46.192017]},"properties":{"scode":"T0421","name":"Caoria","variables":["CDD","DVENTO","GDD","HDD","PREC","PREC24","PREC48","RADSOL","TAPP","TDEW","TEMP","UMID","UWND","VPD","VVENTO","VWND"],"latest":{"CDD":0.0,"DVENTO":"344","GDD":0.0,"HDD":10.5,"PREC":"0","PREC24":0.0,"PREC48":0.0,"RADSOL":"0","TAPP":5.5,"TDEW":6.8,"TEMP":"6.8","UMID":"100","UWND":0.22,"VPD":0.0,"VVENTO":"0.8","VWND":-0.77},"latest_time":"2026-10-04T07:15","series":"series/T0421.csv"}},{"type":"Feature","geometry":{"type":"Point","coordinates":[11.656835,46.006312]},"properties":{"scode":"T0423","name":"Grigno","variables":["CDD","DVENTO","GDD","HDD","PREC","PREC24","PREC48","RADSOL","TAPP","TDEW","TEMP","UMID","UWND","VPD","VVENTO","VWND"],"latest":{"CDD":0.0,"DVENTO":"225","GDD":0.0,"HDD":10.7,"PREC":"0","PREC24":0.0,"PREC48":0.0,"RADSOL":"0","TAPP":5.1,"TDEW":6.0,"TEMP":"6","UMID":"100","UWND":0.14,"VPD":0.0,"VVENTO":"0.2","VWND":0.14},"latest_time":"2026-10-04T07:15","series":"series/T0423.csv"}},{"type":"Feature","geometry":{"type":"Point","coordinates":[11.174829,45.758997]},"properties":{"scode":"T0425","name":"Passo Pian Delle Fugazze","variables":["CDD","DVENTO","GDD","HDD","PREC","PREC24","PREC48","RADSOL","TAPP","TDEW","TEMP","UMID","UWND","VPD","VVENTO","VWND"],"latest":{"CDD":0.0,"DVENTO":"353","GDD":0.0,"HDD":11.0,"PREC":"0","PREC24":0.0,"PREC48":0.0,"RADSOL":"0","TAPP":5.6,"TDEW":4.7,"TEMP":"7.8","UMID":"81","UWND":0.17,"VPD":0.201,"VVENTO":"1.4","VWND":-1.39},"latest_time":"2026-10-04T07:15","series":"series/T0425.csv"}},{"type":"Feature","geometry":{"type":"Point","coordinates":[10.634818,46.18142]},"properties":{"scode":"T0433","name":"Val Genova (Malga Caret)","variables":["CDD","DVENTO","GDD","HDD","PREC","PREC24","PREC48","RADSOL","TAPP","TDEW","TEMP","UMID","UWND","VPD","VVENTO","VWND"],"latest":{"CDD":0.0,"DVENTO":"180","GDD":0.0,"HDD":13.6,"PREC":"0","PREC24":0.0,"PREC48":0.0,"RADSOL":"0","TAPP":0.6,"TDEW":1.0,"TEMP":"3.1","UMID":"86","UWND":-0.0,"VPD":0.107,"VVENTO":"1","VWND":1.0},"latest_time":"2026-10-04T07:00","series":"series/T0433.csv"}},{"type":"Feature","geometry":{"type":"Point","coordinates":[11.766852,46.478318]},"properties":{"scode":"T0437","name":"Canazei (Gries)","variables":["CDD","DVENTO","GDD","HDD","PREC","PREC24","PREC48","RADSOL","TAPP","TDEW","TEMP","UMID","UWND","VPD","VVENTO","VWND"],"latest":{"CDD":0.0,"DVENTO":"84","GDD":0.0,"HDD":13.2,"PREC":"0","PREC24":0.0,"PREC48":0.0,"RADSOL":"0","TAPP":1.8,"TDEW":1.9,"TEMP":"4","UMID":"86","UWND":-0.7,"VPD":0.114,"VVENTO":"0.7","VWND":-0.07},"latest_time":"2026-10-04T07:15","series":"series/T0437.csv"}},{"type":"Feature","geometry":{"type":"Point","coordinates":[11.796306,46.261622]},"properties":{"scode":"T0450","name":"San Martino di Castrozza","variables":["CDD","DVENTO","GDD","HDD","PREC","PREC24","PREC48","RADSOL","TAPP","TDEW","TEMP","UMID","UWND","VPD","VVENTO","VWND"],"latest":{"CDD":0.0,"DVENTO":"307","GDD":0.0,"HDD":15.4,"PREC":"0","PREC24":0.0,"PREC48":0.0,"RADSOL":"0","TAPP":0.6,"TDEW":2.3,"TEMP":"2.6","UMID":"98","UWND":0.4,"VPD":0.015,"VVENTO":"0.5","VWND":-0.3},"latest_time":"2026-10-04T07:15","series":"series/T0450.csv"}},{"type":"Feature","geometry":{"type":"Point","coordinates":[11.305143,46.010558]},"properties":{"scode":"T0010","name":"Levico (Terme)","variables":["CDD","DVENTO","GDD","HDD","PREC","PREC24","PREC48","RADSOL","TAPP","TDEW","TEMP","UMID","UWND","VPD","VVENTO","VWND"],"latest":{"CDD":0.0,"DVENTO":"8","GDD":0.0,"HDD":8.3,"PREC":"0","PREC24":0.0,"PREC48":0.0,"RADSOL":"0","TAPP":7.6,"TDEW":7.1,"TEMP":"8.6","UMID":"90","UWND":-0.06,"VPD":0.112,"VVENTO":"0.4","VWND":-0.4},"latest_time":"2026-10-04T07:15","series":"series/T0010.csv"}},{"type":"Feature","geometry":{"type":"Point","coordinates":[11.06545,45.73919]},"properties":{"scode":"T0153","name":"Ala (Ronchi)","variables":["CDD","DVENTO","GDD","HDD","PREC","PREC24","PREC48","RADSOL","TAPP","TDEW","TEMP","UMID","UWND","VPD","VVENTO","VWND"],"latest":{"CDD":0.0,"DVENTO":"27","GDD":1.6,"HDD":6.5,"PREC":"0","PREC24":0.0,"PREC48":0.0,"RADSOL":"0","TAPP":9.7,"TDEW":6.3,"TEMP":"10.7","UMID":"74","UWND":-0.09,"VPD":0.335,"VVENTO":"0.2","VWND":-0.18},"latest_time":"2026-10-04T07:15","series":"series/T0153.csv"}},{"type":"Feature","geometry":{"type":"Point","coordinates":[10.730879,46.041087]},"properties":{"scode":"T0179","name":"Tione","variables":["CDD","DVENTO","GDD","HDD","PREC","PREC24","PREC48","RADSOL","TAPP","TDEW","TEMP","UMID","UWND","VPD","VVENTO","VWND"],"latest":{"CDD":0.0,"DVENTO":"200","GDD":0.0,"HDD":9.6,"PREC":"0","PREC24":0.0,"PREC48":0.2,"RADSOL":"0","TAPP":6.4,"TDEW":7.4,"TEMP":"7.4","UMID":"100","UWND":0.21,"VPD":0.0,"VVENTO":"0.6","VWND":0.56},"latest_time":"2026-10-04T07:15","series":"series/T0179.csv"}},{"type":"Feature","geometry":{"type":"Point","coordinates":[11.24426731,46.06188027]},"properties":{"scode":"T0409","name":"Pergine Valsugana","variables":["CDD","DVENTO","GDD","HDD","PREC","PREC24","PREC48","RADSOL","TAPP","TDEW","TEMP","UMID","UWND","VPD","VVENTO","VWND"],"latest":{"CDD":0.0,"DVENTO":"15","GDD":0.0,"HDD":8.5,"PREC":"0","PREC24":0.0,"PREC48":0.0,"RADSOL":"0","TAPP":7.7,"TDEW":7.6,"TEMP":"8.4","UMID":"95","UWND":-0.05,"VPD":0.055,"VVENTO":"0.2","VWND":-0.19},"latest_time":"2026-10-04T07:15","series":"series/T0409.csv"}},{"type":"Feature","geometry":{"type":"Point","coordinates":[11.10137,46.095645]},"properties":{"scode":"T0135","name":"Trento (Roncafort)","variables":["CDD","DVENTO","GDD","HDD","PREC","PREC24","PREC48","RADSOL","TAPP","TDEW","TEMP","UMID","UWND","VPD","VVENTO","VWND"],"latest":{"CDD":0.0,"DVENTO":"274","GDD":0.0,"HDD":8.4,"PREC":"0","PREC24":0.0,"PREC48":0.0,"RADSOL":"0","TAPP":8.0,"TDEW":8.4,"TEMP":"8.7","UMID":"98","UWND":0.2,"VPD":0.022,"VVENTO":"0.2","VWND":-0.01},"latest_time":"2026-10-04T07:15","series":"series/T0135.csv"}},{"type":"Feature","geometry":{"type":"Point","coordinates":[11.629929,46.056924]},"properties":{"scode":"T0469","name":"Castello Tesino (Le Parti)","variables":["CDD","DVENTO","GDD","HDD","PREC","PREC24","PREC48","RADSOL","TAPP","TDEW","TEMP","UMID","UWND","VPD","VVENTO","VWND"],"latest":{"CDD":0.0,"DVENTO":"3","GDD":0.0,"HDD":10.7,"PREC":"0","PREC24":0.0,"PREC48":0.0,"RADSOL":"0","TAPP":6.7,"TDEW":4.5,"TEMP":"6.2","UMID":"89","UWND":-0.03,"VPD":0.104,"VVENTO":"0.6","VWND":-0.6},"latest_time":"2026-10-04T07:15","series":"series/T0469.csv"}},{"type":"Feature","geometry":{"type":"Point","coordinates":[11.799791,46.33839]},"properties":{"scode":"T0104","name":"Passo Valles","variables":["CDD","DVENTO","GDD","HDD","PREC","PREC24","PREC48","RADSOL","TAPP","TDEW","TEMP","UMID","UWND","VPD","VVENTO","VWND"],"latest":{"CDD":0.0,"DVENTO":"278","GDD":0.0,"HDD":11.6,"PREC":"0","PREC24":0.0,"PREC48":0.0,"RADSOL":"0","TAPP":3.9,"TDEW":0.2,"TEMP":"6.3","UMID":"65","UWND":0.59,"VPD":0.334,"VVENTO":"0.6","VWND":-0.08},"latest_time":"2026-10-04T07:15","series":"series/T0104.csv"}},{"type":"Feature","geometry":{"type":"Point","coordinates":[10.7150282,46.42302263]},"properties":{"scode":"T0066","name":"Cima Cavaion","variables":["CDD","DVENTO","GDD","HDD","PREC","PREC24","PREC48","TAPP","TDEW","TEMP","UMID","UWND","VPD","VVENTO","VWND"],"latest":{"CDD":0.0,"DVENTO":"311","GDD":0.0,"HDD":13.5,"PREC":"0","PREC24":0.0,"PREC48":0.0,"TAPP":1.0,"TDEW":1.0,"TEMP":"3.5","UMID":"84","UWND":0.68,"VPD":0.126,"VVENTO":"0.9","VWND":-0.59},"latest_time":"2026-10-03T19:00","series":"series/T0066.csv"}},{"type":"Feature","geometry":{"type":"Point","coordinates":[11.439944,46.174924]},"properties":{"scode":"T0384","name":"Passo Manghen","variables":["CDD","DVENTO","GDD","HDD","PREC","PREC24","PREC48","RADSOL","TAPP","TDEW","TEMP","UMID","UWND","VPD","VVENTO","VWND"],"latest":{"CDD":0.0,"DVENTO":"339","GDD":0.0,"HDD":11.8,"PREC":"0","PREC24":0.0,"PREC48":0.0,"RADSOL":"0","TAPP":4.0,"TDEW":4.1,"TEMP":"5.8","UMID":"89","UWND":0.25,"VPD":0.101,"VVENTO":"0.7","VWND":-0.65},"latest_time":"2026-10-04T07:00","series":"series/T0384.csv"}},{"type":"Feature","geometry":{"type":"Point","coordinates":[11.234176,45.970142]},"properties":{"scode":"T0009","name":"Centa San Nicolo'","variables":["CDD","GDD","HDD","PREC","PREC24","PREC48","TEMP"],"latest":{"CDD":0.0,"GDD":0.7,"HDD":7.6,"PREC":"0","PREC24":0.0,"PREC48":0.0,"TEMP":"9.4"},"latest_time":"2026-10-04T07:15","series":"series/T0009.csv"}},{"type":"Feature","geometry":{"type":"Point","coordinates":[11.49451,46.115819]},"properties":{"scode":"T0014","name":"Telve (Pontarso)","variables":["CDD","GDD","HDD","PREC","PREC24","PREC48","TEMP"],"latest":{"CDD":0.0,"GDD":0.0,"HDD":10.0,"PREC":"0","PREC24":0.0,"PREC48":0.0,"TEMP":"6.9"},"latest_time":"2026-10-04T07:15","series":"series/T0014.csv"}},{"type":"Feature","geometry":{"type":"Point","coordinates":[11.557174,46.081097]},"properties":{"scode":"T0015","name":"Bieno","variables":["CDD","GDD","HDD","PREC","PREC24","PREC48","TEMP"],"latest":{"CDD":0.0,"GDD":0.0,"HDD":8.5,"PREC":"0","PREC24":0.0,"PREC48":0.0,"TEMP":"8.6"},"latest_time":"2026-10-04T07:15","series":"series/T0015.csv"}},{"type":"Feature","geometry":{"type":"Point","coordinates":[11.915734,46.195903]},"properties":{"scode":"T0024","name":"Passo Cereda","variables":["CDD","GDD","HDD","PREC","PREC24","PREC48","TEMP"],"latest":{"CDD":0.0,"GDD":0.0,"HDD":9.8,"PREC":"0","PREC24":0.0,"PREC48":0.0,"TEMP":"8.7"},"latest_time":"2026-10-04T07:15","series":"series/T0024.csv"}},{"type":"Feature","geometry":{"type":"Point","coordinates":[11.839286,46.138717]},"properties":{"scode":"T0027","name":"Val Noana (Diga)","variables":["CDD","GDD","HDD","PREC","PREC24","PREC48","TEMP"],"latest":{"CDD":0.0,"GDD":0.0,"HDD":11.2,"PREC":"0","PREC24":0.0,"PREC48":0.0,"TEMP":"6.1"},"latest_time":"2026-10-04T07:15","series":"series/T0027.csv"}},{"type":"Feature","geometry":{"type":"Point","coordinates":[11.734845,46.14956]},"properties":{"scode":"T0030","name":"Canal San Bovo","variables":["CDD","GDD","HDD","PREC","PREC24","PREC48","TEMP"],"latest":{"CDD":0.0,"GDD":0.0,"HDD":9.3,"PREC":"0","PREC24":0.0,"PREC48":0.0,"TEMP":"8"},"latest_time":"2026-10-04T07:15","series":"series/T0030.csv"}},{"type":"Feature","geometry":{"type":"Point","coordinates":[11.253721,45.940308]},"properties":{"scode":"T0032","name":"Lavarone (Chiesa)","variables":["CDD","GDD","HDD","PREC","PREC24","PREC48","TEMP"],"latest":{"CDD":0.0,"GDD":0.0,"HDD":10.0,"PREC":"0","PREC24":0.0,"PREC48":0.0,"TEMP":"8.7"},"latest_time":"2026-10-04T07:15","series":"series/T0032.csv"}},{"type":"Feature","geometry":{"type":"Point","coordinates":[11.597609,46.260619]},"properties":{"scode":"T0059","name":"Ziano Di Fiemme (Malga Sadole)","variables":["CDD","GDD","HDD","PREC","PREC24","PREC48","TEMP"],"latest":{"CDD":0.0,"GDD":0.0,"HDD":11.3,"PREC":"0","PREC24":0.0,"PREC48":0.0,"TEMP":"6.2"},"latest_time":"2026-10-04T07:15","series":"series/T0059.csv"}},{"type":"Feature","geometry":{"type":"Point","coordinates":[11.189336,46.419179]},"properties":{"scode":"T0082","name":"Passo Mendola","variables":["CDD","GDD","HDD","PREC","PREC24","PREC48","TEMP"],"latest":{"CDD":0.0,"GDD":0.0,"HDD":9.5,"PREC":"0","PREC24":0.0,"PREC48":0.0,"TEMP":"7.9"},"latest_time":"2026-10-04T07:15","series":"series/T0082.csv"}},{"type":"Feature","geometry":{"type":"Point","coordinates":[11.101437,46.32065]},"properties":{"scode":"T0088","name":"Tres","variables":["CDD","GDD","HDD","PREC","PREC24","PREC48","TEMP"],"latest":{"CDD":0.0,"GDD":0.0,"HDD":10.3,"PREC":"0","PREC24":0.0,"PREC48":0.0,"TEMP":"6.7"},"latest_time":"2026-10-04T07:15","series":"series/T0088.csv"}},{"type":"Feature","geometry":{"type":"Point","coordinates":[11.862873,46.459032]},"properties":{"scode":"T0092","name":"Pian Fedaia (Diga)","variables":["CDD","GDD","HDD","PREC","PREC24","PREC48","TEMP"],"latest":{"CDD":0.0,"GDD":0.0,"HDD":12.7,"PREC":"0","PREC24":0.0,"PREC48":0.0,"TEMP":"5"},"latest_time":"2026-10-04T07:15","series":"series/T0092.csv"}},{"type":"Feature","geometry":{"type":"Point","coordinates":[11.613615,46.404528]},"properties":{"scode":"T0094","name":"Passo Costalunga","variables":["CDD","GDD","HDD","PREC","PREC24","PREC48","TEMP"],"latest":{"CDD":0.0,"GDD":0.0,"HDD":12.4,"PREC":"0","PREC24":0.0,"PREC48":0.0,"TEMP":"5"},"latest_time":"2026-10-04T07:15","series":"series/T0094.csv"}},{"type":"Feature","geometry":{"type":"Point","coordinates":[11.664651,46.383644]},"properties":{"scode":"T0096","name":"Moena (Diga Pezze')","variables":["CDD","GDD","HDD","PREC","PREC24","PREC48","TEMP"],"latest":{"CDD":0.0,"GDD":0.0,"HDD":13.7,"PREC":"0","PREC24":0.0,"PREC48":0.0,"TEMP":"3.3"},"latest_time":"2026-10-04T07:15","series":"series/T0096.csv"}},{"type":"Feature","geometry":{"type":"Point","coordinates":[11.079051,46.156797]},"properties":{"scode":"T0101","name":"Zambana (Idrovora)","variables":["CDD","GDD","HDD","PREC","PREC24","PREC48","TEMP"],"latest":{"CDD":0.0,"GDD":0.0,"HDD":8.0,"PREC":"0","PREC24":0.0,"PREC48":0.0,"TEMP":"8.8"},"latest_time":"2026-10-04T07:15","series":"series/T0101.csv"}},{"type":"Feature","geometry":{"type":"Point","coordinates":[11.30223,46.107093]},"properties":{"scode":"T0139","name":"Sant'Orsola Terme","variables":["CDD","GDD","HDD","PREC","PREC24","PREC48","TEMP"],"latest":{"CDD":0.0,"GDD":0.0,"HDD":8.0,"PREC":"0","PREC24":0.0,"PREC48":0.0,"TEMP":"8.8"},"latest_time":"2026-10-04T07:15","series":"series/T0139.csv"}},{"type":"Feature","geometry":{"type":"Point","coordinates":[11.151135,45.879641]},"properties":{"scode":"T0148","name":"Terragnolo (Piazza)","variables":["CDD","GDD","HDD","PREC","PREC24","PREC48","TEMP"],"latest":{"CDD":0.0,"GDD":0.4,"HDD":7.6,"PREC":"0","PREC24":0.0,"PREC48":0.0,"TEMP":"9.4"},"latest_time":"2026-10-04T07:15","series":"series/T0148.csv"}},{"type":"Feature","geometry":{"type":"Point","coordinates":[10.931371,45.855333]},"properties":{"scode":"T0151","name":"Mori (Loppio)","variables":["CDD","GDD","HDD","PREC","PREC24","PREC48","TEMP"],"latest":{"CDD":0.0,"GDD":0.9,"HDD":7.1,"PREC":"0","PREC24":0.0,"PREC48":0.0,"TEMP":"9.9"},"latest_time":"2026-10-04T07:15","series":"series/T0151.csv"}},{"type":"Feature","geometry":{"type":"Point","coordinates":[10.813895,46.249695]},"properties":{"scode":"T0167","name":"Pradalago (Rifugio Viviani)","variables":["CDD","GDD","HDD","PREC","PREC24","PREC48","TEMP"],"latest":{"CDD":0.0,"GDD":0.0,"HDD":12.2,"PREC":"0","PREC24":0.2,"PREC48":0.4,"TEMP":"5.7"},"latest_time":"2026-10-04T07:15","series":"series/T0167.csv"}},{"type":"Feature","geometry":{"type":"Point","coordinates":[10.88975472,46.21772173]},"properties":{"scode":"T0169","name":"Monte Groste' (Rifugio Graffer)","variables":["CDD","GDD","HDD","PREC","PREC24","PREC48","TDEW","TEMP","UMID","VPD"],"latest":{"CDD":0.0,"GDD":0.0,"HDD":14.0,"PREC":"0","PREC24":0.0,"PREC48":0.0,"TDEW":-3.6,"TEMP":"4.4","UMID":"56","VPD":0.368},"latest_time":"2026-10-04T07:15","series":"series/T0169.csv"}},{"type":"Feature","geometry":{"type":"Point","coordinates":[10.640606,46.032015]},"properties":{"scode":"T0177","name":"Val di Breguzzo (Ponte Arno')","variables":["CDD","GDD","HDD","PREC","PREC24","PREC48","TEMP"],"latest":{"CDD":0.0,"GDD":0.0,"HDD":12.1,"PREC":"0","PREC24":0.0,"PREC48":0.2,"TEMP":"5.3"},"latest_time":"2026-10-04T07:15","series":"series/T0177.csv"}},{"type":"Feature","geometry":{"type":"Point","coordinates":[10.7517,46.059072]},"properties":{"scode":"T0182","name":"Montagne (Larzana)","variables":["CDD","GDD","HDD","PREC","PREC24","PREC48","TEMP"],"latest":{"CDD":0.0,"GDD":0.3,"HDD":7.7,"PREC":"0","PREC24":0.0,"PREC48":0.0,"TEMP":"9.6"},"latest_time":"2026-10-04T07:00","series":"series/T0182.csv"}},{"type":"Feature","geometry":{"type":"Point","coordinates":[10.980275,46.065195]},"properties":{"scode":"T0189","name":"Santa Massenza (Centrale)","variables":["CDD","GDD","HDD","PREC","PREC24","PREC48","TEMP"],"latest":{"CDD":0.0,"GDD":2.9,"HDD":5.4,"PREC":"0","PREC24":0.0,"PREC48":0.0,"TEMP":"13.8"},"latest_time":"2026-10-04T07:15","series":"series/T0189.csv"}},{"type":"Feature","geometry":{"type":"Point","coordinates":[10.831278,45.91905]},"properties":{"scode":"T0200","name":"Tenno","variables":["CDD","GDD","HDD","PREC","PREC24","PREC48","TEMP"],"latest":{"CDD":0.0,"GDD":3.6,"HDD":4.4,"PREC":"0","PREC24":0.0,"PREC48":0.0,"TEMP":"12.9"},"latest_time":"2026-10-04T07:15","series":"series/T0200.csv"}},{"type":"Feature","geometry":{"type":"Point","coordinates":[11.164353,45.915349]},"properties":{"scode":"T0210","name":"Folgaria","variables":["CDD","GDD","HDD","PREC","PREC24","PREC48","TEMP"],"latest":{"CDD":0.0,"GDD":0.0,"HDD":8.2,"PREC":"0","PREC24":0.0,"PREC48":0.0,"TEMP":"8.9"},"latest_time":"2026-10-04T07:15","series":"series/T0210.csv"}},{"type":"Feature","geometry":{"type":"Point","coordinates":[11.046941,46.219574]},"properties":{"scode":"T0212","name":"Spormaggiore","variables":["CDD","GDD","HDD","PREC","PREC24","PREC48","TEMP"],"latest":{"CDD":0.0,"GDD":0.7,"HDD":7.3,"PREC":"0","PREC24":0.0,"PREC48":0.0,"TEMP":"9.6"},"latest_time":"2026-10-04T07:15","series":"series/T0212.csv"}},{"type":"Feature","geometry":{"type":"Point","coordinates":[11.351504,46.167258]},"properties":{"scode":"T0226","name":"Monte Ruioch (Rifugio Tonini)","variables":["CDD","GDD","HDD","PREC","PREC24","PREC48","TEMP"],"latest":{"CDD":0.0,"GDD":0.0,"HDD":9.8,"PREC":"0","PREC24":0.0,"PREC48":0.0,"TEMP":"8.5"},"latest_time":"2026-10-04T07:00","series":"series/T0226.csv"}},{"type":"Feature","geometry":{"type":"Point","coordinates":[11.491486,46.250369]},"properties":{"scode":"T0227","name":"Cermis (Casere)","variables":["CDD","GDD","HDD","PREC","PREC24","PREC48","TEMP"],"latest":{"CDD":0.0,"GDD":0.0,"HDD":10.9,"PREC":"0","PREC24":0.0,"PREC48":0.0,"TEMP":"7.6"},"latest_time":"2026-10-04T07:15","series":"series/T0227.csv"}},{"type":"Feature","geometry":{"type":"Point","coordinates":[11.65755,46.490938]},"properties":{"scode":"T0229","name":"Campitello (Malga Do Col D'Aura)","variables":["CDD","GDD","HDD","PREC","PREC24","PREC48","TEMP"],"latest":{"CDD":0.0,"GDD":0.0,"HDD":11.6,"PREC":"0","PREC24":0.0,"PREC48":0.0,"TEMP":"5.7"},"latest_time":"2026-10-04T07:00","series":"series/T0229.csv"}},{"type":"Feature","geometry":{"type":"Point","coordinates":[11.118861,46.390687]},"properties":{"scode":"T0236","name":"Romeno","variables":["CDD","GDD","HDD","PREC","PREC24","PREC48","TEMP"],"latest":{"CDD":0.0,"GDD":0.0,"HDD":9.3,"PREC":"0","PREC24":0.0,"PREC48":0.0,"TEMP":"8"},"latest_time":"2026-10-04T07:15","series":"series/T0236.csv"}},{"type":"Feature","geometry":{"type":"Point","coordinates":[11.223419,46.139381]},"properties":{"scode":"T0371","name":"Lases (frana)","variables":["CDD","GDD","HDD","PREC","PREC24","PREC48","TEMP"],"latest":{"CDD":0.0,"GDD":0.8,"HDD":7.4,"PREC":"0","PREC24":0.0,"PREC48":0.0,"TEMP":"9.4"},"latest_time":"2026-10-04T07:15","series":"series/T0371.csv"}},{"type":"Feature","geometry":{"type":"Point","coordinates":[11.122849,45.780307]},"properties":{"scode":"T0381","name":"Vallarsa (Parrocchia)","variables":["CDD","GDD","HDD","PREC","PREC24","PREC48","TEMP"],"latest":{"CDD":0.0,"GDD":0.0,"HDD":8.8,"PREC":"0","PREC24":0.0,"PREC48":0.0,"TEMP":"8.5"},"latest_time":"2026-10-04T07:15","series":"series/T0381.csv"}},{"type":"Feature","geometry":{"type":"Point","coordinates":[10.957526,46.141618]},"properties":{"scode":"T0383","name":"Molveno","variables":["CDD","GDD","HDD","PREC","PREC24","PREC48","TEMP"],"latest":{"CDD":0.0,"GDD":0.0,"HDD":9.7,"PREC":"0","PREC24":0.0,"PREC48":0.0,"TEMP":"8.2"},"latest_time":"2026-10-04T07:15","series":"series/T0383.csv"}},{"type":"Feature","geometry":{"type":"Point","coordinates":[11.598248,46.297866]},"properties":{"scode":"T0389","name":"Predazzo","variables":["CDD","GDD","HDD","PREC","PREC24","PREC48","TEMP"],"latest":{"CDD":0.0,"GDD":0.0,"HDD":10.2,"PREC":"0","PREC24":0.0,"PREC48":0.0,"TEMP":"6.8"},"latest_time":"2026-10-04T07:15","series":"series/T0389.csv"}},{"type":"Feature","geometry":{"type":"Point","coordinates":[11.477478,46.058046]},"properties":{"scode":"T0392","name":"Telve","variables":["CDD","GDD","HDD","PREC","PREC24","PREC48","TEMP"],"latest":{"CDD":0.0,"GDD":0.0,"HDD":10.0,"PREC":"0","PREC24":0.0,"PREC48":0.0,"TEMP":"7.1"},"latest_time":"2026-10-04T07:15","series":"series/T0392.csv"}},{"type":"Feature","geometry":{"type":"Point","coordinates":[10.562447,45.846767]},"properties":{"scode":"T0393","name":"Storo","variables":["CDD","GDD","HDD","PREC","PREC24","PREC48","TEMP"],"latest":{"CDD":0.0,"GDD":0.0,"HDD":9.0,"PREC":"0","PREC24":0.0,"PREC48":0.0,"TEMP":"7.6"},"latest_time":"2026-10-04T07:15","series":"series/T0393.csv"}},{"type":"Feature","geometry":{"type":"Point","coordinates":[11.039903,46.361167]},"properties":{"scode":"T0397","name":"Cles (Maso Maiano)","variables":["CDD","GDD","HDD","PREC","PREC24","PREC48","TEMP"],"latest":{"CDD":0.0,"GDD":0.0,"HDD":8.6,"PREC":"0","PREC24":0.0,"PREC48":0.0,"TEMP":"8.3"},"latest_time":"2026-10-04T07:15","series":"series/T0397.csv"}},{"type":"Feature","geometry":{"type":"Point","coordinates":[11.129627,46.437705]},"properties":{"scode":"T0399","name":"Fondo","variables":["CDD","GDD","HDD","PREC","PREC24","PREC48","TEMP"],"latest":{"CDD":0.0,"GDD":0.1,"HDD":7.8,"PREC":"0","PREC24":0.0,"PREC48":0.0,"TEMP":"9.2"},"latest_time":"2026-10-04T07:15","series":"series/T0399.csv"}},{"type":"Feature","geometry":{"type":"Point","coordinates":[10.887133,45.910374]},"properties":{"scode":"T0401","name":"Arco (Bruttagosto)","variables":["CDD","GDD","HDD","PREC","PREC24","PREC48","TEMP"],"latest":{"CDD":0.0,"GDD":2.6,"HDD":5.4,"PREC":"0","PREC24":0.0,"PREC48":0.0,"TEMP":"12"},"latest_time":"2026-10-04T07:15","series":"series/T0401.csv"}},{"type":"Feature","geometry":{"type":"Point","coordinates":[10.725025,45.895628]},"properties":{"scode":"T0402","name":"Bezzecca (Spessa)","variables":["CDD","GDD","HDD","PREC","PREC24","PREC48","TEMP"],"latest":{"CDD":0.0,"GDD":0.0,"HDD":9.6,"PREC":"0","PREC24":0.0,"PREC48":0.0,"TEMP":"7.5"},"latest_time":"2026-10-04T07:15","series":"series/T0402.csv"}},{"type":"Feature","geometry":{"type":"Point","coordinates":[11.023828,45.786137]},"properties":{"scode":"T0405","name":"Ala (Maso Le Pozze)","variables":["CDD","GDD","HDD","PREC","PREC24","PREC48","TEMP"],"latest":{"CDD":0.0,"GDD":1.1,"HDD":7.0,"PREC":"0","PREC24":0.0,"PREC48":0.0,"TEMP":"11.6"},"latest_time":"2026-10-04T07:15","series":"series/T0405.csv"}},{"type":"Feature","geometry":{"type":"Point","coordinates":[11.590219,45.979906]},"properties":{"scode":"T0407","name":"Grigno (Barricata)","variables":["CDD","GDD","HDD","PREC","PREC24","PREC48","TEMP"],"latest":{"CDD":0.0,"GDD":0.0,"HDD":14.6,"PREC":"0","PREC24":0.0,"PREC48":0.0,"TEMP":"3"},"latest_time":"2026-10-04T07:15","series":"series/T0407.csv"}},{"type":"Feature","geometry":{"type":"Point","coordinates":[11.104432,46.187266]},"properties":{"scode":"T0408","name":"Mezzolombardo (Maso Delle Part)","variables":["CDD","GDD","HDD","PREC","PREC24","PREC48","TEMP"],"latest":{"CDD":0.0,"GDD":0.0,"HDD":10.5,"PREC":"0","PREC24":0.0,"PREC48":0.0,"TEMP":"6.5"},"latest_time":"2026-10-04T07:15","series":"series/T0408.csv"}},{"type":"Feature","geometry":{"type":"Point","coordinates":[10.563104,45.971466]},"properties":{"scode":"T0410","name":"Daone (Pracul)","variables":["CDD","GDD","HDD","PREC","PREC24","PREC48","TEMP"],"latest":{"CDD":0.0,"GDD":0.0,"HDD":12.5,"PREC":"0","PREC24":0.0,"PREC48":0.0,"TEMP":"4.7"},"latest_time":"2026-10-04T07:15","series":"series/T0410.csv"}},{"type":"Feature","geometry":{"type":"Point","coordinates":[10.742036,45.971281]},"properties":{"scode":"T0412","name":"Zuclo (Malga Casinot)","variables":["CDD","GDD","HDD","PREC","PREC24","PREC48","TEMP"],"latest":{"CDD":0.0,"GDD":0.0,"HDD":11.4,"PREC":"0","PREC24":0.0,"PREC48":0.0,"TEMP":"6.2"},"latest_time":"2026-10-04T07:00","series":"series/T0412.csv"}},{"type":"Feature","geometry":{"type":"Point","coordinates":[10.881405,46.133428]},"properties":{"scode":"T0413","name":"Val D'Ambiez","variables":["CDD","GDD","HDD","PREC","PREC24","PREC48","TEMP"],"latest":{"CDD":0.0,"GDD":0.0,"HDD":12.3,"PREC":"0","PREC24":0.0,"PREC48":0.0,"TEMP":"5.2"},"latest_time":"2026-10-04T07:00","series":"series/T0413.csv"}},{"type":"Feature","geometry":{"type":"Point","coordinates":[10.889328,46.433136]},"properties":{"scode":"T0415","name":"Bresimo (Malga Bordolona)","variables":["CDD","GDD","HDD","PREC","PREC24","PREC48","TEMP"],"latest":{"CDD":0.0,"GDD":0.0,"HDD":12.2,"PREC":"0","PREC24":0.0,"PREC48":0.0,"TEMP":"5.8"},"latest_time":"2026-10-04T07:00","series":"series/T0415.csv"}},{"type":"Feature","geometry":{"type":"Point","coordinates":[11.043574,46.510001]},"properties":{"scode":"T0418","name":"Castelfondo (Malga Castrin)","variables":["CDD","GDD","HDD","PREC","PREC24","PREC48","TEMP"],"latest":{"CDD":0.0,"GDD":0.0,"HDD":11.2,"PREC":"0","PREC24":0.0,"PREC48":0.0,"TEMP":"6.8"},"latest_time":"2026-10-04T07:00","series":"series/T0418.csv"}},{"type":"Feature","geometry":{"type":"Point","coordinates":[11.59989,46.133545]},"properties":{"scode":"T0422","name":"Pieve Tesino (Malga Sorgazza)","variables":["CDD","GDD","HDD","PREC","PREC24","PREC48","TEMP"],"latest":{"CDD":0.0,"GDD":0.0,"HDD":11.3,"PREC":"0","PREC24":0.0,"PREC48":0.0,"TEMP":"6.5"},"latest_time":"2026-10-04T07:15","series":"series/T0422.csv"}},{"type":"Feature","geometry":{"type":"Point","coordinates":[11.402298,46.095996]},"properties":{"scode":"T0424","name":"Ronchi Valsugana (Malga Casapinello)","variables":["CDD","GDD","HDD","PREC","PREC24","PREC48","TEMP"],"latest":{"CDD":0.0,"GDD":0.0,"HDD":11.2,"PREC":"0","PREC24":0.0,"PREC48":0.0,"TEMP":"6.7"},"latest_time":"2026-10-04T07:00","series":"series/T0424.csv"}},{"type":"Feature","geometry":{"type":"Point","coordinates":[10.775487,46.147487]},"properties":{"scode":"T0426","name":"Giustino (frana)","variables":["CDD","GDD","HDD","PREC","PREC24","PREC48","TEMP"],"latest":{"CDD":0.0,"GDD":0.0,"HDD":8.4,"PREC":"0","PREC24":0.0,"PREC48":0.0,"TEMP":"8.8"},"latest_time":"2026-10-04T07:15","series":"series/T0426.csv"}},{"type":"Feature","geometry":{"type":"Point","coordinates":[10.86522,46.30186]},"properties":{"scode":"T0427","name":"Folgarida Alta","variables":["CDD","GDD","HDD","PREC","PREC24","PREC48","TEMP"],"latest":{"CDD":0.0,"GDD":0.0,"HDD":9.7,"PREC":"0","PREC24":0.2,"PREC48":0.2,"TEMP":"7.7"},"latest_time":"2026-10-04T07:15","series":"series/T0427.csv"}},{"type":"Feature","geometry":{"type":"Point","coordinates":[10.642872,45.940987]},"properties":{"scode":"T0428","name":"Pieve Di Bono","variables":["CDD","GDD","HDD","PREC","PREC24","PREC48","TEMP"],"latest":{"CDD":0.0,"GDD":0.0,"HDD":8.5,"PREC":"0","PREC24":0.0,"PREC48":0.0,"TEMP":"8.9"},"latest_time":"2026-10-04T07:15","series":"series/T0428.csv"}},{"type":"Feature","geometry":{"type":"Point","coordinates":[11.793483,46.200619]},"properties":{"scode":"T0429","name":"Lago Di Calaita","variables":["CDD","GDD","HDD","PREC","PREC24","PREC48","TEMP"],"latest":{"CDD":0.0,"GDD":0.0,"HDD":12.6,"PREC":"0","PREC24":0.0,"PREC48":0.0,"TEMP":"5"},"latest_time":"2026-10-04T07:00","series":"series/T0429.csv"}},{"type":"Feature","geometry":{"type":"Point","coordinates":[11.33633,46.263079]},"properties":{"scode":"T0431","name":"Capriana","variables":["CDD","GDD","HDD","PREC","PREC24","PREC48","TEMP"],"latest":{"CDD":0.0,"GDD":0.0,"HDD":9.6,"PREC":"0","PREC24":0.0,"PREC48":0.0,"TEMP":"7.8"},"latest_time":"2026-10-04T07:15","series":"series/T0431.csv"}},{"type":"Feature","geometry":{"type":"Point","coordinates":[11.379319,46.006134]},"properties":{"scode":"T0432","name":"Val Sella (Montagnola)","variables":["CDD","GDD","HDD","PREC","PREC24","PREC48","TEMP"],"latest":{"CDD":0.0,"GDD":0.0,"HDD":12.7,"PREC":"0","PREC24":0.2,"PREC48":0.2,"TEMP":"4.8"},"latest_time":"2026-10-04T07:15","series":"series/T0432.csv"}},{"type":"Feature","geometry":{"type":"Point","coordinates":[10.834362,46.244878]},"properties":{"scode":"T0435","name":"Pinzolo (Malga Zeledria)","variables":["CDD","GDD","HDD","PREC","PREC24","PREC48","TEMP"],"latest":{"CDD":0.0,"GDD":0.0,"HDD":13.6,"PREC":"0","PREC24":0.2,"PREC48":0.2,"TEMP":"3.7"},"latest_time":"2026-10-04T07:15","series":"series/T0435.csv"}},{"type":"Feature","geometry":{"type":"Point","coordinates":[10.959756,45.824004]},"properties":{"scode":"T0443","name":"Brentonico (Santa Caterina)","variables":["CDD","GDD","HDD","PREC","PREC24","PREC48","TEMP"],"latest":{"CDD":0.0,"GDD":1.8,"HDD":6.3,"PREC":"0","PREC24":0.0,"PREC48":0.0,"TEMP":"10.6"},"latest_time":"2026-10-04T07:15","series":"series/T0443.csv"}},{"type":"Feature","geometry":{"type":"Point","coordinates":[11.13742,46.064375]},"properties":{"scode":"T0454","name":"Trento (Liceo Galilei)","variables":["CDD","GDD","HDD","PREC","PREC24","PREC48","TEMP"],"latest":{"CDD":0.0,"GDD":2.6,"HDD":5.6,"PREC":"0","PREC24":0.0,"PREC48":0.0,"TEMP":"11.2"},"latest_time":"2026-10-04T07:15","series":"series/T0454.csv"}},{"type":"Feature","geometry":{"type":"Point","coordinates":[10.612562,46.340912]},"properties":{"scode":"T0380","name":"Pian Palu' (Malga Giumella)","variables":["CDD","GDD","HDD","PREC","PREC24","PREC48","TEMP"],"latest":{"CDD":0.0,"GDD":0.0,"HDD":8.6,"PREC":"0","PREC24":0.0,"PREC48":0.0,"TEMP":"13.4"},"latest_time":"2026-10-03T17:00","series":"series/T0380.csv"}},{"type":"Feature","geometry":{"type":"Point","coordinates":[10.660678,46.080894]},"properties":{"scode":"T0411","name":"Villa Rendena (Rifugio Gork)","variables":["CDD","GDD","HDD","PREC","PREC24","PREC48","TEMP"],"latest":{"CDD":0.0,"GDD":4.1,"HDD":2.2,"PREC":"0","PREC24":0.0,"PREC48":0.0,"TEMP":"17.8"},"latest_time":"2026-09-28T12:30","series":"series/T0411.csv"}},{"type":"Feature","geometry":{"type":"Point","coordinates":[10.583453,46.219964]},"properties":{"scode":"T0365","name":"Cima Presena","variables":["CDD","GDD","HDD","RADSOL","TEMP"],"latest":{"CDD":0.0,"GDD":0.0,"HDD":16.4,"RADSOL":"0","TEMP":"2.1"},"latest_time":"2026-10-04T07:00","series":"series/T0365.csv"}}]}