{"type":"FeatureCollection","name":"INV_ER","features":[{"type":"Feature","geometry":{"type":"Point","coordinates":[11.8261,43.9711]},"properties":{"scode":"RIDRACOLI","name":"Diga di Ridracoli","variables":["AFFLUSSO","DEFLUSSO","LIVLAGO","TEMPACQUA","VOLINVASO"],"latest":{"AFFLUSSO":0.0,"DEFLUSSO":1.46,"LIVLAGO":534.38,"TEMPACQUA":7.0,"VOLINVASO":14.576},"latest_time":"2026-09-19T20:05","series":"series/RIDRACOLI.csv"}},{"type":"Feature","geometry":{"type":"Point","coordinates":[12.672,43.94]},"properties":{"scode":"CONCA","name":"Invaso del Conca","variables":["AFFLUSSO","DEFLUSSO","LIVLAGO","VOLINVASO"],"latest":{"AFFLUSSO":0.02,"DEFLUSSO":-0.0,"LIVLAGO":12.06,"VOLINVASO":0.001},"latest_time":"2026-09-19T20:05","series":"series/CONCA.csv"}}]}