{"type":"FeatureCollection","name":"PC_PIE","features":[{"type":"Feature","geometry":{"type":"Point","coordinates":[7.82972,44.9239]},"properties":{"scode":"PIE131","name":"Banna a Poirino","variables":["LIVIDRO"],"latest":{"LIVIDRO":0.33},"latest_time":"2026-09-06T22:00","series":"series/PIE131.csv","zero_idro":231.5}},{"type":"Feature","geometry":{"type":"Point","coordinates":[8.21222,44.885]},"properties":{"scode":"PIE138","name":"Tanaro a Asti","variables":["LIVIDRO"],"latest":{"LIVIDRO":0.8},"latest_time":"2026-09-06T22:00","series":"series/PIE138.csv","zero_idro":108.1}},{"type":"Feature","geometry":{"type":"Point","coordinates":[8.41056,44.8717]},"properties":{"scode":"PIE177","name":"Tanaro a Masio","variables":["LIVIDRO"],"latest":{"LIVIDRO":-0.73},"latest_time":"2026-09-06T22:00","series":"series/PIE177.csv","zero_idro":96.78}},{"type":"Feature","geometry":{"type":"Point","coordinates":[8.64556,44.9056]},"properties":{"scode":"PIE178","name":"Bormida a Alessandria","variables":["LIVIDRO"],"latest":{"LIVIDRO":1.31},"latest_time":"2026-09-06T22:00","series":"series/PIE178.csv","zero_idro":83.66}},{"type":"Feature","geometry":{"type":"Point","coordinates":[7.78194,44.9447]},"properties":{"scode":"PIE180","name":"Banna a Santena","variables":["LIVIDRO"],"latest":{"LIVIDRO":0.32},"latest_time":"2026-09-06T22:00","series":"series/PIE180.csv","zero_idro":228.45}},{"type":"Feature","geometry":{"type":"Point","coordinates":[8.22167,45.6739]},"properties":{"scode":"PIE188","name":"Sessera a Pray","variables":["LIVIDRO"],"latest":{"LIVIDRO":0.82},"latest_time":"2026-09-06T22:00","series":"series/PIE188.csv","zero_idro":400.7}},{"type":"Feature","geometry":{"type":"Point","coordinates":[8.54,45.285]},"properties":{"scode":"PIE200","name":"Sesia a Palestro","variables":["LIVIDRO"],"latest":{"LIVIDRO":1.96},"latest_time":"2026-09-06T22:00","series":"series/PIE200.csv","zero_idro":108.8}},{"type":"Feature","geometry":{"type":"Point","coordinates":[8.08167,44.8419]},"properties":{"scode":"PIE204","name":"Borbore a San Damiano D'Asti","variables":["LIVIDRO"],"latest":{"LIVIDRO":0.0},"latest_time":"2026-09-06T22:00","series":"series/PIE204.csv","zero_idro":145.31}},{"type":"Feature","geometry":{"type":"Point","coordinates":[8.82295,45.0358]},"properties":{"scode":"PIE216","name":"Po a Isola Sant'Antonio","variables":["LIVIDRO"],"latest":{"LIVIDRO":0.05},"latest_time":"2026-09-06T22:00","series":"series/PIE216.csv","zero_idro":68.08}},{"type":"Feature","geometry":{"type":"Point","coordinates":[8.686,44.9467]},"properties":{"scode":"PIE218","name":"Tanaro a Montecastello","variables":["LIVIDRO"],"latest":{"LIVIDRO":-1.12},"latest_time":"2026-09-06T22:00","series":"series/PIE218.csv","zero_idro":79.8}},{"type":"Feature","geometry":{"type":"Point","coordinates":[8.87639,45.0286]},"properties":{"scode":"PIE221","name":"Scrivia a Guazzora","variables":["LIVIDRO"],"latest":{"LIVIDRO":0.28},"latest_time":"2026-09-06T22:00","series":"series/PIE221.csv","zero_idro":67.03}},{"type":"Feature","geometry":{"type":"Point","coordinates":[8.03361,45.4306]},"properties":{"scode":"PIE234","name":"Lago Di Viverone a Piverone","variables":["LIVIDRO"],"latest":{"LIVIDRO":0.88},"latest_time":"2026-09-06T22:00","series":"series/PIE234.csv","zero_idro":229.02}},{"type":"Feature","geometry":{"type":"Point","coordinates":[8.03806,45.6306]},"properties":{"scode":"PIE235","name":"Cervo a Sagliano Micca","variables":["LIVIDRO"],"latest":{"LIVIDRO":0.83},"latest_time":"2026-09-06T22:00","series":"series/PIE235.csv","zero_idro":573.88}},{"type":"Feature","geometry":{"type":"Point","coordinates":[8.335,44.5689]},"properties":{"scode":"PIE236","name":"Bormida Di Spigno a Mombaldone","variables":["LIVIDRO"],"latest":{"LIVIDRO":0.46},"latest_time":"2026-09-06T22:00","series":"series/PIE236.csv","zero_idro":198.73}},{"type":"Feature","geometry":{"type":"Point","coordinates":[7.66583,45.2833]},"properties":{"scode":"PIE247","name":"Malone a Front","variables":["LIVIDRO"],"latest":{"LIVIDRO":0.31},"latest_time":"2026-09-06T22:00","series":"series/PIE247.csv","zero_idro":265.48}},{"type":"Feature","geometry":{"type":"Point","coordinates":[7.63139,45.1342]},"properties":{"scode":"PIE256","name":"Ceronda a Venaria Reale","variables":["LIVIDRO"],"latest":{"LIVIDRO":0.6},"latest_time":"2026-09-06T22:00","series":"series/PIE256.csv","zero_idro":246.06}},{"type":"Feature","geometry":{"type":"Point","coordinates":[7.16278,44.9467]},"properties":{"scode":"PIE276","name":"Germanasca a Perrero","variables":["LIVIDRO"],"latest":{"LIVIDRO":-0.69},"latest_time":"2026-09-06T22:00","series":"series/PIE276.csv","zero_idro":649.87}},{"type":"Feature","geometry":{"type":"Point","coordinates":[7.42,45.0356]},"properties":{"scode":"PIE278","name":"Sangone a Trana","variables":["LIVIDRO"],"latest":{"LIVIDRO":-0.4},"latest_time":"2026-09-06T22:00","series":"series/PIE278.csv","zero_idro":363.07}},{"type":"Feature","geometry":{"type":"Point","coordinates":[8.42111,44.5733]},"properties":{"scode":"PIE284","name":"Erro a Cartosio","variables":["LIVIDRO"],"latest":{"LIVIDRO":-1.19},"latest_time":"2026-09-06T22:00","series":"series/PIE284.csv","zero_idro":212.75}},{"type":"Feature","geometry":{"type":"Point","coordinates":[7.72444,44.5239]},"properties":{"scode":"PIE292","name":"Stura Di Demonte a Fossano","variables":["LIVIDRO"],"latest":{"LIVIDRO":0.05},"latest_time":"2026-09-06T22:00","series":"series/PIE292.csv","zero_idro":309.72}},{"type":"Feature","geometry":{"type":"Point","coordinates":[8.015,44.2019]},"properties":{"scode":"PIE313","name":"Tanaro a Garessio","variables":["LIVIDRO"],"latest":{"LIVIDRO":0.41},"latest_time":"2026-09-06T22:00","series":"series/PIE313.csv","zero_idro":575.23}},{"type":"Feature","geometry":{"type":"Point","coordinates":[7.97194,44.4178]},"properties":{"scode":"PIE328","name":"Tanaro a Lesegno","variables":["LIVIDRO"],"latest":{"LIVIDRO":-0.39},"latest_time":"2026-09-06T22:00","series":"series/PIE328.csv","zero_idro":338.55}},{"type":"Feature","geometry":{"type":"Point","coordinates":[7.71806,45.0758]},"properties":{"scode":"PIE371","name":"Dora Riparia a Torino","variables":["LIVIDRO"],"latest":{"LIVIDRO":1.05},"latest_time":"2026-09-06T22:00","series":"series/PIE371.csv","zero_idro":210.68}},{"type":"Feature","geometry":{"type":"Point","coordinates":[7.70639,45.1111]},"properties":{"scode":"PIE372","name":"Stura Di Lanzo a Torino","variables":["LIVIDRO"],"latest":{"LIVIDRO":0.06},"latest_time":"2026-09-06T22:00","series":"series/PIE372.csv","zero_idro":214.32}},{"type":"Feature","geometry":{"type":"Point","coordinates":[7.85191,45.1819]},"properties":{"scode":"PIE373","name":"Malone a Chivasso","variables":["LIVIDRO"],"latest":{"LIVIDRO":1.05},"latest_time":"2026-09-06T22:00","series":"series/PIE373.csv","zero_idro":180.9}},{"type":"Feature","geometry":{"type":"Point","coordinates":[7.80611,45.2467]},"properties":{"scode":"PIE374","name":"Orco a San Benigno Canavese","variables":["LIVIDRO"],"latest":{"LIVIDRO":0.44},"latest_time":"2026-09-06T22:00","series":"series/PIE374.csv","zero_idro":210.34}},{"type":"Feature","geometry":{"type":"Point","coordinates":[8.04111,45.1919]},"properties":{"scode":"PIE375","name":"Dora Baltea a Verolengo","variables":["LIVIDRO"],"latest":{"LIVIDRO":1.03},"latest_time":"2026-09-06T22:00","series":"series/PIE375.csv","zero_idro":156.3}},{"type":"Feature","geometry":{"type":"Point","coordinates":[8.25556,45.8306]},"properties":{"scode":"PIE376","name":"Mastallone a Varallo","variables":["LIVIDRO"],"latest":{"LIVIDRO":0.38},"latest_time":"2026-09-06T22:00","series":"series/PIE376.csv","zero_idro":471.28}},{"type":"Feature","geometry":{"type":"Point","coordinates":[8.43417,45.9269]},"properties":{"scode":"PIE378","name":"Strona Di Omegna a Gravellona Toce","variables":["LIVIDRO"],"latest":{"LIVIDRO":-0.26},"latest_time":"2026-09-06T22:00","series":"series/PIE378.csv","zero_idro":205.28}},{"type":"Feature","geometry":{"type":"Point","coordinates":[8.59056,45.4311]},"properties":{"scode":"PIE379","name":"Agogna a Novara","variables":["LIVIDRO"],"latest":{"LIVIDRO":-0.15},"latest_time":"2026-09-06T22:00","series":"series/PIE379.csv","zero_idro":137.83}},{"type":"Feature","geometry":{"type":"Point","coordinates":[7.59861,44.8025]},"properties":{"scode":"PIE381","name":"Varaita a Polonghera","variables":["LIVIDRO"],"latest":{"LIVIDRO":0.02},"latest_time":"2026-09-06T22:00","series":"series/PIE381.csv","zero_idro":240.19}},{"type":"Feature","geometry":{"type":"Point","coordinates":[7.88278,44.4647]},"properties":{"scode":"PIE383","name":"Pesio a Carru'","variables":["LIVIDRO"],"latest":{"LIVIDRO":0.11},"latest_time":"2026-09-06T22:00","series":"series/PIE383.csv","zero_idro":275.04}},{"type":"Feature","geometry":{"type":"Point","coordinates":[7.32444,44.4094]},"properties":{"scode":"PIE385","name":"Grana a Monterosso Grana","variables":["LIVIDRO"],"latest":{"LIVIDRO":0.23},"latest_time":"2026-09-06T22:00","series":"series/PIE385.csv","zero_idro":713.5}},{"type":"Feature","geometry":{"type":"Point","coordinates":[7.82,44.3903]},"properties":{"scode":"PIE386","name":"Ellero a Mondovi'","variables":["LIVIDRO"],"latest":{"LIVIDRO":0.75},"latest_time":"2026-09-06T22:00","series":"series/PIE386.csv","zero_idro":380.77}},{"type":"Feature","geometry":{"type":"Point","coordinates":[8.24906,44.6492]},"properties":{"scode":"PIE387","name":"Bormida Di Millesimo a Cessole","variables":["LIVIDRO"],"latest":{"LIVIDRO":-0.55},"latest_time":"2026-09-06T22:00","series":"series/PIE387.csv","zero_idro":199.52}},{"type":"Feature","geometry":{"type":"Point","coordinates":[7.60167,45.4217]},"properties":{"scode":"PIE388","name":"Soana a Pont-Canavese","variables":["LIVIDRO"],"latest":{"LIVIDRO":1.14},"latest_time":"2026-09-06T22:00","series":"series/PIE388.csv","zero_idro":441.4}},{"type":"Feature","geometry":{"type":"Point","coordinates":[6.75806,45.0467]},"properties":{"scode":"PIE401","name":"Dora Di Bardonecchia a Oulx","variables":["LIVIDRO"],"latest":{"LIVIDRO":0.07},"latest_time":"2026-09-06T22:00","series":"series/PIE401.csv","zero_idro":1134.8}},{"type":"Feature","geometry":{"type":"Point","coordinates":[6.83337,45.0336]},"properties":{"scode":"PIE402","name":"Dora Riparia a Oulx","variables":["LIVIDRO"],"latest":{"LIVIDRO":-0.16},"latest_time":"2026-09-06T22:00","series":"series/PIE402.csv","zero_idro":1071.29}},{"type":"Feature","geometry":{"type":"Point","coordinates":[7.05611,45.1419]},"properties":{"scode":"PIE403","name":"Cenischia a Susa","variables":["LIVIDRO"],"latest":{"LIVIDRO":0.34},"latest_time":"2026-09-06T22:00","series":"series/PIE403.csv","zero_idro":495.13}},{"type":"Feature","geometry":{"type":"Point","coordinates":[8.32389,46.1808]},"properties":{"scode":"PIE407","name":"Toce a Crevoladossola","variables":["LIVIDRO"],"latest":{"LIVIDRO":0.17},"latest_time":"2026-09-06T22:00","series":"series/PIE407.csv","zero_idro":345.15}},{"type":"Feature","geometry":{"type":"Point","coordinates":[8.27389,46.1217]},"properties":{"scode":"PIE409","name":"Bogna a Domodossola","variables":["LIVIDRO"],"latest":{"LIVIDRO":0.28},"latest_time":"2026-09-06T22:00","series":"series/PIE409.csv","zero_idro":320.53}},{"type":"Feature","geometry":{"type":"Point","coordinates":[8.2575,46.0678]},"properties":{"scode":"PIE410","name":"Ovesca a Villadossola","variables":["LIVIDRO"],"latest":{"LIVIDRO":-0.35},"latest_time":"2026-09-06T22:00","series":"series/PIE410.csv","zero_idro":260.85}},{"type":"Feature","geometry":{"type":"Point","coordinates":[7.69111,44.9089]},"properties":{"scode":"PIE412","name":"Po a Carignano","variables":["LIVIDRO"],"latest":{"LIVIDRO":0.97},"latest_time":"2026-09-06T22:00","series":"series/PIE412.csv","zero_idro":221.65}},{"type":"Feature","geometry":{"type":"Point","coordinates":[8.26056,45.7367]},"properties":{"scode":"PIE413","name":"Sesia a Borgosesia","variables":["LIVIDRO"],"latest":{"LIVIDRO":0.7},"latest_time":"2026-09-06T22:00","series":"series/PIE413.csv","zero_idro":354.9}},{"type":"Feature","geometry":{"type":"Point","coordinates":[7.82623,45.5479]},"properties":{"scode":"PIE414","name":"Dora Baltea a Settimo Vittone","variables":["LIVIDRO"],"latest":{"LIVIDRO":1.04},"latest_time":"2026-09-06T22:00","series":"series/PIE414.csv","zero_idro":262.52}},{"type":"Feature","geometry":{"type":"Point","coordinates":[7.48278,45.2683]},"properties":{"scode":"PIE415","name":"Stura Di Lanzo a Lanzo Torinese","variables":["LIVIDRO"],"latest":{"LIVIDRO":-0.16},"latest_time":"2026-09-06T22:00","series":"series/PIE415.csv","zero_idro":448.85}},{"type":"Feature","geometry":{"type":"Point","coordinates":[7.28306,44.8853]},"properties":{"scode":"PIE417","name":"Chisone a Pinerolo","variables":["LIVIDRO"],"latest":{"LIVIDRO":-0.63},"latest_time":"2026-09-06T22:00","series":"series/PIE417.csv","zero_idro":400.33}},{"type":"Feature","geometry":{"type":"Point","coordinates":[7.24389,44.8111]},"properties":{"scode":"PIE418","name":"Pellice a Luserna San Giovanni","variables":["LIVIDRO"],"latest":{"LIVIDRO":-0.3},"latest_time":"2026-09-06T22:00","series":"series/PIE418.csv","zero_idro":465.93}},{"type":"Feature","geometry":{"type":"Point","coordinates":[7.44139,44.5542]},"properties":{"scode":"PIE420","name":"Varaita a Rossana","variables":["LIVIDRO"],"latest":{"LIVIDRO":0.46},"latest_time":"2026-09-06T22:00","series":"series/PIE420.csv","zero_idro":492.48}},{"type":"Feature","geometry":{"type":"Point","coordinates":[7.48139,44.515]},"properties":{"scode":"PIE421","name":"Maira a Busca","variables":["LIVIDRO"],"latest":{"LIVIDRO":-0.29},"latest_time":"2026-09-06T22:00","series":"series/PIE421.csv","zero_idro":473.38}},{"type":"Feature","geometry":{"type":"Point","coordinates":[7.41559,44.3311]},"properties":{"scode":"PIE422","name":"Stura Di Demonte a Gaiola","variables":["LIVIDRO"],"latest":{"LIVIDRO":0.11},"latest_time":"2026-09-06T22:00","series":"series/PIE422.csv","zero_idro":642.93}},{"type":"Feature","geometry":{"type":"Point","coordinates":[8.86083,44.725]},"properties":{"scode":"PIE423","name":"Scrivia a Serravalle Scrivia","variables":["LIVIDRO"],"latest":{"LIVIDRO":-1.48},"latest_time":"2026-09-06T22:00","series":"series/PIE423.csv","zero_idro":193.68}},{"type":"Feature","geometry":{"type":"Point","coordinates":[8.98305,44.8871]},"properties":{"scode":"PIE424","name":"Curone a Volpedo","variables":["LIVIDRO"],"latest":{"LIVIDRO":-0.75},"latest_time":"2026-09-06T22:00","series":"series/PIE424.csv","zero_idro":175.23}},{"type":"Feature","geometry":{"type":"Point","coordinates":[8.41889,44.7983]},"properties":{"scode":"PIE427","name":"Belbo a Castelnuovo Belbo","variables":["LIVIDRO"],"latest":{"LIVIDRO":-0.17},"latest_time":"2026-09-06T22:00","series":"series/PIE427.csv","zero_idro":113.0}},{"type":"Feature","geometry":{"type":"Point","coordinates":[8.63139,44.8328]},"properties":{"scode":"PIE430","name":"Orba a Casal Cermelli","variables":["LIVIDRO"],"latest":{"LIVIDRO":-1.03},"latest_time":"2026-09-06T22:00","series":"series/PIE430.csv","zero_idro":97.42}},{"type":"Feature","geometry":{"type":"Point","coordinates":[8.5425,44.7514]},"properties":{"scode":"PIE431","name":"Bormida a Cassine","variables":["LIVIDRO"],"latest":{"LIVIDRO":-0.42},"latest_time":"2026-09-06T22:00","series":"series/PIE431.csv","zero_idro":113.45}},{"type":"Feature","geometry":{"type":"Point","coordinates":[7.90167,44.5172]},"properties":{"scode":"PIE435","name":"Tanaro a Piozzo","variables":["LIVIDRO"],"latest":{"LIVIDRO":-0.11},"latest_time":"2026-09-06T22:00","series":"series/PIE435.csv","zero_idro":234.21}},{"type":"Feature","geometry":{"type":"Point","coordinates":[8.44778,45.1419]},"properties":{"scode":"PIE440","name":"Po a Casale Monferrato","variables":["LIVIDRO"],"latest":{"LIVIDRO":-1.97},"latest_time":"2026-09-06T22:00","series":"series/PIE440.csv","zero_idro":107.58}},{"type":"Feature","geometry":{"type":"Point","coordinates":[8.30639,46.1125]},"properties":{"scode":"PIE441","name":"Toce a Domodossola","variables":["LIVIDRO"],"latest":{"LIVIDRO":1.16},"latest_time":"2026-09-06T22:00","series":"series/PIE441.csv","zero_idro":256.72}},{"type":"Feature","geometry":{"type":"Point","coordinates":[8.54778,45.5711]},"properties":{"scode":"PIE442","name":"Agogna a Momo","variables":["LIVIDRO"],"latest":{"LIVIDRO":0.42},"latest_time":"2026-09-06T22:00","series":"series/PIE442.csv","zero_idro":203.1}},{"type":"Feature","geometry":{"type":"Point","coordinates":[8.61,45.5186]},"properties":{"scode":"PIE444","name":"Terdoppio a Caltignaga","variables":["LIVIDRO"],"latest":{"LIVIDRO":0.6},"latest_time":"2026-09-06T22:00","series":"series/PIE444.csv","zero_idro":170.96}},{"type":"Feature","geometry":{"type":"Point","coordinates":[8.42167,45.9747]},"properties":{"scode":"PIE604","name":"Toce a Mergozzo","variables":["LIVIDRO"],"latest":{"LIVIDRO":0.15},"latest_time":"2026-09-06T22:00","series":"series/PIE604.csv","zero_idro":196.0}},{"type":"Feature","geometry":{"type":"Point","coordinates":[8.54861,45.9242]},"properties":{"scode":"PIE641","name":"Lago Maggiore a Verbania","variables":["LIVIDRO"],"latest":{"LIVIDRO":3.19},"latest_time":"2026-09-06T22:00","series":"series/PIE641.csv","zero_idro":190.0}},{"type":"Feature","geometry":{"type":"Point","coordinates":[8.14543,44.4422]},"properties":{"scode":"PIES2080","name":"Bormida Di Millesimo a Camerana","variables":["LIVIDRO"],"latest":{"LIVIDRO":0.22},"latest_time":"2026-09-06T22:00","series":"series/PIES2080.csv","zero_idro":357.3}},{"type":"Feature","geometry":{"type":"Point","coordinates":[8.63167,45.0508]},"properties":{"scode":"PIES2115","name":"Po a Valenza","variables":["LIVIDRO"],"latest":{"LIVIDRO":-0.64},"latest_time":"2026-09-06T22:00","series":"series/PIES2115.csv","zero_idro":85.18}},{"type":"Feature","geometry":{"type":"Point","coordinates":[7.78446,45.1305]},"properties":{"scode":"PIES2422","name":"Po a Castiglione Torinese","variables":["LIVIDRO"],"latest":{"LIVIDRO":0.76},"latest_time":"2026-09-06T22:00","series":"series/PIES2422.csv","zero_idro":189.94}},{"type":"Feature","geometry":{"type":"Point","coordinates":[7.8675,44.1178]},"properties":{"scode":"PIES2590","name":"Tanaro a Ormea","variables":["LIVIDRO"],"latest":{"LIVIDRO":0.59},"latest_time":"2026-09-06T22:00","series":"series/PIES2590.csv","zero_idro":806.42}},{"type":"Feature","geometry":{"type":"Point","coordinates":[7.79806,45.42]},"properties":{"scode":"PIES2887","name":"Chiusella a Parella","variables":["LIVIDRO"],"latest":{"LIVIDRO":-0.09},"latest_time":"2026-09-06T22:00","series":"series/PIES2887.csv","zero_idro":247.9}},{"type":"Feature","geometry":{"type":"Point","coordinates":[7.43361,45.2444]},"properties":{"scode":"PIES2980","name":"Stura Di Viu a Germagnano","variables":["LIVIDRO"],"latest":{"LIVIDRO":0.42},"latest_time":"2026-09-06T22:00","series":"series/PIES2980.csv","zero_idro":561.06}},{"type":"Feature","geometry":{"type":"Point","coordinates":[8.37414,45.3815]},"properties":{"scode":"PIES2985","name":"Cervo a Quinto Vercellese","variables":["LIVIDRO"],"latest":{"LIVIDRO":-0.29},"latest_time":"2026-09-06T22:00","series":"series/PIES2985.csv","zero_idro":134.2}},{"type":"Feature","geometry":{"type":"Point","coordinates":[8.52552,45.9565]},"properties":{"scode":"PIES3222","name":"San Bernardino a Verbania","variables":["LIVIDRO"],"latest":{"LIVIDRO":1.27},"latest_time":"2026-09-06T22:00","series":"series/PIES3222.csv","zero_idro":235.51}},{"type":"Feature","geometry":{"type":"Point","coordinates":[8.11136,45.5546]},"properties":{"scode":"PIES3223","name":"Cervo a Vigliano Biellese","variables":["LIVIDRO"],"latest":{"LIVIDRO":0.01},"latest_time":"2026-09-06T22:00","series":"series/PIES3223.csv","zero_idro":292.43}},{"type":"Feature","geometry":{"type":"Point","coordinates":[8.18306,45.5689]},"properties":{"scode":"PIES3224","name":"Strona Di Vallemosso a Cossato","variables":["LIVIDRO"],"latest":{"LIVIDRO":0.59},"latest_time":"2026-09-06T22:00","series":"series/PIES3224.csv","zero_idro":247.42}},{"type":"Feature","geometry":{"type":"Point","coordinates":[8.03194,45.7986]},"properties":{"scode":"PIES3226","name":"Sesia a Campertogno","variables":["LIVIDRO"],"latest":{"LIVIDRO":0.43},"latest_time":"2026-09-06T22:00","series":"series/PIES3226.csv","zero_idro":810.3}},{"type":"Feature","geometry":{"type":"Point","coordinates":[7.66306,44.2708]},"properties":{"scode":"PIES3716","name":"Pesio a Chiusa Di Pesio","variables":["LIVIDRO"],"latest":{"LIVIDRO":0.63},"latest_time":"2026-09-06T22:00","series":"series/PIES3716.csv","zero_idro":719.45}},{"type":"Feature","geometry":{"type":"Point","coordinates":[8.19583,44.5789]},"properties":{"scode":"PIES3735","name":"Uzzone a Cortemilia","variables":["LIVIDRO"],"latest":{"LIVIDRO":-0.71},"latest_time":"2026-09-06T22:00","series":"series/PIES3735.csv","zero_idro":250.72}},{"type":"Feature","geometry":{"type":"Point","coordinates":[7.61806,44.5589]},"properties":{"scode":"PIES3736","name":"Grana a Savigliano","variables":["LIVIDRO"],"latest":{"LIVIDRO":-0.14},"latest_time":"2026-09-06T22:00","series":"series/PIES3736.csv","zero_idro":368.7}},{"type":"Feature","geometry":{"type":"Point","coordinates":[7.96444,44.3681]},"properties":{"scode":"PIES3758","name":"Mongia a Mombasiglio","variables":["LIVIDRO"],"latest":{"LIVIDRO":0.77},"latest_time":"2026-09-06T22:00","series":"series/PIES3758.csv","zero_idro":427.36}},{"type":"Feature","geometry":{"type":"Point","coordinates":[7.95444,44.5317]},"properties":{"scode":"PIES3762","name":"Rea a Dogliani","variables":["LIVIDRO"],"latest":{"LIVIDRO":0.04},"latest_time":"2026-09-06T22:00","series":"series/PIES3762.csv","zero_idro":282.03}},{"type":"Feature","geometry":{"type":"Point","coordinates":[7.83639,44.2747]},"properties":{"scode":"PIES3781","name":"Corsaglia a Montaldo Di Mondovi'","variables":["LIVIDRO"],"latest":{"LIVIDRO":0.93},"latest_time":"2026-09-06T22:00","series":"series/PIES3781.csv","zero_idro":667.96}},{"type":"Feature","geometry":{"type":"Point","coordinates":[8.17444,44.6347]},"properties":{"scode":"PIES3886","name":"Belbo a Rocchetta Belbo","variables":["LIVIDRO"],"latest":{"LIVIDRO":-0.08},"latest_time":"2026-09-06T22:00","series":"series/PIES3886.csv","zero_idro":267.48}},{"type":"Feature","geometry":{"type":"Point","coordinates":[7.43125,44.7274]},"properties":{"scode":"PIES3924","name":"Ghiandone a Barge","variables":["LIVIDRO"],"latest":{"LIVIDRO":0.16},"latest_time":"2026-09-06T22:00","series":"series/PIES3924.csv","zero_idro":260.98}},{"type":"Feature","geometry":{"type":"Point","coordinates":[7.73111,44.2647]},"properties":{"scode":"PIES3925","name":"Ellero a Roccaforte Mondovi'","variables":["LIVIDRO"],"latest":{"LIVIDRO":0.16},"latest_time":"2026-09-06T22:00","series":"series/PIES3925.csv","zero_idro":810.77}},{"type":"Feature","geometry":{"type":"Point","coordinates":[7.51829,44.2639]},"properties":{"scode":"PIES3926","name":"Vermenagna a Robilante","variables":["LIVIDRO"],"latest":{"LIVIDRO":0.49},"latest_time":"2026-09-06T22:00","series":"series/PIES3926.csv","zero_idro":728.79}},{"type":"Feature","geometry":{"type":"Point","coordinates":[7.10611,44.5836]},"properties":{"scode":"PIES3927","name":"Varaita a Casteldelfino","variables":["LIVIDRO"],"latest":{"LIVIDRO":0.71},"latest_time":"2026-09-06T22:00","series":"series/PIES3927.csv","zero_idro":1144.27}},{"type":"Feature","geometry":{"type":"Point","coordinates":[7.93722,44.3108]},"properties":{"scode":"PIES3930","name":"Casotto a Monasterolo Casotto","variables":["LIVIDRO"],"latest":{"LIVIDRO":1.54},"latest_time":"2026-09-06T22:00","series":"series/PIES3930.csv","zero_idro":636.86}},{"type":"Feature","geometry":{"type":"Point","coordinates":[7.43417,44.2908]},"properties":{"scode":"PIES3931","name":"Gesso a Valdieri","variables":["LIVIDRO"],"latest":{"LIVIDRO":1.02},"latest_time":"2026-09-06T22:00","series":"series/PIES3931.csv","zero_idro":700.94}},{"type":"Feature","geometry":{"type":"Point","coordinates":[7.11472,44.3025]},"properties":{"scode":"PIES3932","name":"Stura Di Demonte a Vinadio","variables":["LIVIDRO"],"latest":{"LIVIDRO":0.29},"latest_time":"2026-09-06T22:00","series":"series/PIES3932.csv","zero_idro":955.27}},{"type":"Feature","geometry":{"type":"Point","coordinates":[7.9025,44.3586]},"properties":{"scode":"PIES3951","name":"Corsaglia a San Michele Mondovi'","variables":["LIVIDRO"],"latest":{"LIVIDRO":0.94},"latest_time":"2026-09-06T22:00","series":"series/PIES3951.csv","zero_idro":438.49}},{"type":"Feature","geometry":{"type":"Point","coordinates":[7.04778,45.1369]},"properties":{"scode":"PIES3952","name":"Dora Riparia a Susa","variables":["LIVIDRO"],"latest":{"LIVIDRO":0.37},"latest_time":"2026-09-06T22:00","series":"series/PIES3952.csv","zero_idro":492.33}},{"type":"Feature","geometry":{"type":"Point","coordinates":[7.67917,45.0008]},"properties":{"scode":"PIES4111","name":"Po a Moncalieri","variables":["LIVIDRO"],"latest":{"LIVIDRO":1.15},"latest_time":"2026-09-04T00:00","series":"series/PIES4111.csv"}},{"type":"Feature","geometry":{"type":"Point","coordinates":[8.40917,45.8744]},"properties":{"scode":"PIES4114","name":"Lago D Orta a Omegna","variables":["LIVIDRO"],"latest":{"LIVIDRO":0.55},"latest_time":"2026-09-06T22:00","series":"series/PIES4114.csv","zero_idro":288.86}},{"type":"Feature","geometry":{"type":"Point","coordinates":[6.96025,45.0303]},"properties":{"scode":"PIES4336","name":"Chisone a Pragelato","variables":["LIVIDRO"],"latest":{"LIVIDRO":0.16},"latest_time":"2026-09-06T22:00","series":"series/PIES4336.csv","zero_idro":1459.52}},{"type":"Feature","geometry":{"type":"Point","coordinates":[7.70861,45.0683]},"properties":{"scode":"PIES4816","name":"Po a Torino","variables":["LIVIDRO"],"latest":{"LIVIDRO":0.24},"latest_time":"2026-09-06T22:00","series":"series/PIES4816.csv","zero_idro":209.71}},{"type":"Feature","geometry":{"type":"Point","coordinates":[7.94306,45.1725]},"properties":{"scode":"PIES4825","name":"Po a San Sebastiano Da Po","variables":["LIVIDRO"],"latest":{"LIVIDRO":1.08},"latest_time":"2026-09-06T22:00","series":"series/PIES4825.csv","zero_idro":164.79}},{"type":"Feature","geometry":{"type":"Point","coordinates":[7.38278,45.3394]},"properties":{"scode":"PIES4982","name":"Stura Di Val Grande a Cantoira","variables":["LIVIDRO"],"latest":{"LIVIDRO":-0.39},"latest_time":"2026-09-06T22:00","series":"series/PIES4982.csv","zero_idro":721.87}},{"type":"Feature","geometry":{"type":"Point","coordinates":[7.39944,45.2981]},"properties":{"scode":"PIES4983","name":"Stura Di Lanzo a Mezzenile","variables":["LIVIDRO"],"latest":{"LIVIDRO":0.3},"latest_time":"2026-09-06T22:00","series":"series/PIES4983.csv","zero_idro":595.89}},{"type":"Feature","geometry":{"type":"Point","coordinates":[7.33333,44.4639]},"properties":{"scode":"PIES5166","name":"Maira a Dronero","variables":["LIVIDRO"],"latest":{"LIVIDRO":0.71},"latest_time":"2026-09-06T22:00","series":"series/PIES5166.csv","zero_idro":611.65}},{"type":"Feature","geometry":{"type":"Point","coordinates":[7.51222,44.78]},"properties":{"scode":"PIES5605","name":"Po a Villafranca Piemonte","variables":["LIVIDRO"],"latest":{"LIVIDRO":0.3},"latest_time":"2026-09-06T22:00","series":"series/PIES5605.csv","zero_idro":245.53}},{"type":"Feature","geometry":{"type":"Point","coordinates":[7.67417,45.3867]},"properties":{"scode":"PIES5616","name":"Orco a Castellamonte","variables":["LIVIDRO"],"latest":{"LIVIDRO":0.34},"latest_time":"2026-09-06T22:00","series":"series/PIES5616.csv","zero_idro":358.6}},{"type":"Feature","geometry":{"type":"Point","coordinates":[8.13299,45.9879]},"properties":{"scode":"PIES6329","name":"Anza a Bannio Anzino","variables":["LIVIDRO"],"latest":{"LIVIDRO":-0.09},"latest_time":"2026-09-06T22:00","series":"series/PIES6329.csv","zero_idro":544.46}},{"type":"Feature","geometry":{"type":"Point","coordinates":[8.60185,44.9148]},"properties":{"scode":"PIES6833","name":"Tanaro a Alessandria","variables":["LIVIDRO"],"latest":{"LIVIDRO":0.39},"latest_time":"2026-09-06T22:00","series":"series/PIES6833.csv","zero_idro":87.0}},{"type":"Feature","geometry":{"type":"Point","coordinates":[7.62044,45.0093]},"properties":{"scode":"PIES7421","name":"Sangone a Nichelino","variables":["LIVIDRO"],"latest":{"LIVIDRO":-0.07},"latest_time":"2026-09-06T22:00","series":"series/PIES7421.csv","zero_idro":230.85}},{"type":"Feature","geometry":{"type":"Point","coordinates":[7.62799,44.9526]},"properties":{"scode":"PIES7671","name":"Chisola a Vinovo","variables":["LIVIDRO"],"latest":{"LIVIDRO":0.05},"latest_time":"2026-09-06T22:00","series":"series/PIES7671.csv","zero_idro":223.78}}]}