{"type":"FeatureCollection","name":"MAR_ER","features":[{"type":"Feature","geometry":{"type":"Point","coordinates":[12.39532,44.7914]},"properties":{"scode":"Faro","name":"Faro","variables":["MAREA"],"latest":{"MAREA":0.183},"latest_time":"2026-10-04T07:10","series":"series/Faro.csv"}},{"type":"Feature","geometry":{"type":"Point","coordinates":[12.24944,44.67667]},"properties":{"scode":"Porto_Garibaldi","name":"Porto Garibaldi","variables":["CDD","ET0","GDD","HDD","MAREA","TAPP","TDEW","TEMP","TEMPACQUA","UMID","VPD","VVENTO"],"latest":{"CDD":0.0,"ET0":1.77,"GDD":6.4,"HDD":1.7,"MAREA":0.133,"TAPP":13.0,"TDEW":11.9,"TEMP":14.2,"TEMPACQUA":24.5,"UMID":86.0,"VPD":0.227,"VVENTO":2.6},"latest_time":"2026-10-04T07:10","series":"series/Porto_Garibaldi.csv"}},{"type":"Feature","geometry":{"type":"Point","coordinates":[12.24945,44.67667]},"properties":{"scode":"Porto_Garibaldi_Encoder","name":"Porto Garibaldi Encoder","variables":["MAREA"],"latest":{"MAREA":0.132},"latest_time":"2026-10-04T07:10","series":"series/Porto_Garibaldi_Encoder.csv"}},{"type":"Feature","geometry":{"type":"Point","coordinates":[12.52183,44.42867]},"properties":{"scode":"Calipso","name":"Calipso","variables":["ONDE","TEMPACQUA"],"latest":{"ONDE":0.27,"TEMPACQUA":22.9},"latest_time":"2026-10-04T07:00","series":"series/Calipso.csv"}},{"type":"Feature","geometry":{"type":"Point","coordinates":[12.47587,44.21458]},"properties":{"scode":"Nausicaa_2","name":"Nausicaa 2","variables":["CDD","ET0","GDD","HDD","ONDE","TEMP","TEMPACQUA"],"latest":{"CDD":0.0,"ET0":1.07,"GDD":7.2,"HDD":0.9,"ONDE":0.2,"TEMP":16.3,"TEMPACQUA":22.2},"latest_time":"2026-10-04T07:10","series":"series/Nausicaa_2.csv"}},{"type":"Feature","geometry":{"type":"Point","coordinates":[12.23556,44.62028]},"properties":{"scode":"Bellocchio","name":"Bellocchio","variables":["TEMPACQUA"],"latest":{"TEMPACQUA":20.3},"latest_time":"2026-10-04T07:00","series":"series/Bellocchio.csv"}},{"type":"Feature","geometry":{"type":"Point","coordinates":[12.32313,44.79669]},"properties":{"scode":"Bocca_Scanno","name":"Bocca Scanno","variables":["TEMPACQUA"],"latest":{"TEMPACQUA":22.1},"latest_time":"2026-10-04T07:00","series":"series/Bocca_Scanno.csv"}},{"type":"Feature","geometry":{"type":"Point","coordinates":[12.34395,44.83593]},"properties":{"scode":"Po_di_Goro","name":"Po di Goro","variables":["TEMPACQUA"],"latest":{"TEMPACQUA":20.2},"latest_time":"2026-10-04T07:00","series":"series/Po_di_Goro.csv"}},{"type":"Feature","geometry":{"type":"Point","coordinates":[12.28889,44.81472]},"properties":{"scode":"Punta_Volano","name":"Punta Volano","variables":["TEMPACQUA"],"latest":{"TEMPACQUA":23.4},"latest_time":"2026-10-04T07:00","series":"series/Punta_Volano.csv"}},{"type":"Feature","geometry":{"type":"Point","coordinates":[12.32449,44.81531]},"properties":{"scode":"Gorino_2","name":"Gorino 2","variables":["TEMPACQUA"],"latest":{"TEMPACQUA":20.8},"latest_time":"2026-10-04T07:00","series":"series/Gorino_2.csv"}},{"type":"Feature","geometry":{"type":"Point","coordinates":[12.21806,44.66889]},"properties":{"scode":"Logonovo","name":"Logonovo","variables":["TEMPACQUA"],"latest":{"TEMPACQUA":24.1},"latest_time":"2026-10-04T07:00","series":"series/Logonovo.csv"}},{"type":"Feature","geometry":{"type":"Point","coordinates":[12.39236,44.79074]},"properties":{"scode":"Manufatto","name":"Manufatto","variables":["TEMPACQUA"],"latest":{"TEMPACQUA":23.5},"latest_time":"2026-10-04T07:00","series":"series/Manufatto.csv"}}]}