{"type":"FeatureCollection","name":"AQ_TN","features":[{"type":"Feature","geometry":{"type":"Point","coordinates":[11.113,46.0957]},"properties":{"scode":"Via_Bolzano","name":"Via Bolzano","variables":["CO","EAQI","NO2","PM10"],"latest":{"CO":0.3,"EAQI":2,"NO2":26.0,"PM10":33.0},"latest_time":"2026-10-01T23:00","series":"series/Via_Bolzano.csv"}},{"type":"Feature","geometry":{"type":"Point","coordinates":[10.9043,45.7264]},"properties":{"scode":"A22__Avio","name":"A22 (Avio)","variables":["CO","EAQI","NO2"],"latest":{"CO":0.28,"EAQI":1,"NO2":35.0},"latest_time":"2026-10-01T23:00","series":"series/A22__Avio.csv"}},{"type":"Feature","geometry":{"type":"Point","coordinates":[11.1262,46.0633]},"properties":{"scode":"Parco_S__Chiara","name":"Parco S. Chiara","variables":["EAQI","NO2","O3","O3_8H","PM10","PM25","SO2"],"latest":{"EAQI":2,"NO2":20.0,"O3":59.0,"O3_8H":80.1,"PM10":26.0,"PM25":18.0,"SO2":2.0},"latest_time":"2026-10-01T23:00","series":"series/Parco_S__Chiara.csv"}},{"type":"Feature","geometry":{"type":"Point","coordinates":[11.0398,45.8905]},"properties":{"scode":"Rovereto","name":"Rovereto","variables":["EAQI","NO2","O3","O3_8H","PM10","PM25"],"latest":{"EAQI":2,"NO2":8.0,"O3":76.0,"O3_8H":82.1,"PM10":15.0,"PM25":13.0},"latest_time":"2026-10-01T23:00","series":"series/Rovereto.csv"}},{"type":"Feature","geometry":{"type":"Point","coordinates":[11.4555,46.0518]},"properties":{"scode":"Borgo_Valsugana","name":"Borgo Valsugana","variables":["EAQI","NO2","O3","O3_8H","PM10","PM25"],"latest":{"EAQI":2,"NO2":25.0,"O3":21.0,"O3_8H":51.9,"PM10":23.0,"PM25":12.0},"latest_time":"2026-10-01T23:00","series":"series/Borgo_Valsugana.csv"}},{"type":"Feature","geometry":{"type":"Point","coordinates":[10.8421,45.9043]},"properties":{"scode":"Riva_del_Garda","name":"Riva del Garda","variables":["EAQI","NO2","O3","O3_8H","PM10"],"latest":{"EAQI":2,"NO2":21.0,"O3":55.0,"O3_8H":75.0,"PM10":24.0},"latest_time":"2026-10-01T23:00","series":"series/Riva_del_Garda.csv"}},{"type":"Feature","geometry":{"type":"Point","coordinates":[11.0026,46.1161]},"properties":{"scode":"Monte_Gaza","name":"Monte Gaza","variables":["EAQI","NO2","O3","O3_8H","PM10"],"latest":{"EAQI":3,"NO2":2.0,"O3":114.0,"O3_8H":117.8,"PM10":17.0},"latest_time":"2026-10-01T23:00","series":"series/Monte_Gaza.csv"}},{"type":"Feature","geometry":{"type":"Point","coordinates":[11.1336,46.1929]},"properties":{"scode":"Piana_Rotaliana","name":"Piana Rotaliana","variables":["EAQI","NO2","O3","O3_8H","PM10"],"latest":{"EAQI":2,"NO2":14.0,"O3":20.0,"O3_8H":58.4,"PM10":26.0},"latest_time":"2026-10-01T23:00","series":"series/Piana_Rotaliana.csv"}}]}