{"type":"FeatureCollection","name":"AQ_VEN","features":[{"type":"Feature","geometry":{"type":"Point","coordinates":[11.03695043,45.58921891]},"properties":{"scode":"500015821","name":"Boscochiesanuova","variables":["EAQI","O3","O3_8H","PM10"],"latest":{"EAQI":2,"O3":50.2,"O3_8H":64.0,"PM10":6.839998},"latest_time":"2026-10-10T21:40","series":"series/500015821.csv"}},{"type":"Feature","geometry":{"type":"Point","coordinates":[12.21974928,45.4745991]},"properties":{"scode":"500021765","name":"VE Via Beccaria","variables":["EAQI","O3","O3_8H","PM10"],"latest":{"EAQI":1,"O3":16.4,"O3_8H":53.2,"PM10":4.497778},"latest_time":"2026-10-10T22:40","series":"series/500021765.csv"}},{"type":"Feature","geometry":{"type":"Point","coordinates":[11.56905052,45.84869672]},"properties":{"scode":"500015304","name":"Cima Ekar","variables":["EAQI","O3","O3_8H"],"latest":{"EAQI":2,"O3":56.0,"O3_8H":59.5},"latest_time":"2026-10-10T21:40","series":"series/500015304.csv"}},{"type":"Feature","geometry":{"type":"Point","coordinates":[12.23771341,45.67179946]},"properties":{"scode":"500000021","name":"TV Via Lancieri","variables":["EAQI","O3","O3_8H","PM10"],"latest":{"EAQI":1,"O3":24.0,"O3_8H":59.3,"PM10":8.29},"latest_time":"2026-10-10T22:40","series":"series/500000021.csv"}},{"type":"Feature","geometry":{"type":"Point","coordinates":[11.84090501,45.37093912]},"properties":{"scode":"500000197","name":"PD Mandria","variables":["EAQI","O3","O3_8H","PM10"],"latest":{"EAQI":1,"O3":15.0,"O3_8H":64.8,"PM10":21.700005},"latest_time":"2026-10-10T21:40","series":"series/500000197.csv"}},{"type":"Feature","geometry":{"type":"Point","coordinates":[11.64235783,45.28935892]},"properties":{"scode":"500021975","name":"Parco Colli Euganei","variables":["EAQI","O3","O3_8H","PM10"],"latest":{"EAQI":1,"O3":27.8,"O3_8H":61.7,"PM10":16.299997},"latest_time":"2026-10-10T21:40","series":"series/500021975.csv"}},{"type":"Feature","geometry":{"type":"Point","coordinates":[11.78246928,45.07383532]},"properties":{"scode":"500000079","name":"Rovigo Centro","variables":["EAQI","O3","O3_8H","PM10"],"latest":{"EAQI":1,"O3":28.2,"O3_8H":50.2,"PM10":23.299995},"latest_time":"2026-10-10T21:40","series":"series/500000079.csv"}},{"type":"Feature","geometry":{"type":"Point","coordinates":[11.36762744,45.71353344]},"properties":{"scode":"500000103","name":"Schio","variables":["EAQI","O3","O3_8H","PM10"],"latest":{"EAQI":1,"O3":26.8,"O3_8H":58.2,"PM10":0.0},"latest_time":"2026-10-10T21:40","series":"series/500000103.csv"}},{"type":"Feature","geometry":{"type":"Point","coordinates":[11.3105227,45.18257622]},"properties":{"scode":"500000116","name":"Legnago","variables":["EAQI","O3","O3_8H","PM10"],"latest":{"EAQI":1,"O3":31.1,"O3_8H":64.6,"PM10":19.380003},"latest_time":"2026-10-10T21:40","series":"series/500000116.csv"}},{"type":"Feature","geometry":{"type":"Point","coordinates":[11.28525559,45.39886604]},"properties":{"scode":"500000120","name":"San Bonifacio","variables":["EAQI","O3","O3_8H","PM10"],"latest":{"EAQI":1,"O3":35.1,"O3_8H":62.0,"PM10":17.06},"latest_time":"2026-10-10T21:40","series":"series/500000120.csv"}},{"type":"Feature","geometry":{"type":"Point","coordinates":[12.31290524,45.42837503]},"properties":{"scode":"500000141","name":"Sacca Fisola","variables":["EAQI","O3","O3_8H","PM10"],"latest":{"EAQI":1,"O3":17.6,"O3_8H":10.4,"PM10":33.599995},"latest_time":"2026-10-09T11:59","series":"series/500000141.csv"}},{"type":"Feature","geometry":{"type":"Point","coordinates":[12.26122165,45.49819251]},"properties":{"scode":"500000156","name":"VE Parco Bissuola","variables":["EAQI","O3","O3_8H","PM10"],"latest":{"EAQI":1,"O3":23.8,"O3_8H":60.9,"PM10":8.356},"latest_time":"2026-10-10T22:40","series":"series/500000156.csv"}},{"type":"Feature","geometry":{"type":"Point","coordinates":[12.36110652,46.16250789]},"properties":{"scode":"500015004","name":"Pieve di Alpago","variables":["EAQI","O3","O3_8H","PM10"],"latest":{"EAQI":1,"O3":39.6,"O3_8H":62.7,"PM10":7.699998},"latest_time":"2026-10-10T21:40","series":"series/500015004.csv"}},{"type":"Feature","geometry":{"type":"Point","coordinates":[12.59043082,45.62908463]},"properties":{"scode":"500000149","name":"San Donà  di Piave","variables":["EAQI","O3","O3_8H","PM10"],"latest":{"EAQI":1,"O3":27.8,"O3_8H":57.6,"PM10":13.899997},"latest_time":"2026-10-10T21:40","series":"series/500000149.csv"}},{"type":"Feature","geometry":{"type":"Point","coordinates":[12.30706247,45.88964738]},"properties":{"scode":"500000016","name":"Conegliano","variables":["EAQI","O3","O3_8H","PM10"],"latest":{"EAQI":1,"O3":15.0,"O3_8H":54.3,"PM10":10.03},"latest_time":"2026-10-10T22:40","series":"series/500000016.csv"}},{"type":"Feature","geometry":{"type":"Point","coordinates":[12.51021307,45.83690146]},"properties":{"scode":"500000020","name":"Mansué","variables":["EAQI","O3","O3_8H","PM10"],"latest":{"EAQI":1,"O3":16.2,"O3_8H":56.2,"PM10":11.549999},"latest_time":"2026-10-10T21:40","series":"series/500000020.csv"}},{"type":"Feature","geometry":{"type":"Point","coordinates":[12.21760269,46.14192744]},"properties":{"scode":"500000068","name":"Belluno Città","variables":["EAQI","O3","O3_8H","PM10"],"latest":{"EAQI":1,"O3":17.4,"O3_8H":52.4,"PM10":10.100002},"latest_time":"2026-10-10T21:40","series":"series/500000068.csv"}},{"type":"Feature","geometry":{"type":"Point","coordinates":[11.90661654,46.03127853]},"properties":{"scode":"500000069","name":"Area Feltrina","variables":["EAQI","O3","O3_8H","PM10"],"latest":{"EAQI":1,"O3":11.46,"O3_8H":39.5,"PM10":14.600003},"latest_time":"2026-10-10T21:40","series":"series/500000069.csv"}},{"type":"Feature","geometry":{"type":"Point","coordinates":[11.79015226,45.03881101]},"properties":{"scode":"500000073","name":"Rovigo Borsea","variables":["EAQI","O3","O3_8H","PM10"],"latest":{"EAQI":1,"O3":19.6,"O3_8H":63.4,"PM10":20.399996},"latest_time":"2026-10-10T21:40","series":"series/500000073.csv"}},{"type":"Feature","geometry":{"type":"Point","coordinates":[11.55265207,45.10401782]},"properties":{"scode":"500000082","name":"Badia Polesine-Villafora","variables":["EAQI","O3","O3_8H","PM10"],"latest":{"EAQI":1,"O3":39.6,"O3_8H":63.2,"PM10":18.5},"latest_time":"2026-10-10T21:40","series":"series/500000082.csv"}},{"type":"Feature","geometry":{"type":"Point","coordinates":[11.73587076,45.75943177]},"properties":{"scode":"500000106","name":"Bassano","variables":["EAQI","O3","O3_8H","PM10"],"latest":{"EAQI":1,"O3":35.0,"O3_8H":59.6,"PM10":8.399999},"latest_time":"2026-10-10T21:40","series":"series/500000106.csv"}},{"type":"Feature","geometry":{"type":"Point","coordinates":[11.53874455,45.55964101]},"properties":{"scode":"500000099","name":"Quartiere Italia","variables":["EAQI","O3","O3_8H","PM10"],"latest":{"EAQI":1,"O3":17.4,"O3_8H":57.3,"PM10":14.799998},"latest_time":"2026-10-10T21:40","series":"series/500000099.csv"}},{"type":"Feature","geometry":{"type":"Point","coordinates":[11.6662267,45.22700003]},"properties":{"scode":"500021960","name":"Este","variables":["EAQI","O3","O3_8H","PM10"],"latest":{"EAQI":1,"O3":17.6,"O3_8H":58.5,"PM10":16.200003},"latest_time":"2026-10-10T21:40","series":"series/500021960.csv"}},{"type":"Feature","geometry":{"type":"Point","coordinates":[11.90351582,45.60152856]},"properties":{"scode":"500022612","name":"Alta Padovana","variables":["EAQI","O3","O3_8H","PM10"],"latest":{"EAQI":1,"O3":16.4,"O3_8H":64.2,"PM10":12.2},"latest_time":"2026-10-10T21:40","series":"series/500022612.csv"}},{"type":"Feature","geometry":{"type":"Point","coordinates":[11.52219186,45.532213]},"properties":{"scode":"500022715","name":"Ferrovieri","variables":["EAQI","O3","O3_8H","PM10"],"latest":{"EAQI":1,"O3":16.0,"O3_8H":52.7,"PM10":16.200003},"latest_time":"2026-10-10T21:40","series":"series/500022715.csv"}},{"type":"Feature","geometry":{"type":"Point","coordinates":[12.21754533,45.48958527]},"properties":{"scode":"500021732","name":"VE Via Tagliamento","variables":["EAQI","PM10"],"latest":{"EAQI":1,"PM10":5.684444},"latest_time":"2026-10-10T22:40","series":"series/500021732.csv"}},{"type":"Feature","geometry":{"type":"Point","coordinates":[11.53325638,45.54501935]},"properties":{"scode":"500015645","name":"San Felice","variables":["EAQI","PM10"],"latest":{"EAQI":1,"PM10":16.299997},"latest_time":"2026-10-09T22:40","series":"series/500015645.csv"}},{"type":"Feature","geometry":{"type":"Point","coordinates":[11.88971746,45.43285711]},"properties":{"scode":"500021785","name":"PD Arcella","variables":["EAQI","PM10"],"latest":{"EAQI":1,"PM10":16.0},"latest_time":"2026-10-09T22:40","series":"series/500021785.csv"}},{"type":"Feature","geometry":{"type":"Point","coordinates":[11.94004014,45.37754606]},"properties":{"scode":"500000200","name":"PD Granze","variables":["EAQI","PM10"],"latest":{"EAQI":1,"PM10":14.799998},"latest_time":"2026-10-09T22:40","series":"series/500000200.csv"}},{"type":"Feature","geometry":{"type":"Point","coordinates":[10.96300828,45.44440358]},"properties":{"scode":"500000134","name":"Verona - C.so Milano","variables":["EAQI","PM10"],"latest":{"EAQI":1,"PM10":15.200002},"latest_time":"2026-10-09T22:40","series":"series/500000134.csv"}},{"type":"Feature","geometry":{"type":"Point","coordinates":[12.20554664,45.43827402]},"properties":{"scode":"500023627","name":"VE Malcontenta","variables":["EAQI","PM10"],"latest":{"EAQI":1,"PM10":16.700003},"latest_time":"2026-10-09T22:40","series":"series/500023627.csv"}}]}