{"type":"FeatureCollection","name":"CB_AE","features":[{"type":"Feature","geometry":{"type":"Point","coordinates":[11.48053687,45.10504834]},"properties":{"scode":"AE1","name":"Adige a Badia Polesine","variables":["LIVIDRO"],"latest":{"LIVIDRO":-4.63},"latest_time":"2026-09-07T00:30","series":"series/AE1.csv"}},{"type":"Feature","geometry":{"type":"Point","coordinates":[11.78424405,45.1054812]},"properties":{"scode":"AE2","name":"Adige a Boara Pisani","variables":["LIVIDRO"],"latest":{"LIVIDRO":-3.91},"latest_time":"2026-09-07T00:30","series":"series/AE2.csv"}},{"type":"Feature","geometry":{"type":"Point","coordinates":[11.48111185,45.25140892]},"properties":{"scode":"AE3","name":"Frassine a Borgofrassine","variables":["LIVIDRO"],"latest":{"LIVIDRO":-2.09},"latest_time":"2026-09-07T00:30","series":"series/AE3.csv"}},{"type":"Feature","geometry":{"type":"Point","coordinates":[11.9389414,45.27243536]},"properties":{"scode":"AE4","name":"Bacchiglione a Bovolenta","variables":["LIVIDRO"],"latest":{"LIVIDRO":0.87},"latest_time":"2026-09-07T00:30","series":"series/AE4.csv"}},{"type":"Feature","geometry":{"type":"Point","coordinates":[11.63779654,45.24481654]},"properties":{"scode":"AE5","name":"Frassine a Brancaglia","variables":["LIVIDRO"],"latest":{"LIVIDRO":-2.57},"latest_time":"2026-09-07T00:30","series":"series/AE5.csv"}},{"type":"Feature","geometry":{"type":"Point","coordinates":[11.6437112,45.14361507]},"properties":{"scode":"AE6","name":"Gorzone a Carmignano","variables":["LIVIDRO"],"latest":{"LIVIDRO":-1.84},"latest_time":"2026-09-07T00:30","series":"series/AE6.csv"}},{"type":"Feature","geometry":{"type":"Point","coordinates":[12.08186245,45.1383265]},"properties":{"scode":"AE7","name":"Adige a Cavarzere","variables":["LIVIDRO"],"latest":{"LIVIDRO":-2.45},"latest_time":"2026-09-07T00:30","series":"series/AE7.csv"}},{"type":"Feature","geometry":{"type":"Point","coordinates":[11.38324121,45.31652621]},"properties":{"scode":"AE8","name":"Gua' a Cologna Veneta","variables":["LIVIDRO"],"latest":{"LIVIDRO":0.51},"latest_time":"2026-09-07T00:30","series":"series/AE8.csv"}},{"type":"Feature","geometry":{"type":"Point","coordinates":[11.40809307,45.20390985]},"properties":{"scode":"AE9","name":"Fratta a S.Salvaro","variables":["LIVIDRO"],"latest":{"LIVIDRO":-2.1},"latest_time":"2026-09-07T00:30","series":"series/AE9.csv"}},{"type":"Feature","geometry":{"type":"Point","coordinates":[11.75689995,45.14500912]},"properties":{"scode":"AE10","name":"Gorzone a Stanghella","variables":["LIVIDRO"],"latest":{"LIVIDRO":-2.78},"latest_time":"2026-09-07T00:30","series":"series/AE10.csv"}},{"type":"Feature","geometry":{"type":"Point","coordinates":[11.56501188,45.15514499]},"properties":{"scode":"AE11","name":"Fratta a Valli Mocenighe","variables":["LIVIDRO"],"latest":{"LIVIDRO":-1.43},"latest_time":"2026-09-07T00:30","series":"series/AE11.csv"}},{"type":"Feature","geometry":{"type":"Point","coordinates":[11.61714036,45.32544257]},"properties":{"scode":"AE12","name":"Bisatto a Vo' Vecchio","variables":["LIVIDRO"],"latest":{"LIVIDRO":-1.15},"latest_time":"2026-09-07T00:30","series":"series/AE12.csv"}},{"type":"Feature","geometry":{"type":"Point","coordinates":[11.932536,45.270797]},"properties":{"scode":"AE13","name":"Cagnola a Bovolenta","variables":["LIVIDRO"],"latest":{"LIVIDRO":-0.23},"latest_time":"2026-09-07T00:30","series":"series/AE13.csv"}}]}