{"type":"FeatureCollection","name":"ACQ_VEN","features":[{"type":"Feature","geometry":{"type":"Point","coordinates":[12.444161727,44.844191969]},"properties":{"scode":"500031870","name":"SCARDOVARI MARE","variables":["CLOROFILLA","CONDUCIBILITA","OSSIGENO","OSSIGENO_SAT","PH","SALINITA","TEMPACQUA"],"latest":{"CLOROFILLA":11.4,"CONDUCIBILITA":52.889,"OSSIGENO":7.45,"OSSIGENO_SAT":107.45,"PH":8.48,"SALINITA":34.9,"TEMPACQUA":23.639},"latest_time":"2026-10-04T07:00","series":"series/500031870.csv"}},{"type":"Feature","geometry":{"type":"Point","coordinates":[12.49416051,44.929192282]},"properties":{"scode":"500031868","name":"CANARIN","variables":["CLOROFILLA","CONDUCIBILITA","OSSIGENO","OSSIGENO_SAT","PH","SALINITA","TEMPACQUA"],"latest":{"CLOROFILLA":14.18,"CONDUCIBILITA":50.967,"OSSIGENO":9.5,"OSSIGENO_SAT":135.27,"PH":8.62,"SALINITA":33.48,"TEMPACQUA":23.4},"latest_time":"2026-10-04T07:00","series":"series/500031868.csv"}},{"type":"Feature","geometry":{"type":"Point","coordinates":[12.44388126,45.003913965]},"properties":{"scode":"500031867","name":"BARBAMARCO","variables":["CLOROFILLA","CONDUCIBILITA","OSSIGENO","OSSIGENO_SAT","PH","SALINITA","TEMPACQUA"],"latest":{"CLOROFILLA":19.68,"CONDUCIBILITA":45.834,"OSSIGENO":5.5,"OSSIGENO_SAT":76.95,"PH":8.31,"SALINITA":29.73,"TEMPACQUA":23.668},"latest_time":"2026-10-04T07:00","series":"series/500031867.csv"}},{"type":"Feature","geometry":{"type":"Point","coordinates":[12.387491829,45.025302395]},"properties":{"scode":"500031866","name":"VALLONA","variables":["CLOROFILLA","CONDUCIBILITA","OSSIGENO","OSSIGENO_SAT","PH","SALINITA","TEMPACQUA"],"latest":{"CLOROFILLA":26.5,"CONDUCIBILITA":29.707,"OSSIGENO":7.19,"OSSIGENO_SAT":90.12,"PH":8.33,"SALINITA":18.42,"TEMPACQUA":21.138},"latest_time":"2026-10-04T07:00","series":"series/500031866.csv"}},{"type":"Feature","geometry":{"type":"Point","coordinates":[12.363463383,45.059829859]},"properties":{"scode":"500031865","name":"MARINETTA","variables":["CLOROFILLA","CONDUCIBILITA","OSSIGENO","OSSIGENO_SAT","PH","SALINITA","TEMPACQUA"],"latest":{"CLOROFILLA":5.96,"CONDUCIBILITA":53.67,"OSSIGENO":7.73,"OSSIGENO_SAT":110.08,"PH":8.56,"SALINITA":35.49,"TEMPACQUA":22.746},"latest_time":"2026-10-04T07:00","series":"series/500031865.csv"}},{"type":"Feature","geometry":{"type":"Point","coordinates":[12.418332979,44.838332963]},"properties":{"scode":"500036100","name":"SCARDOVARI S. GIULIA","variables":["CLOROFILLA","CONDUCIBILITA","OSSIGENO","OSSIGENO_SAT","PH","SALINITA","TEMPACQUA"],"latest":{"CLOROFILLA":9.47,"CONDUCIBILITA":45.935,"OSSIGENO":8.48,"OSSIGENO_SAT":118.38,"PH":8.495,"SALINITA":29.805,"TEMPACQUA":23.4665},"latest_time":"2026-10-03T18:00","series":"series/500036100.csv"}},{"type":"Feature","geometry":{"type":"Point","coordinates":[12.320833398,45.076666642]},"properties":{"scode":"500036099","name":"CALERI","variables":["CLOROFILLA","CONDUCIBILITA","OSSIGENO","OSSIGENO_SAT","PH","SALINITA","TEMPACQUA"],"latest":{"CLOROFILLA":6.58,"CONDUCIBILITA":49.062,"OSSIGENO":7.565,"OSSIGENO_SAT":104.405,"PH":8.18,"SALINITA":32.1,"TEMPACQUA":22.0915},"latest_time":"2026-10-03T18:00","series":"series/500036099.csv"}},{"type":"Feature","geometry":{"type":"Point","coordinates":[12.518327068,44.940581335]},"properties":{"scode":"500031869","name":"BASSON","variables":["CLOROFILLA","CONDUCIBILITA","OSSIGENO","OSSIGENO_SAT","PH","SALINITA","TEMPACQUA"],"latest":{"CLOROFILLA":0.0,"CONDUCIBILITA":20.2715,"OSSIGENO":10.885,"OSSIGENO_SAT":137.84,"PH":8.49,"SALINITA":12.11,"TEMPACQUA":23.7025},"latest_time":"2026-10-03T18:00","series":"series/500031869.csv"}},{"type":"Feature","geometry":{"type":"Point","coordinates":[12.438605352,44.892247481]},"properties":{"scode":"500031871","name":"SCARDOVARI INTERNO","variables":["CLOROFILLA","CONDUCIBILITA","OSSIGENO","OSSIGENO_SAT","PH","SALINITA","TEMPACQUA"],"latest":{"CLOROFILLA":11.78,"CONDUCIBILITA":45.89,"OSSIGENO":7.53,"OSSIGENO_SAT":100.16,"PH":8.28,"SALINITA":29.81,"TEMPACQUA":20.749},"latest_time":"2026-10-04T07:00","series":"series/500031871.csv"}}]}