{"type":"FeatureCollection","name":"AQ_LOM","features":[{"type":"Feature","geometry":{"type":"Point","coordinates":[9.48426111,45.69043647]},"properties":{"scode":"685","name":"Calusco d'Adda v. Caduti sul Lavoro","variables":["C6H6","EAQI","NO2","O3","O3_8H","PM10","PM25","SO2"],"latest":{"C6H6":0.3,"EAQI":2,"NO2":13.8,"O3":56.6,"O3_8H":71.2,"PM10":23.0,"PM25":13.0,"SO2":0.1},"latest_time":"2026-10-04T07:00","series":"series/685.csv"}},{"type":"Feature","geometry":{"type":"Point","coordinates":[9.66126061,45.69568669]},"properties":{"scode":"584","name":"Bergamo v.Garibaldi","variables":["C6H6","CO","EAQI","NO2","PM10","SO2"],"latest":{"C6H6":0.3,"CO":0.2,"EAQI":1,"NO2":14.6,"PM10":22.0,"SO2":10.1},"latest_time":"2026-10-04T06:00","series":"series/584.csv"}},{"type":"Feature","geometry":{"type":"Point","coordinates":[10.01574064,45.13195042]},"properties":{"scode":"627","name":"Cremona P.zza Cadorna","variables":["C6H6","CO","EAQI","NO2","PM10","PM25","SO2"],"latest":{"C6H6":1.5,"CO":0.3,"EAQI":2,"NO2":44.5,"PM10":37.0,"PM25":21.0,"SO2":0.9},"latest_time":"2026-10-04T06:00","series":"series/627.csv"}},{"type":"Feature","geometry":{"type":"Point","coordinates":[9.19746075,45.470501]},"properties":{"scode":"548","name":"Milano v.Senato","variables":["C6H6","CO","EAQI","NO2","PM10","PM25"],"latest":{"C6H6":1.1,"CO":0.3,"EAQI":1,"NO2":20.6,"PM10":38.0,"PM25":21.0},"latest_time":"2026-10-04T06:00","series":"series/548.csv"}},{"type":"Feature","geometry":{"type":"Point","coordinates":[9.87014581,46.16797103]},"properties":{"scode":"569","name":"Sondrio v.Mazzini","variables":["C6H6","CO","EAQI","NO2","PM10","SO2"],"latest":{"C6H6":0.4,"CO":0.3,"EAQI":1,"NO2":6.6,"PM10":24.0,"SO2":1.0},"latest_time":"2026-10-04T06:00","series":"series/569.csv"}},{"type":"Feature","geometry":{"type":"Point","coordinates":[10.80333489,45.14526864]},"properties":{"scode":"663","name":"Mantova v.Ariosto","variables":["C6H6","EAQI","NO2","PM10","SO2"],"latest":{"C6H6":0.4,"EAQI":1,"NO2":27.0,"PM10":32.0,"SO2":3.1},"latest_time":"2026-10-04T06:00","series":"series/663.csv"}},{"type":"Feature","geometry":{"type":"Point","coordinates":[9.19093444,45.49631883]},"properties":{"scode":"501","name":"Milano v.Marche","variables":["C6H6","CO","EAQI","NO2","PM10","PM25"],"latest":{"C6H6":2.3,"CO":0.4,"EAQI":2,"NO2":45.9,"PM10":41.0,"PM25":18.0},"latest_time":"2026-10-04T07:00","series":"series/501.csv"}},{"type":"Feature","geometry":{"type":"Point","coordinates":[9.48527511,45.30601628]},"properties":{"scode":"600","name":"Lodi v.Vignati","variables":["C6H6","CO","EAQI","NO2","PM10","PM25","SO2"],"latest":{"C6H6":1.0,"CO":0.9,"EAQI":1,"NO2":26.3,"PM10":46.0,"PM25":19.0,"SO2":0.2},"latest_time":"2026-10-04T05:00","series":"series/600.csv"}},{"type":"Feature","geometry":{"type":"Point","coordinates":[10.79557331,45.16057658]},"properties":{"scode":"670","name":"Mantova S.Agnese","variables":["C6H6","CO","EAQI","NO2","O3","O3_8H","PM10","PM25"],"latest":{"C6H6":0.4,"CO":0.3,"EAQI":1,"NO2":31.4,"O3":34.6,"O3_8H":39.8,"PM10":32.0,"PM25":15.0},"latest_time":"2026-10-04T06:00","series":"series/670.csv"}},{"type":"Feature","geometry":{"type":"Point","coordinates":[10.78141717,45.15175186]},"properties":{"scode":"664","name":"Mantova p.zza Gramsci","variables":["C6H6","CO","EAQI","NO2","PM10","SO2"],"latest":{"C6H6":0.5,"CO":0.2,"EAQI":1,"NO2":31.8,"PM10":34.0,"SO2":3.0},"latest_time":"2026-10-04T06:00","series":"series/664.csv"}},{"type":"Feature","geometry":{"type":"Point","coordinates":[8.91415717,45.04008561]},"properties":{"scode":"672","name":"Cornale v.Libertà","variables":["C6H6","CO","EAQI","NO2","O3","O3_8H","PM25"],"latest":{"C6H6":0.3,"CO":0.5,"EAQI":1,"NO2":6.0,"O3":16.9,"O3_8H":42.4,"PM25":21.0},"latest_time":"2026-10-04T06:00","series":"series/672.csv"}},{"type":"Feature","geometry":{"type":"Point","coordinates":[8.90418742,45.10277464]},"properties":{"scode":"693","name":"Sannazzaro de' Burgondi v.Traversi","variables":["C6H6","EAQI","NO2","PM10","PM25","SO2"],"latest":{"C6H6":0.3,"EAQI":1,"NO2":9.1,"PM10":41.0,"PM25":27.0,"SO2":2.3},"latest_time":"2026-10-04T06:00","series":"series/693.csv"}},{"type":"Feature","geometry":{"type":"Point","coordinates":[9.00844961,44.99955481]},"properties":{"scode":"673","name":"Voghera v.Pozzoni","variables":["C6H6","CO","EAQI","NO2","O3","O3_8H","PM10"],"latest":{"C6H6":0.1,"CO":0.6,"EAQI":2,"NO2":4.3,"O3":66.2,"O3_8H":65.4,"PM10":28.0},"latest_time":"2026-10-04T06:00","series":"series/673.csv"}},{"type":"Feature","geometry":{"type":"Point","coordinates":[11.07609728,45.01688067]},"properties":{"scode":"703","name":"Schivenoglia v. Malpasso","variables":["C6H6","CO","EAQI","NO2","O3","O3_8H","PM10","PM25","SO2"],"latest":{"C6H6":0.3,"CO":0.5,"EAQI":1,"NO2":14.4,"O3":5.3,"O3_8H":41.6,"PM10":33.0,"PM25":18.0,"SO2":46.4},"latest_time":"2026-10-04T06:00","series":"series/703.csv"}},{"type":"Feature","geometry":{"type":"Point","coordinates":[9.60123469,45.64971]},"properties":{"scode":"1269","name":"Dalmine v.Verdi","variables":["C6H6","CO","EAQI","NO2","PM10","PM25"],"latest":{"C6H6":0.4,"CO":0.4,"EAQI":1,"NO2":11.5,"PM10":36.0,"PM25":24.0},"latest_time":"2026-10-04T06:00","series":"series/1269.csv"}},{"type":"Feature","geometry":{"type":"Point","coordinates":[9.39558125,45.85019631]},"properties":{"scode":"574","name":"Lecco v. Amendola","variables":["C6H6","CO","EAQI","NO2","PM10","SO2"],"latest":{"C6H6":0.2,"CO":0.2,"EAQI":1,"NO2":2.9,"PM10":20.0,"SO2":1.4},"latest_time":"2026-10-04T06:00","series":"series/574.csv"}},{"type":"Feature","geometry":{"type":"Point","coordinates":[10.37543275,46.46952397]},"properties":{"scode":"571","name":"Bormio v.Monte Braulio","variables":["C6H6","CO","EAQI","NO2","O3","O3_8H","PM10","PM25","SO2"],"latest":{"C6H6":0.2,"CO":0.1,"EAQI":1,"NO2":3.4,"O3":30.3,"O3_8H":32.1,"PM10":22.0,"PM25":15.0,"SO2":0.1},"latest_time":"2026-10-04T06:00","series":"series/571.csv"}},{"type":"Feature","geometry":{"type":"Point","coordinates":[10.17883506,45.87626097]},"properties":{"scode":"1322","name":"DarfoBT","variables":["C6H6","EAQI","NO2","O3","O3_8H","PM10","PM25"],"latest":{"C6H6":0.6,"EAQI":1,"NO2":11.2,"O3":37.8,"O3_8H":50.2,"PM10":25.0,"PM25":16.0},"latest_time":"2026-10-04T06:00","series":"series/1322.csv"}},{"type":"Feature","geometry":{"type":"Point","coordinates":[9.231667,45.478347]},"properties":{"scode":"705","name":"Milano Pascal Città Studi","variables":["C6H6","EAQI","NO2","O3","O3_8H","PM10","PM25","SO2"],"latest":{"C6H6":1.1,"EAQI":2,"NO2":18.9,"O3":55.9,"O3_8H":44.1,"PM10":36.0,"PM25":18.0,"SO2":4.6},"latest_time":"2026-10-04T06:00","series":"series/705.csv"}},{"type":"Feature","geometry":{"type":"Point","coordinates":[9.06697886,45.81504217]},"properties":{"scode":"561","name":"Como v.Cattaneo","variables":["C6H6","CO","EAQI","NO2","O3","O3_8H","PM10","PM25","SO2"],"latest":{"C6H6":0.3,"CO":0.3,"EAQI":2,"NO2":9.7,"O3":51.0,"O3_8H":44.4,"PM10":31.0,"PM25":15.0,"SO2":0.1},"latest_time":"2026-10-04T07:00","series":"series/561.csv"}},{"type":"Feature","geometry":{"type":"Point","coordinates":[10.21120522,45.54264789]},"properties":{"scode":"1801","name":"Brescia v.Tartaglia","variables":["C6H6","CO","EAQI","NO2","PM10","PM25"],"latest":{"C6H6":0.2,"CO":0.3,"EAQI":1,"NO2":9.7,"PM10":32.0,"PM25":16.0},"latest_time":"2026-10-04T06:00","series":"series/1801.csv"}},{"type":"Feature","geometry":{"type":"Point","coordinates":[10.23178722,45.53953611]},"properties":{"scode":"652","name":"Brescia v.Turati","variables":["C6H6","CO","EAQI","NO2"],"latest":{"C6H6":0.5,"CO":0.3,"EAQI":1,"NO2":20.8},"latest_time":"2026-10-04T06:00","series":"series/652.csv"}},{"type":"Feature","geometry":{"type":"Point","coordinates":[8.87407772,45.11351117]},"properties":{"scode":"682","name":"Ferrera Erbognone ENI","variables":["CO","EAQI","NO2","O3","O3_8H"],"latest":{"CO":0.7,"EAQI":1,"NO2":9.7,"O3":29.1,"O3_8H":40.2},"latest_time":"2026-10-04T07:00","series":"series/682.csv"}},{"type":"Feature","geometry":{"type":"Point","coordinates":[9.59201917,45.51933533]},"properties":{"scode":"592","name":"Treviglio p.zza Insurrezione","variables":["CO","EAQI","NO2","PM10","PM25"],"latest":{"CO":0.3,"EAQI":1,"NO2":10.6,"PM10":30.0,"PM25":17.0},"latest_time":"2026-10-04T06:00","series":"series/592.csv"}},{"type":"Feature","geometry":{"type":"Point","coordinates":[8.84216546,45.58289429]},"properties":{"scode":"558","name":"Busto Arsizio  Accam","variables":["CO","EAQI","NO2","O3","O3_8H","PM10","SO2"],"latest":{"CO":0.6,"EAQI":1,"NO2":8.6,"O3":23.1,"O3_8H":21.2,"PM10":32.0,"SO2":0.7},"latest_time":"2026-10-04T06:00","series":"series/558.csv"}},{"type":"Feature","geometry":{"type":"Point","coordinates":[9.23610903,45.53476819]},"properties":{"scode":"504","name":"Sesto San Giovanni v. Cesare da Sesto","variables":["CO","EAQI","NO2","PM25"],"latest":{"CO":0.3,"EAQI":1,"NO2":16.6,"PM25":18.0},"latest_time":"2026-10-04T06:00","series":"series/504.csv"}},{"type":"Feature","geometry":{"type":"Point","coordinates":[8.84732669,45.54852147]},"properties":{"scode":"551","name":"Arconate v. De Gasperi","variables":["CO","EAQI","NO2","O3","O3_8H"],"latest":{"CO":0.5,"EAQI":3,"NO2":8.5,"O3":105.4,"O3_8H":52.4},"latest_time":"2026-10-03T13:00","series":"series/551.csv"}},{"type":"Feature","geometry":{"type":"Point","coordinates":[8.82024911,45.8169745]},"properties":{"scode":"560","name":"Varese v.Copelli","variables":["CO","EAQI","NO2","PM10","PM25"],"latest":{"CO":0.3,"EAQI":1,"NO2":12.3,"PM10":30.0,"PM25":19.0},"latest_time":"2026-10-04T06:00","series":"series/560.csv"}},{"type":"Feature","geometry":{"type":"Point","coordinates":[9.14667703,45.18633544]},"properties":{"scode":"643","name":"Pavia p.zza Minerva","variables":["CO","EAQI","NO2","PM10"],"latest":{"CO":0.7,"EAQI":1,"NO2":17.3,"PM10":43.0},"latest_time":"2026-10-04T06:00","series":"series/643.csv"}},{"type":"Feature","geometry":{"type":"Point","coordinates":[9.35166247,45.84221272]},"properties":{"scode":"679","name":"Valmadrera v.Pozzi","variables":["CO","EAQI","NO2","O3","O3_8H","PM10"],"latest":{"CO":0.4,"EAQI":2,"NO2":1.0,"O3":75.0,"O3_8H":84.2,"PM10":22.0},"latest_time":"2026-10-04T06:00","series":"series/679.csv"}},{"type":"Feature","geometry":{"type":"Point","coordinates":[10.68336214,45.41277633]},"properties":{"scode":"695","name":"Ponti sul Mincio v.San Martino","variables":["CO","EAQI","NO2","O3","O3_8H","PM10","PM25"],"latest":{"CO":0.0,"EAQI":2,"NO2":7.7,"O3":50.7,"O3_8H":47.1,"PM10":29.0,"PM25":13.0},"latest_time":"2026-10-04T06:00","series":"series/695.csv"}},{"type":"Feature","geometry":{"type":"Point","coordinates":[9.28269897,45.39619767]},"properties":{"scode":"606","name":"San Giuliano Milanese via Milano","variables":["CO","EAQI","NO2"],"latest":{"CO":0.3,"EAQI":1,"NO2":22.9},"latest_time":"2026-10-04T07:00","series":"series/606.csv"}},{"type":"Feature","geometry":{"type":"Point","coordinates":[9.0446025,45.52342919]},"properties":{"scode":"514","name":"Rho via Buon Gesù","variables":["EAQI","NO2"],"latest":{"EAQI":1,"NO2":39.2},"latest_time":"2026-10-04T06:00","series":"series/514.csv"}},{"type":"Feature","geometry":{"type":"Point","coordinates":[8.73650211,45.52655611]},"properties":{"scode":"517","name":"Turbigo","variables":["EAQI","NO2","PM10","PM25"],"latest":{"EAQI":1,"NO2":12.1,"PM10":32.0,"PM25":13.0},"latest_time":"2026-10-04T05:00","series":"series/517.csv"}},{"type":"Feature","geometry":{"type":"Point","coordinates":[9.19532511,45.46334886]},"properties":{"scode":"528","name":"Milano Verziere","variables":["EAQI","NO2","O3","O3_8H","PM10"],"latest":{"EAQI":2,"NO2":19.7,"O3":64.1,"O3_8H":53.5,"PM10":25.0},"latest_time":"2026-10-04T06:00","series":"series/528.csv"}},{"type":"Feature","geometry":{"type":"Point","coordinates":[9.22776572,45.55232831]},"properties":{"scode":"529","name":"Cinisello Balsamo v.Lincoln","variables":["EAQI","NO2"],"latest":{"EAQI":1,"NO2":34.4},"latest_time":"2026-10-04T06:00","series":"series/529.csv"}},{"type":"Feature","geometry":{"type":"Point","coordinates":[9.32736196,45.48363242]},"properties":{"scode":"531","name":"Pioltello Limito","variables":["EAQI","NO2","O3","O3_8H","PM10"],"latest":{"EAQI":2,"NO2":17.4,"O3":57.8,"O3_8H":49.8,"PM10":33.0},"latest_time":"2026-10-04T06:00","series":"series/531.csv"}},{"type":"Feature","geometry":{"type":"Point","coordinates":[9.16794489,45.44386047]},"properties":{"scode":"539","name":"Milano v.Liguria","variables":["EAQI","NO2"],"latest":{"EAQI":2,"NO2":52.4},"latest_time":"2026-10-04T06:00","series":"series/539.csv"}},{"type":"Feature","geometry":{"type":"Point","coordinates":[9.160225,45.660992]},"properties":{"scode":"542","name":"Meda v. Gagarin","variables":["EAQI","NO2","PM10"],"latest":{"EAQI":1,"NO2":15.8,"PM10":30.0},"latest_time":"2026-10-04T06:00","series":"series/542.csv"}},{"type":"Feature","geometry":{"type":"Point","coordinates":[9.166983,45.547597]},"properties":{"scode":"544","name":"Cormano v. Edison","variables":["EAQI","NO2","O3","O3_8H"],"latest":{"EAQI":1,"NO2":21.2,"O3":9.1,"O3_8H":7.9},"latest_time":"2026-10-04T06:00","series":"series/544.csv"}},{"type":"Feature","geometry":{"type":"Point","coordinates":[8.98857592,45.28196356]},"properties":{"scode":"545","name":"Motta Visconti v. De Gasperi","variables":["EAQI","NO2","O3","O3_8H","SO2"],"latest":{"EAQI":1,"NO2":15.0,"O3":7.3,"O3_8H":37.9,"SO2":2.6},"latest_time":"2026-10-04T06:00","series":"series/545.csv"}},{"type":"Feature","geometry":{"type":"Point","coordinates":[8.88021388,45.46242074]},"properties":{"scode":"546","name":"Magenta v. F. Turati","variables":["EAQI","NO2","PM10"],"latest":{"EAQI":1,"NO2":15.6,"PM10":36.0},"latest_time":"2026-10-04T06:00","series":"series/546.csv"}},{"type":"Feature","geometry":{"type":"Point","coordinates":[8.80393513,45.83690178]},"properties":{"scode":"552","name":"Varese v.Vidoletti","variables":["EAQI","NO2","O3","O3_8H","SO2"],"latest":{"EAQI":2,"NO2":14.5,"O3":59.0,"O3_8H":62.5,"SO2":2.6},"latest_time":"2026-10-04T06:00","series":"series/552.csv"}},{"type":"Feature","geometry":{"type":"Point","coordinates":[9.02640138,45.62735705]},"properties":{"scode":"554","name":"Saronno v.Santuario","variables":["EAQI","NO2","O3","O3_8H","PM10","PM25"],"latest":{"EAQI":2,"NO2":17.8,"O3":59.6,"O3_8H":58.0,"PM10":33.0,"PM25":17.0},"latest_time":"2026-10-04T06:00","series":"series/554.csv"}},{"type":"Feature","geometry":{"type":"Point","coordinates":[9.55609572,45.63387247]},"properties":{"scode":"595","name":"Filago v.Don Milani","variables":["EAQI","NO2","PM10","SO2"],"latest":{"EAQI":1,"NO2":8.1,"PM10":24.0,"SO2":0.6},"latest_time":"2026-10-04T06:00","series":"series/595.csv"}},{"type":"Feature","geometry":{"type":"Point","coordinates":[9.61173782,45.62055568]},"properties":{"scode":"596","name":"Osio Sotto v.per Levate","variables":["EAQI","NO2","O3","O3_8H","PM10"],"latest":{"EAQI":2,"NO2":12.7,"O3":55.7,"O3_8H":56.3,"PM10":29.0},"latest_time":"2026-10-04T06:00","series":"series/596.csv"}},{"type":"Feature","geometry":{"type":"Point","coordinates":[9.40619194,45.69795956]},"properties":{"scode":"576","name":"Merate v. Madonna di Loreto","variables":["EAQI","NO2","PM10","PM25"],"latest":{"EAQI":1,"NO2":12.5,"PM10":30.0,"PM25":18.0},"latest_time":"2026-10-04T06:00","series":"series/576.csv"}},{"type":"Feature","geometry":{"type":"Point","coordinates":[9.64366092,45.69104328]},"properties":{"scode":"583","name":"Bergamo v.Meucci","variables":["EAQI","NO2","O3","O3_8H","PM10","PM25"],"latest":{"EAQI":2,"NO2":11.3,"O3":56.0,"O3_8H":61.1,"PM10":31.0,"PM25":17.0},"latest_time":"2026-10-04T06:00","series":"series/583.csv"}},{"type":"Feature","geometry":{"type":"Point","coordinates":[9.12573936,45.73083728]},"properties":{"scode":"565","name":"Cantù v.Meucci","variables":["EAQI","NO2","O3","O3_8H","PM10"],"latest":{"EAQI":1,"NO2":7.3,"O3":47.2,"O3_8H":52.2,"PM10":26.0},"latest_time":"2026-10-04T06:00","series":"series/565.csv"}},{"type":"Feature","geometry":{"type":"Point","coordinates":[9.38468725,46.1381409]},"properties":{"scode":"573","name":"Colico v.La Madoneta","variables":["EAQI","NO2","O3","O3_8H"],"latest":{"EAQI":1,"NO2":16.4,"O3":33.0,"O3_8H":48.7},"latest_time":"2026-10-04T06:00","series":"series/573.csv"}},{"type":"Feature","geometry":{"type":"Point","coordinates":[10.04477436,45.71630489]},"properties":{"scode":"588","name":"Tavernola Bergamasca v.Riva di Sotto","variables":["EAQI","NO2"],"latest":{"EAQI":2,"NO2":46.2},"latest_time":"2026-10-04T06:00","series":"series/588.csv"}},{"type":"Feature","geometry":{"type":"Point","coordinates":[9.58580022,45.30950506]},"properties":{"scode":"607","name":"Abbadia Cerreto v. Fanfulla","variables":["EAQI","NO2","O3","O3_8H"],"latest":{"EAQI":1,"NO2":23.6,"O3":1.8,"O3_8H":11.0},"latest_time":"2026-10-04T06:00","series":"series/607.csv"}},{"type":"Feature","geometry":{"type":"Point","coordinates":[9.69815314,45.15937678]},"properties":{"scode":"608","name":"Codogno v.Trento","variables":["EAQI","NO2","PM10"],"latest":{"EAQI":1,"NO2":37.1,"PM10":40.0},"latest_time":"2026-10-04T06:00","series":"series/608.csv"}},{"type":"Feature","geometry":{"type":"Point","coordinates":[9.263808,45.574117]},"properties":{"scode":"674","name":"Monza v.Machiavelli","variables":["EAQI","NO2","O3","O3_8H","PM10","PM25","SO2"],"latest":{"EAQI":2,"NO2":13.0,"O3":61.3,"O3_8H":47.2,"PM10":36.0,"PM25":23.0,"SO2":2.0},"latest_time":"2026-10-04T06:00","series":"series/674.csv"}},{"type":"Feature","geometry":{"type":"Point","coordinates":[9.56624,46.135486]},"properties":{"scode":"572","name":"Morbegno v.Cortivacci","variables":["EAQI","NO2","O3","O3_8H","PM10"],"latest":{"EAQI":1,"NO2":7.8,"O3":43.5,"O3_8H":58.3,"PM10":22.0},"latest_time":"2026-10-04T06:00","series":"series/572.csv"}},{"type":"Feature","geometry":{"type":"Point","coordinates":[9.70079278,45.08199189]},"properties":{"scode":"598","name":"San Rocco al Porto v.Matteotti","variables":["EAQI","NO2","PM10"],"latest":{"EAQI":1,"NO2":20.0,"PM10":32.0},"latest_time":"2026-10-04T06:00","series":"series/598.csv"}},{"type":"Feature","geometry":{"type":"Point","coordinates":[9.86340258,45.28398]},"properties":{"scode":"633","name":"Soresina v. Landriani","variables":["EAQI","NO2","PM10","PM25"],"latest":{"EAQI":2,"NO2":42.1,"PM10":51.0,"PM25":34.0},"latest_time":"2026-10-04T06:00","series":"series/633.csv"}},{"type":"Feature","geometry":{"type":"Point","coordinates":[9.41464375,45.33036444]},"properties":{"scode":"604","name":"Tavazzano con Villavesco v.Cascina Bagnolo","variables":["EAQI","NO2","PM10","SO2"],"latest":{"EAQI":1,"NO2":32.6,"PM10":34.0,"SO2":1.5},"latest_time":"2026-10-04T06:00","series":"series/604.csv"}},{"type":"Feature","geometry":{"type":"Point","coordinates":[10.20509022,45.64962671]},"properties":{"scode":"654","name":"Sarezzo v.Minelli","variables":["EAQI","NO2","O3","O3_8H","PM10"],"latest":{"EAQI":2,"NO2":10.1,"O3":66.2,"O3_8H":71.5,"PM10":28.0},"latest_time":"2026-10-04T06:00","series":"series/654.csv"}},{"type":"Feature","geometry":{"type":"Point","coordinates":[10.00620528,45.27848997]},"properties":{"scode":"626","name":"Corte de' Cortesi con Cignone v. Villa Strada Forca","variables":["EAQI","NO2","O3","O3_8H","PM10"],"latest":{"EAQI":1,"NO2":19.1,"O3":15.7,"O3_8H":23.3,"PM10":49.0},"latest_time":"2026-10-04T06:00","series":"series/626.csv"}},{"type":"Feature","geometry":{"type":"Point","coordinates":[9.39995481,45.86375372]},"properties":{"scode":"706","name":"Lecco v.Sora","variables":["EAQI","NO2","O3","O3_8H","PM10","PM25"],"latest":{"EAQI":2,"NO2":7.3,"O3":85.1,"O3_8H":83.9,"PM10":26.0,"PM25":16.0},"latest_time":"2026-10-04T06:00","series":"series/706.csv"}},{"type":"Feature","geometry":{"type":"Point","coordinates":[10.38929672,45.64605175]},"properties":{"scode":"659","name":"Odolo v.Praes","variables":["EAQI","NO2","O3","O3_8H","PM10"],"latest":{"EAQI":1,"NO2":18.8,"O3":8.5,"O3_8H":14.0,"PM10":28.0},"latest_time":"2026-10-04T06:00","series":"series/659.csv"}},{"type":"Feature","geometry":{"type":"Point","coordinates":[9.28641942,46.01583272]},"properties":{"scode":"1274","name":"Perledo P.zza della stazione","variables":["EAQI","NO2","O3","O3_8H"],"latest":{"EAQI":2,"NO2":6.9,"O3":81.9,"O3_8H":91.3},"latest_time":"2026-10-04T06:00","series":"series/1274.csv"}},{"type":"Feature","geometry":{"type":"Point","coordinates":[9.93059842,45.15047339]},"properties":{"scode":"1297","name":"Spinadesco v.Battisti","variables":["EAQI","NO2","O3","O3_8H","PM10","PM25"],"latest":{"EAQI":1,"NO2":22.6,"O3":2.2,"O3_8H":8.8,"PM10":57.0,"PM25":37.0},"latest_time":"2026-10-04T06:00","series":"series/1297.csv"}},{"type":"Feature","geometry":{"type":"Point","coordinates":[9.55624181,45.49822794]},"properties":{"scode":"609","name":"Casirate d'Adda v. Cimitero","variables":["EAQI","NO2","O3","O3_8H","PM10","PM25"],"latest":{"EAQI":2,"NO2":10.2,"O3":57.9,"O3_8H":51.0,"PM10":38.0,"PM25":26.0},"latest_time":"2026-10-04T06:00","series":"series/609.csv"}},{"type":"Feature","geometry":{"type":"Point","coordinates":[10.51750417,44.92469933]},"properties":{"scode":"665","name":"Viadana v. Cavalli","variables":["EAQI","NO2","O3","O3_8H","PM10"],"latest":{"EAQI":1,"NO2":20.0,"O3":37.5,"O3_8H":34.5,"PM10":29.0},"latest_time":"2026-10-04T06:00","series":"series/665.csv"}},{"type":"Feature","geometry":{"type":"Point","coordinates":[9.87921169,46.16785664]},"properties":{"scode":"1264","name":"Sondrio v.Paribelli","variables":["EAQI","NO2","O3","O3_8H","PM10","PM25"],"latest":{"EAQI":1,"NO2":5.3,"O3":19.3,"O3_8H":33.1,"PM10":27.0,"PM25":18.0},"latest_time":"2026-10-04T06:00","series":"series/1264.csv"}},{"type":"Feature","geometry":{"type":"Point","coordinates":[9.515991,45.52647322]},"properties":{"scode":"683","name":"Cassano d'Adda 2-v.Milano","variables":["EAQI","NO2","PM10","PM25"],"latest":{"EAQI":1,"NO2":9.0,"PM10":39.0,"PM25":22.0},"latest_time":"2026-10-04T06:00","series":"series/683.csv"}},{"type":"Feature","geometry":{"type":"Point","coordinates":[8.75697656,45.61924753]},"properties":{"scode":"687","name":"Ferno v.Di Dio","variables":["EAQI","NO2","O3","O3_8H","PM10"],"latest":{"EAQI":1,"NO2":12.6,"O3":38.2,"O3_8H":43.5,"PM10":28.0},"latest_time":"2026-10-04T06:00","series":"series/687.csv"}},{"type":"Feature","geometry":{"type":"Point","coordinates":[10.04384767,45.14254358]},"properties":{"scode":"677","name":"Cremona Via Fatebenefratelli","variables":["EAQI","NO2","O3","O3_8H","PM10","PM25"],"latest":{"EAQI":2,"NO2":42.0,"O3":8.7,"O3_8H":9.2,"PM10":44.0,"PM25":30.0},"latest_time":"2026-10-04T06:00","series":"series/677.csv"}},{"type":"Feature","geometry":{"type":"Point","coordinates":[8.75433614,45.28194289]},"properties":{"scode":"708","name":"Parona v. della Miseria","variables":["EAQI","NO2","PM10","PM25","SO2"],"latest":{"EAQI":1,"NO2":10.6,"PM10":39.0,"PM25":18.0,"SO2":6.2},"latest_time":"2026-10-04T07:00","series":"series/708.csv"}},{"type":"Feature","geometry":{"type":"Point","coordinates":[8.84480578,45.30361483]},"properties":{"scode":"709","name":"Vigevano v.Valletta","variables":["EAQI","NO2","PM10"],"latest":{"EAQI":2,"NO2":24.4,"PM10":35.0},"latest_time":"2026-10-03T01:00","series":"series/709.csv"}},{"type":"Feature","geometry":{"type":"Point","coordinates":[11.18094889,45.04650286]},"properties":{"scode":"697","name":"Borgofranco sul Po loc. Bonizzo","variables":["EAQI","NO2","PM10","PM25"],"latest":{"EAQI":1,"NO2":13.1,"PM10":22.0,"PM25":11.0},"latest_time":"2026-10-04T06:00","series":"series/697.csv"}},{"type":"Feature","geometry":{"type":"Point","coordinates":[9.66625758,45.23349689]},"properties":{"scode":"1266","name":"Bertonico v.Moro","variables":["EAQI","NO2","O3","O3_8H","PM10"],"latest":{"EAQI":3,"NO2":33.1,"O3":104.2,"O3_8H":46.6,"PM10":44.0},"latest_time":"2026-10-02T15:00","series":"series/1266.csv"}},{"type":"Feature","geometry":{"type":"Point","coordinates":[9.49754261,45.91279097]},"properties":{"scode":"681","name":"Moggio Loc. Penscei","variables":["EAQI","NO2","O3","O3_8H","PM10","PM25","SO2"],"latest":{"EAQI":3,"NO2":2.5,"O3":118.7,"O3_8H":119.1,"PM10":22.0,"PM25":18.0,"SO2":0.4},"latest_time":"2026-10-04T06:00","series":"series/681.csv"}},{"type":"Feature","geometry":{"type":"Point","coordinates":[9.20901588,45.80439096]},"properties":{"scode":"9157","name":"Erba - Buccinigo","variables":["EAQI","NO2","O3","O3_8H"],"latest":{"EAQI":2,"NO2":11.1,"O3":55.0,"O3_8H":58.2},"latest_time":"2026-10-04T07:00","series":"series/9157.csv"}},{"type":"Feature","geometry":{"type":"Point","coordinates":[9.276156,45.603072]},"properties":{"scode":"1374","name":"Monza Parco","variables":["EAQI","NO2","O3","O3_8H","PM10"],"latest":{"EAQI":1,"NO2":10.7,"O3":37.0,"O3_8H":38.6,"PM10":29.0},"latest_time":"2026-10-04T06:00","series":"series/1374.csv"}},{"type":"Feature","geometry":{"type":"Point","coordinates":[10.22281989,45.54006456]},"properties":{"scode":"649","name":"Brescia v.Broletto","variables":["EAQI","NO2","PM10","PM25"],"latest":{"EAQI":1,"NO2":8.5,"PM10":31.0,"PM25":14.0},"latest_time":"2026-10-03T02:00","series":"series/649.csv"}},{"type":"Feature","geometry":{"type":"Point","coordinates":[9.49528589,45.30278678]},"properties":{"scode":"1265","name":"Lodi S.Alberto","variables":["EAQI","NO2","O3","O3_8H","PM10","PM25"],"latest":{"EAQI":1,"NO2":22.3,"O3":33.7,"O3_8H":49.4,"PM10":47.0,"PM25":25.0},"latest_time":"2026-10-04T06:00","series":"series/1265.csv"}},{"type":"Feature","geometry":{"type":"Point","coordinates":[10.19190606,45.51306214]},"properties":{"scode":"669","name":"Brescia Villaggio Sereno","variables":["EAQI","NO2","O3","O3_8H","PM10","PM25","SO2"],"latest":{"EAQI":2,"NO2":7.9,"O3":88.4,"O3_8H":91.2,"PM10":35.0,"PM25":18.0,"SO2":3.2},"latest_time":"2026-10-04T06:00","series":"series/669.csv"}},{"type":"Feature","geometry":{"type":"Point","coordinates":[10.33624003,45.51571417]},"properties":{"scode":"661","name":"Rezzato v.De Gasperi","variables":["EAQI","NO2","PM10"],"latest":{"EAQI":2,"NO2":51.1,"PM10":39.0},"latest_time":"2026-10-03T01:00","series":"series/661.csv"}},{"type":"Feature","geometry":{"type":"Point","coordinates":[10.29913,45.24955194]},"properties":{"scode":"656","name":"Gambara v.Parma","variables":["EAQI","NO2","O3","O3_8H"],"latest":{"EAQI":1,"NO2":25.3,"O3":8.0,"O3_8H":20.6},"latest_time":"2026-10-04T06:00","series":"series/656.csv"}},{"type":"Feature","geometry":{"type":"Point","coordinates":[10.48078183,45.46375819]},"properties":{"scode":"657","name":"Lonato del Garda v.del Marchesino","variables":["EAQI","NO2","O3","O3_8H"],"latest":{"EAQI":2,"NO2":6.6,"O3":99.4,"O3_8H":103.8},"latest_time":"2026-10-04T06:00","series":"series/657.csv"}},{"type":"Feature","geometry":{"type":"Point","coordinates":[10.25637025,45.5086668]},"properties":{"scode":"1800","name":"Brescia S.Polo","variables":["EAQI","NO2","PM25"],"latest":{"EAQI":1,"NO2":14.5,"PM25":15.0},"latest_time":"2026-10-04T06:00","series":"series/1800.csv"}},{"type":"Feature","geometry":{"type":"Point","coordinates":[9.70395139,45.36631075]},"properties":{"scode":"629","name":"Crema v.XI febbraio","variables":["EAQI","NO2","O3","O3_8H","PM10"],"latest":{"EAQI":1,"NO2":21.5,"O3":15.3,"O3_8H":26.8,"PM10":45.0},"latest_time":"2026-10-04T06:00","series":"series/629.csv"}},{"type":"Feature","geometry":{"type":"Point","coordinates":[8.86890217,45.06966728]},"properties":{"scode":"690","name":"Mezzana Bigli loc. Casoni","variables":["EAQI","O3","O3_8H","PM10","SO2"],"latest":{"EAQI":1,"O3":32.9,"O3_8H":43.3,"PM10":52.0,"SO2":2.2},"latest_time":"2026-10-04T06:00","series":"series/690.csv"}}]}